HIERARCHY
ROOT Hips
{
	OFFSET 0.00000 0.00000 0.00000
	CHANNELS 6 Xposition Yposition Zposition Zrotation Yrotation Xrotation
	JOINT LHipJoint
	{
		OFFSET 0.00000 0.00000 0.00000
		CHANNELS 3 Zrotation Yrotation Xrotation
		JOINT LeftUpLeg
		{
			OFFSET 1.61328 -1.70571 0.84375
			CHANNELS 3 Zrotation Yrotation Xrotation
			JOINT LeftLeg
			{
				OFFSET 2.32400 -6.38513 0.00000
				CHANNELS 3 Zrotation Yrotation Xrotation
				JOINT LeftFoot
				{
					OFFSET 2.58843 -7.11166 0.00000
					CHANNELS 3 Zrotation Yrotation Xrotation
					JOINT LeftToeBase
					{
						OFFSET 0.17200 -0.47257 2.47970
						CHANNELS 3 Zrotation Yrotation Xrotation
						End Site
						{
							OFFSET 0.00000 -0.00000 1.26912
						}
					}
				}
			}
		}
	}
	JOINT RHipJoint
	{
		OFFSET 0.00000 0.00000 0.00000
		CHANNELS 3 Zrotation Yrotation Xrotation
		JOINT RightUpLeg
		{
			OFFSET -1.49930 -1.70570 0.84375
			CHANNELS 3 Zrotation Yrotation Xrotation
			JOINT RightLeg
			{
				OFFSET -2.30458 -6.33178 0.00000
				CHANNELS 3 Zrotation Yrotation Xrotation
				JOINT RightFoot
				{
					OFFSET -2.62261 -7.20556 0.00000
					CHANNELS 3 Zrotation Yrotation Xrotation
					JOINT RightToeBase
					{
						OFFSET -0.18709 -0.51403 2.51340
						CHANNELS 3 Zrotation Yrotation Xrotation
						End Site
						{
							OFFSET -0.00000 -0.00000 1.28858
						}
					}
				}
			}
		}
	}
	JOINT LowerBack
	{
		OFFSET 0.00000 0.00000 0.00000
		CHANNELS 3 Zrotation Yrotation Xrotation
		JOINT Spine
		{
			OFFSET -0.03798 2.19274 -0.19881
			CHANNELS 3 Zrotation Yrotation Xrotation
			JOINT Spine1
			{
				OFFSET -0.00024 2.19460 0.05248
				CHANNELS 3 Zrotation Yrotation Xrotation
				JOINT Neck
				{
					OFFSET 0.00000 0.00000 0.00000
					CHANNELS 3 Zrotation Yrotation Xrotation
					JOINT Neck1
					{
						OFFSET -0.00746 1.82323 0.17286
						CHANNELS 3 Zrotation Yrotation Xrotation
						JOINT Head
						{
							OFFSET 0.11826 1.82121 -0.27841
							CHANNELS 3 Zrotation Yrotation Xrotation
							End Site
							{
								OFFSET 0.03496 1.85543 -0.11495
							}
						}
					}
				}
				JOINT LeftShoulder
				{
					OFFSET 0.00000 0.00000 0.00000
					CHANNELS 3 Zrotation Yrotation Xrotation
					JOINT LeftArm
					{
						OFFSET 3.71926 0.78840 0.25473
						CHANNELS 3 Zrotation Yrotation Xrotation
						JOINT LeftForeArm
						{
							OFFSET 5.37587 -0.00000 0.00000
							CHANNELS 3 Zrotation Yrotation Xrotation
							JOINT LeftHand
							{
								OFFSET 3.35977 -0.00000 0.00000
								CHANNELS 3 Zrotation Yrotation Xrotation
								End Site
								{
									OFFSET 0.00000 0.60000 0.00000
								}
							}
						}
					}
				}
				JOINT RightShoulder
				{
					OFFSET 0.00000 0.00000 0.00000
					CHANNELS 3 Zrotation Yrotation Xrotation
					JOINT RightArm
					{
						OFFSET -3.65136 0.56074 0.01624
						CHANNELS 3 Zrotation Yrotation Xrotation
						JOINT RightForeArm
						{
							OFFSET -5.22819 -0.00000 0.00000
							CHANNELS 3 Zrotation Yrotation Xrotation
							JOINT RightHand
							{
								OFFSET -3.40764 -0.00000 0.00000
								CHANNELS 3 Zrotation Yrotation Xrotation
								End Site
								{
									OFFSET 0.00000 0.60000 0.00000
								}
							}
						}
					}
				}
			}
		}
	}
}
MOTION
Frames: 61
Frame Time: 0.0333333
0.0000 16.6798 0.0000 3.7703 -0.0000 7.7862 0.0000 0.0000 0.0000 -19.7114 13.8824 -6.0974 6.4113 14.8154 46.6109 -0.0296 6.7716 -8.8935 1.5944 -7.9646 -22.6066 0.0000 0.0000 0.0000 14.1713 8.7236 -37.0566 -3.8012 -11.8911 35.3477 -0.2680 -5.5219 -13.3643 -1.7829 -8.3985 23.9310 -0.5536 -1.1467 6.3184 0.0410 -1.7114 5.3620 0.4255 -0.9420 2.0029 0.8969 2.0763 -9.8745 3.9358 1.7661 16.8018 1.2579 1.1551 6.7228 0.0000 -0.0000 0.0000 -87.1293 -29.8180 52.3261 87.8280 -59.9822 -58.1191 -0.0000 0.0000 -59.6188 0.0000 -0.0000 0.0000 69.6756 23.1579 40.9126 -98.5094 59.7246 -67.3626 0.0000 -0.0000 -41.5236
-0.2624 16.9823 0.7454 3.0299 2.1179 5.4013 0.0000 0.0000 0.0000 -15.3667 13.0389 -12.2862 11.8361 18.3205 65.4684 0.1571 3.3789 -9.5176 1.6787 -8.1621 -23.2076 0.0000 0.0000 0.0000 16.9467 5.4925 -29.7597 -3.1734 -10.9706 32.1808 -0.3681 -5.3235 -14.6582 -2.2519 -9.3721 26.9663 -0.3088 -0.6506 6.8348 0.1671 -1.0040 4.4521 0.4045 -0.5627 0.7648 -0.4535 0.5457 -11.6917 5.4593 -0.5419 19.0967 1.8103 0.1326 7.8379 0.0000 0.0000 0.0000 -84.0283 -36.5078 53.4365 86.9438 -59.9647 -57.3535 0.0000 0.0000 -58.0756 0.0000 0.0000 0.0000 62.6038 26.7779 39.9594 -99.1277 59.6828 -67.8964 0.0000 0.0000 -41.1739
-0.4808 17.2422 1.4587 2.4984 3.9296 2.9180 0.0000 0.0000 0.0000 -11.4976 12.2491 -18.2823 17.2892 19.8229 82.0515 0.2863 0.3467 -10.2389 1.6442 -8.0818 -22.9629 0.0000 0.0000 0.0000 18.7736 2.1314 -23.0574 -2.6606 -10.1243 29.3802 -0.4397 -4.5496 -15.0272 -2.4110 -9.6742 27.9281 0.3819 -0.0034 7.1528 -0.0709 -0.0952 4.2122 -0.2811 -0.0882 0.3322 -1.7362 -0.8277 -13.0216 6.2488 -2.3833 19.9289 2.1105 -0.7198 8.4424 0.0000 0.0000 0.0000 -79.3777 -43.7245 53.0869 81.2794 -59.7107 -52.4551 0.0000 0.0000 -60.5757 0.0000 0.0000 0.0000 55.3038 29.5283 36.2050 -95.8692 59.8694 -65.0806 0.0000 0.0000 -40.5843
-0.6627 17.4704 2.1493 1.5589 5.6482 0.7854 0.0000 0.0000 0.0000 -7.6887 11.7398 -24.6714 21.7577 19.9258 95.1453 0.3192 -3.5118 -10.0431 1.7676 -8.3642 -23.8257 0.0000 0.0000 0.0000 20.2720 -1.5114 -17.2358 -2.2102 -9.2908 26.7091 -0.4093 -3.3901 -13.8090 -2.4041 -9.6615 27.8872 1.5749 0.4584 7.3916 -0.0886 0.6003 4.0638 -1.0179 0.2801 0.0679 -2.8742 -1.9699 -13.7073 6.3250 -3.7098 20.0895 2.1777 -1.3985 8.7038 0.0000 0.0000 0.0000 -73.4015 -49.5843 51.4977 75.1464 -59.1497 -47.1731 0.0000 0.0000 -57.7921 0.0000 0.0000 0.0000 48.4133 31.0375 32.2559 -91.9125 59.9862 -61.6562 0.0000 0.0000 -40.5408
-0.8062 17.6638 2.8161 0.5551 6.4152 -0.6737 0.0000 0.0000 0.0000 -5.1999 11.9698 -31.6110 24.8636 19.4232 104.3529 0.2371 -7.1476 -9.3441 1.9080 -8.6719 -24.7741 0.0000 0.0000 0.0000 21.2524 -4.1425 -12.2072 -1.8119 -8.4627 24.1286 -0.2718 -2.4268 -11.0458 -2.7033 -10.1985 29.6218 2.7557 0.9477 7.4072 0.0533 1.3413 3.7713 -1.5899 0.6653 -0.1931 -3.4485 -2.6418 -14.0843 5.8422 -4.3882 20.2728 2.0284 -1.7949 8.8717 0.0000 0.0000 0.0000 -66.4154 -53.3935 48.2552 71.2588 -58.6304 -43.8443 0.0000 0.0000 -54.8086 0.0000 0.0000 0.0000 42.6481 32.0797 29.1228 -87.6232 59.9786 -57.9418 0.0000 0.0000 -39.7358
-0.9229 17.8182 3.4767 -0.3811 6.1476 -1.7170 0.0000 0.0000 0.0000 -4.6818 12.3465 -38.3389 26.5514 18.9382 109.4869 0.1560 -8.9420 -8.8444 1.9083 -8.6725 -24.7761 0.0000 0.0000 0.0000 21.9451 -5.9876 -7.9418 -1.5071 -7.7535 21.9679 -0.1060 -2.7167 -7.7728 -3.2456 -11.0824 32.5582 3.8832 1.5267 7.4098 0.1582 2.2044 3.3926 -2.1814 1.1038 -0.5013 -3.4270 -2.8298 -14.2661 5.4707 -4.5785 20.5408 1.8746 -1.9143 8.9973 0.0000 0.0000 0.0000 -59.1881 -54.9888 43.8060 70.4688 -58.5084 -43.1702 0.0000 0.0000 -55.1288 0.0000 0.0000 0.0000 38.3400 32.8476 26.9361 -83.1836 59.8237 -54.1003 0.0000 0.0000 -39.3993
-1.0198 17.9346 4.1320 -1.1656 5.2870 -2.4247 0.0000 0.0000 0.0000 -6.0914 12.0360 -44.3231 26.8883 18.8221 110.5281 0.1617 -9.0670 -8.9870 1.8079 -8.4540 -24.1017 0.0000 0.0000 0.0000 22.5085 -7.6189 -4.8106 -1.3346 -7.3153 20.6528 0.0086 -4.2759 -5.7553 -3.5374 -11.5180 34.0476 4.7966 2.0307 7.3829 0.1852 2.9473 3.1368 -2.7210 1.4784 -0.6529 -3.1053 -2.8678 -14.6471 5.3442 -4.6833 20.7597 1.7615 -1.9423 9.1381 0.0000 0.0000 0.0000 -51.5929 -55.0549 38.3208 72.0222 -58.7428 -44.4965 0.0000 0.0000 -55.5245 0.0000 0.0000 0.0000 34.9655 34.1761 25.1854 -78.7079 59.5127 -50.2368 0.0000 0.0000 -38.5752
-1.1008 18.0060 4.7793 -1.7817 4.1242 -2.8978 0.0000 0.0000 0.0000 -8.7026 10.6315 -48.9904 25.9626 19.1253 107.6814 0.2364 -8.1829 -9.6890 1.7469 -8.3177 -23.6833 0.0000 0.0000 0.0000 23.0809 -8.3980 -2.0536 -1.2400 -7.0612 19.8967 0.0740 -5.8162 -5.5884 -3.1951 -11.0044 32.2947 5.4540 2.4596 7.3918 0.2481 3.5633 3.0909 -3.0655 1.7907 -0.6153 -2.8395 -2.8780 -15.0908 5.0869 -4.6721 20.6167 1.6255 -1.9329 9.1576 0.0000 0.0000 0.0000 -44.0296 -54.1150 32.2123 75.0983 -59.1441 -47.1319 0.0000 0.0000 -55.4381 0.0000 0.0000 0.0000 31.7017 35.8805 23.5330 -74.9355 59.1249 -46.9921 0.0000 0.0000 -36.4929
-1.1727 18.0165 5.4288 -2.2419 2.9425 -3.2375 0.0000 0.0000 0.0000 -11.5200 8.3859 -51.8848 23.9066 19.6301 101.4901 0.3578 -6.4993 -10.9025 1.7781 -8.3878 -23.8983 0.0000 0.0000 0.0000 23.7074 -8.9487 0.4379 -1.2062 -6.9676 19.6193 0.1146 -6.5527 -5.2222 -2.4555 -9.7565 28.1916 5.8831 2.7774 7.4382 0.2893 4.0138 3.1204 -3.2916 2.0204 -0.5396 -2.5124 -2.6911 -15.2008 4.7468 -4.3635 20.0760 1.4913 -1.7977 8.9621 0.0000 0.0000 0.0000 -36.8145 -52.3134 26.2809 79.1322 -59.5490 -50.6025 0.0000 0.0000 -57.2159 0.0000 0.0000 0.0000 28.0741 37.4194 22.2825 -72.5627 58.8193 -44.9587 0.0000 0.0000 -35.4796
-1.2347 17.9637 6.0904 -2.5214 1.9864 -3.4063 0.0000 0.0000 0.0000 -14.1227 5.7398 -52.8780 20.8024 19.9846 92.3466 0.4834 -3.9134 -12.3808 1.7453 -8.3140 -23.6720 0.0000 0.0000 0.0000 24.3527 -9.4992 2.7697 -1.2062 -6.9677 19.6196 0.1193 -6.5225 -4.8099 -1.8083 -8.4549 24.1044 6.0917 2.9850 7.3820 0.2302 4.2970 3.1449 -3.4809 2.1677 -0.4335 -2.1519 -2.4308 -15.1647 4.4538 -3.9797 19.5015 1.3786 -1.6234 8.7296 0.0000 0.0000 0.0000 -30.1381 -50.3184 20.9780 82.6964 -59.7975 -53.6792 0.0000 0.0000 -58.3806 0.0000 0.0000 0.0000 24.0171 38.5848 21.0445 -71.4946 58.6657 -44.0457 0.0000 0.0000 -34.9692
-1.2867 17.8545 6.7787 -2.6842 1.1683 -3.5281 0.0000 0.0000 0.0000 -16.3559 3.4189 -51.6148 16.7041 19.7375 80.3227 0.5739 -1.5719 -13.8566 1.6448 -8.0833 -22.9674 0.0000 0.0000 0.0000 24.8894 -9.9297 5.2596 -1.2177 -6.9997 19.7146 0.0914 -5.8766 -4.7260 -1.2649 -7.1289 20.0978 6.1408 3.1629 7.1768 0.1689 4.5170 3.2316 -3.5665 2.2876 -0.1976 -1.9966 -2.2254 -15.0177 4.1276 -3.6086 18.7508 1.2879 -1.4749 8.4251 0.0000 0.0000 0.0000 -24.3931 -48.4063 16.3270 85.3859 -59.9194 -56.0051 0.0000 0.0000 -57.8671 0.0000 0.0000 0.0000 19.5338 38.9950 19.5108 -72.0201 58.7426 -44.4947 0.0000 0.0000 -34.8185
-1.3311 17.6955 7.5027 -3.0448 0.1790 -3.4541 0.0000 0.0000 0.0000 -17.9895 2.1078 -48.5926 11.9467 18.3680 65.8197 0.6205 -0.1312 -14.8414 1.6928 -8.1944 -23.3062 0.0000 0.0000 0.0000 25.4684 -10.2195 7.9578 -1.1979 -6.9445 19.5509 0.0549 -5.0251 -4.8444 -0.5960 -4.9421 13.7436 6.3203 3.3582 6.6996 0.1965 4.7543 3.2578 -3.6146 2.4197 0.1325 -1.9531 -1.9606 -14.9445 3.6509 -3.1122 18.1819 1.1794 -1.2861 8.1946 0.0000 0.0000 0.0000 -19.7053 -46.1837 12.3238 88.2828 -59.9889 -58.5129 0.0000 0.0000 -59.5148 0.0000 0.0000 0.0000 15.0947 38.7996 17.9535 -73.9152 58.9995 -46.1170 0.0000 0.0000 -35.5846
-1.3637 17.5061 8.2732 -3.6596 -1.1297 -2.8271 0.0000 0.0000 0.0000 -18.7432 1.0083 -44.4782 7.3317 15.6050 50.1179 0.6244 -0.7934 -14.6774 1.7851 -8.4032 -23.9457 0.0000 0.0000 0.0000 25.9780 -10.2998 10.9998 -1.0572 -6.5375 18.3523 0.0269 -4.1223 -4.6118 -0.2061 -2.9232 8.0650 6.7387 3.5722 5.6230 0.2139 4.9999 3.0652 -3.7667 2.5628 0.5930 -1.8759 -1.6272 -14.9926 3.2029 -2.5568 17.8926 1.0807 -1.0608 8.0816 0.0000 0.0000 0.0000 -15.8715 -43.5606 9.0613 91.9418 -59.9857 -61.6816 0.0000 0.0000 -60.9543 0.0000 0.0000 0.0000 11.0165 38.2544 16.8476 -76.6708 59.3179 -48.4830 0.0000 0.0000 -36.0441
-1.3869 17.2842 9.0896 -4.3827 -2.7262 -1.6905 0.0000 0.0000 0.0000 -18.3692 -0.6297 -40.3553 4.1570 12.3664 37.0409 0.3935 -0.3329 -11.7379 1.6877 -8.1827 -23.2704 0.0000 0.0000 0.0000 26.0248 -10.6358 13.8533 -0.8776 -5.9724 16.7043 0.0063 -2.8678 -3.7032 -0.0851 -1.8820 5.1796 7.3301 3.8432 4.0364 0.0798 5.2991 2.5653 -4.1373 2.7340 1.0612 -1.7857 -1.3156 -14.9045 3.0390 -2.1108 17.7666 1.0620 -0.8608 8.0085 0.0000 0.0000 0.0000 -12.9494 -40.9023 6.4690 96.3051 -59.8493 -65.4576 0.0000 0.0000 -60.3217 0.0000 0.0000 0.0000 7.7654 37.2758 16.2163 -80.4518 59.6527 -51.7406 0.0000 0.0000 -35.2379
-1.4155 17.0473 9.9559 -4.9467 -4.4994 -0.4785 0.0000 0.0000 0.0000 -17.3233 -2.2861 -37.5339 2.9791 10.6612 31.1455 0.0724 2.7826 -6.8861 1.4284 -7.5573 -21.3772 0.0000 0.0000 0.0000 25.3240 -11.5627 17.0028 -0.6628 -5.2067 14.4990 0.0057 -2.0326 -2.3674 -0.1334 -2.3546 6.4867 7.6108 4.1207 2.3220 -0.2360 5.5829 1.9105 -4.5096 2.8875 1.4342 -1.5426 -0.9344 -14.9918 3.1381 -1.6761 17.9952 1.1041 -0.6288 8.0877 0.0000 0.0000 0.0000 -10.7109 -38.4184 3.9880 101.3663 -59.5062 -69.8271 0.0000 0.0000 -60.2401 0.0000 0.0000 0.0000 5.5249 35.9054 15.7186 -85.7688 59.9322 -56.3365 0.0000 0.0000 -34.6858
-1.4672 16.7660 10.8520 -5.4396 -5.7919 0.2509 0.0000 0.0000 0.0000 -16.7102 -2.6983 -35.9620 3.1986 11.0097 32.3128 -0.0329 3.3329 -2.1505 1.5994 -7.9765 -22.6426 0.0000 0.0000 0.0000 24.5799 -12.0519 20.4427 -0.5436 -4.7237 13.1221 0.0148 -2.1790 -1.1153 -0.4869 -4.4741 12.4145 7.4569 4.1566 1.1010 -0.5992 5.5700 1.2972 -4.7308 2.8738 1.4997 -1.3706 -0.6131 -15.0733 3.7430 -1.4069 18.0290 1.3076 -0.4303 8.1106 0.0000 0.0000 0.0000 -8.9159 -36.3074 1.3444 107.3437 -58.8323 -74.9611 0.0000 0.0000 -59.9228 0.0000 0.0000 0.0000 4.0936 33.9139 15.0592 -92.8075 59.9702 -62.4311 0.0000 0.0000 -34.2445
-1.5282 16.4507 11.7868 -6.0518 -6.5717 0.3775 0.0000 0.0000 0.0000 -16.2501 -2.6811 -33.9388 4.0882 12.2768 36.7185 0.0029 -1.5753 -1.3855 1.0566 -6.5357 -18.3470 0.0000 0.0000 0.0000 23.8742 -12.1638 23.2475 -0.6017 -4.9653 13.8097 0.0290 -3.8210 1.0973 -1.5155 -7.7742 22.0304 7.2235 3.9705 0.3827 -0.8690 5.2913 0.8167 -4.8564 2.7191 1.3687 -1.3964 -0.5592 -15.3143 4.6502 -1.5152 17.9223 1.6018 -0.3926 8.1299 0.0000 0.0000 0.0000 -7.2274 -34.6556 -1.6869 113.8330 -57.7410 -80.4835 0.0000 0.0000 -59.1008 0.0000 0.0000 0.0000 2.6958 31.0751 13.5716 -101.1572 59.5244 -69.6470 0.0000 0.0000 -33.4603
-1.5618 16.2102 12.7930 -6.4677 -6.9612 0.3176 0.0000 0.0000 0.0000 -15.9582 -4.3391 -32.1077 5.2517 13.6618 41.8990 0.1354 -1.9728 -6.5454 0.4189 -4.1541 -11.5106 0.0000 0.0000 0.0000 22.6652 -11.7717 25.2677 -0.7645 -5.5835 15.5805 0.0664 -8.9887 4.9747 -2.9536 -10.6196 31.0073 6.9771 3.5208 -0.4487 -1.0425 4.6508 0.3194 -4.8849 2.3802 1.2246 -1.7090 -0.7807 -15.5267 5.7050 -1.9840 18.0201 1.9539 -0.5314 8.2322 0.0000 0.0000 0.0000 -5.5057 -33.0185 -5.0014 119.2041 -56.5183 -84.9959 0.0000 0.0000 -58.1613 0.0000 0.0000 0.0000 0.6084 28.1816 11.5458 -108.1033 58.7247 -75.6108 0.0000 0.0000 -33.3141
-1.5790 16.0121 13.7393 -6.3465 -7.5354 -0.2714 0.0000 0.0000 0.0000 -16.4446 -5.0512 -30.7777 6.6674 15.0453 47.6050 0.3873 -1.2372 -11.3892 0.4431 -4.2709 -11.8402 0.0000 0.0000 0.0000 21.3856 -9.7986 23.3327 -1.8712 -8.5926 24.5290 -0.0429 -13.9666 10.3081 -3.3482 -11.2385 33.0884 6.2628 2.9213 -0.3520 -1.0611 3.8716 0.0362 -4.5479 1.9622 0.7234 -2.1406 -1.2144 -15.5577 6.9844 -2.7216 17.4588 2.3630 -0.7942 8.1076 0.0000 0.0000 0.0000 -2.6569 -31.4542 -9.3120 121.9264 -55.7744 -87.2568 0.0000 0.0000 -54.4892 0.0000 0.0000 0.0000 -4.0741 25.6101 8.3667 -110.7507 58.3088 -77.8686 0.0000 0.0000 -31.7591
-1.5862 15.9669 14.5843 -5.2359 -10.1025 -1.4811 0.0000 0.0000 0.0000 -18.1560 -1.6666 -27.1179 6.8369 15.1930 48.2548 0.6081 -1.3400 -14.3318 0.6550 -5.1765 -14.4125 0.0000 0.0000 0.0000 18.6700 -7.0217 18.1420 -4.4447 -12.7298 38.3651 -0.2289 -18.7459 15.1275 -2.1773 -9.2259 26.5046 4.2976 2.5032 0.9520 -0.8838 3.3809 -0.0036 -3.3437 1.6859 -0.2350 -2.3570 -1.5642 -15.2865 8.4535 -3.3952 16.4076 2.7996 -1.0197 7.7801 0.0000 0.0000 0.0000 1.7300 -28.8555 -14.7306 122.6667 -55.5564 -87.8681 0.0000 0.0000 -53.7891 0.0000 0.0000 0.0000 -11.3218 24.5585 3.7185 -108.3866 58.6833 -75.8529 0.0000 0.0000 -28.8288
-1.5593 16.1685 15.3588 -3.0822 -14.0008 -2.2931 0.0000 0.0000 0.0000 -21.2219 2.8634 -21.1883 5.4800 13.9048 42.8573 0.6508 -0.1117 -15.2084 0.8987 -6.0420 -16.9062 0.0000 0.0000 0.0000 15.3129 -2.8984 10.1740 -8.3606 -16.3782 53.8515 -0.1602 -17.9412 14.0496 -1.1673 -6.8583 19.2964 1.6909 2.2559 1.7852 -0.8724 3.0329 -0.0957 -1.9152 1.5049 -0.9627 -2.2215 -1.9222 -15.5518 9.6697 -4.2291 16.5460 3.0874 -1.3010 7.9555 0.0000 0.0000 0.0000 6.3812 -25.3520 -20.2228 123.1463 -55.4115 -88.2633 0.0000 0.0000 -54.6439 0.0000 0.0000 0.0000 -19.1800 24.6649 -1.7061 -103.9341 59.2535 -72.0370 0.0000 0.0000 -27.7291
-1.5059 16.6266 16.0621 -3.5673 -16.7714 -1.7719 0.0000 0.0000 0.0000 -21.6020 4.8761 -14.3580 3.6478 11.6763 34.5964 0.3734 2.1648 -12.5390 1.2536 -7.0982 -20.0066 0.0000 0.0000 0.0000 16.2998 1.6481 1.0181 -12.2672 -18.5013 66.8332 -0.2545 -10.3994 10.8334 -0.7227 -5.4320 15.1449 1.7996 1.6240 1.8834 0.1766 2.2079 -0.2216 -0.8897 1.0909 -1.2211 -2.0257 -2.1784 -16.0432 10.5046 -4.9087 17.0083 3.2587 -1.5224 8.2678 0.0000 0.0000 0.0000 10.0098 -22.3162 -25.3222 123.5932 -55.2739 -88.6309 0.0000 0.0000 -54.9934 0.0000 0.0000 0.0000 -27.8313 23.8285 -7.1034 -99.3427 59.6676 -68.0820 0.0000 0.0000 -25.7624
-1.4826 17.2585 16.7248 -4.5104 -17.6523 -1.4873 0.0000 0.0000 0.0000 -21.2775 5.3089 -7.0367 2.0851 9.0412 25.9242 -0.0607 5.4341 -5.4271 1.6801 -8.1653 -23.2172 0.0000 0.0000 0.0000 18.8888 5.0177 -6.9380 -15.1207 -19.4194 75.6000 -0.0523 -3.1119 4.3106 -0.3317 -3.7013 10.2377 1.5163 0.5155 2.2368 1.8504 0.7325 -0.1196 1.0217 0.3523 -1.3814 -1.4467 -2.3502 -16.7783 10.9053 -5.5658 17.9755 3.2258 -1.7214 8.7791 0.0000 0.0000 0.0000 12.9802 -20.3696 -29.6688 123.9757 -55.1539 -88.9450 0.0000 0.0000 -54.4543 0.0000 0.0000 0.0000 -36.3104 22.1196 -11.0189 -92.9636 59.9668 -62.5663 0.0000 0.0000 -24.0948
-1.4845 17.9555 17.4009 -4.3965 -16.4786 -1.8494 0.0000 0.0000 0.0000 -21.8520 5.1967 -1.7956 1.2249 7.0195 19.7733 -0.3064 12.4152 3.6543 1.2085 -6.9742 -19.6389 0.0000 0.0000 0.0000 20.3160 6.4826 -13.2517 -16.6225 -19.7243 80.0812 -0.0038 2.3572 -1.9051 -0.0404 -1.2966 3.5654 0.0094 -1.0872 2.5569 3.2565 -1.4559 0.0567 3.3951 -0.7411 -1.2909 -0.2428 -2.5253 -17.4956 10.9652 -6.4297 19.3442 2.9431 -1.9901 9.4208 0.0000 0.0000 0.0000 16.4500 -19.4673 -32.7801 123.2006 -55.3949 -88.3080 0.0000 0.0000 -52.3499 0.0000 0.0000 0.0000 -43.0822 20.5505 -13.5277 -84.7485 59.8955 -55.4536 0.0000 0.0000 -24.0896
-1.4845 18.5680 18.0743 -3.9826 -13.9670 -1.2136 0.0000 0.0000 0.0000 -22.8550 3.9841 -0.4910 0.9813 6.3056 17.6738 -0.7205 21.3334 8.6168 0.4719 -4.4056 -12.2207 0.0000 0.0000 0.0000 20.8106 7.8954 -19.5733 -17.2023 -19.8113 81.7952 -0.1678 3.7083 -7.3412 -0.0177 0.8585 -2.3596 -1.3580 -2.9481 2.0229 4.4259 -4.0013 -0.1880 5.4335 -2.0252 -0.9162 0.5922 -2.7137 -18.2748 11.1001 -7.2112 20.3354 2.7466 -2.2320 9.9557 0.0000 0.0000 0.0000 20.6259 -18.8899 -35.0785 120.2448 -56.2444 -85.8625 0.0000 0.0000 -51.6670 0.0000 0.0000 0.0000 -48.2384 18.8521 -15.5444 -77.0078 59.3525 -48.7729 0.0000 0.0000 -23.1171
-1.4754 18.9934 18.7456 -3.0952 -11.8903 -0.3084 0.0000 0.0000 0.0000 -24.4817 4.5690 -1.3905 0.9445 6.1897 17.3359 -1.0821 23.7130 7.7908 0.3773 -3.9450 -10.9221 0.0000 0.0000 0.0000 20.2003 10.6352 -24.4767 -16.9126 -19.7699 80.9398 -0.4371 3.1568 -11.8053 -0.0691 1.6964 -4.6673 -2.5467 -4.4538 1.3459 5.2750 -6.0591 -0.5718 6.9723 -3.0714 -0.5048 0.9095 -3.0219 -18.3018 11.1525 -7.7487 20.0817 2.6283 -2.4702 9.8988 0.0000 0.0000 0.0000 25.1558 -18.3655 -36.7722 115.4349 -57.4085 -81.8356 0.0000 0.0000 -51.7274 0.0000 0.0000 0.0000 -51.9849 17.0833 -17.8482 -70.8245 58.5640 -43.4736 0.0000 0.0000 -21.8829
-1.4556 19.2041 19.4264 -1.6413 -11.1445 -1.1286 0.0000 0.0000 0.0000 -26.9120 6.1779 -1.2892 0.9154 6.0963 17.0642 -1.5809 25.2769 4.7243 0.3158 -3.6125 -9.9890 0.0000 0.0000 0.0000 18.8652 13.9072 -25.7561 -15.7178 -19.5545 77.3896 -0.5427 5.1445 -13.1176 -0.0854 1.8850 -5.1880 -4.0319 -5.2660 2.3726 5.6874 -7.2078 -0.5117 8.3414 -3.6518 -0.6207 1.0116 -3.2061 -18.2524 10.8166 -7.9890 20.2717 2.4603 -2.6070 9.9492 0.0000 0.0000 0.0000 29.2697 -18.4003 -37.9786 109.9761 -58.4372 -77.2090 0.0000 0.0000 -52.0962 0.0000 0.0000 0.0000 -54.3035 16.2664 -21.0374 -65.9680 57.7011 -39.3483 0.0000 0.0000 -22.1115
-1.4225 19.2256 20.1327 -0.3517 -10.7719 -2.5670 0.0000 0.0000 0.0000 -29.4355 6.4602 -0.1735 0.9243 6.1250 17.1475 -2.9380 30.0386 -1.9269 0.0028 -0.3421 -0.9400 0.0000 0.0000 0.0000 17.8104 16.3237 -25.7033 -14.0583 -19.1316 72.3824 -0.3423 8.8805 -11.3277 -0.0686 1.6903 -4.6504 -5.1103 -5.6971 3.8180 5.9060 -7.8745 -0.2852 9.3387 -3.9877 -0.9005 1.0761 -3.3111 -18.2877 10.0651 -8.0618 20.9756 2.1813 -2.6864 10.1660 0.0000 0.0000 0.0000 32.6674 -19.1900 -38.9858 104.7136 -59.1660 -72.7066 0.0000 0.0000 -51.9916 0.0000 0.0000 0.0000 -55.5039 15.9547 -24.5725 -63.3679 57.1426 -37.1572 0.0000 0.0000 -21.8922
-1.3944 19.1088 20.8595 -0.0879 -10.2507 -2.6121 0.0000 0.0000 0.0000 -30.5341 7.5925 -1.0441 0.9945 6.3466 17.7936 -3.4690 32.0844 -2.9938 0.0708 1.7171 4.7246 0.0000 0.0000 0.0000 17.7058 17.8582 -26.9277 -12.2167 -18.4808 66.6742 -0.0941 9.5865 -8.2499 -0.0030 0.3538 -0.9720 -4.8619 -6.1366 3.6789 6.2291 -8.4677 -0.2758 9.5228 -4.3089 -0.6819 1.1286 -3.3725 -18.2810 9.2730 -8.0453 21.6708 1.9013 -2.7343 10.3668 0.0000 0.0000 0.0000 35.6842 -20.1663 -40.0549 100.1572 -59.6066 -68.7847 0.0000 0.0000 -50.9831 0.0000 0.0000 0.0000 -55.9065 15.6908 -27.9312 -62.6874 56.9845 -36.5861 0.0000 0.0000 -21.5281
-1.3849 18.8623 21.5906 -0.3422 -9.6846 -1.7873 0.0000 0.0000 0.0000 -30.4951 9.2578 -2.1923 0.9367 6.1647 17.2631 -2.9956 32.2268 3.0875 0.1067 2.1060 5.7986 0.0000 0.0000 0.0000 17.8727 18.7579 -29.0231 -10.1838 -17.5119 60.1009 0.0568 6.3989 -2.7880 -0.0560 -1.5266 4.1991 -4.2090 -6.5245 2.6655 6.6511 -8.9659 -0.3822 9.4691 -4.5933 -0.1594 1.2547 -3.3642 -18.2245 8.4384 -7.8495 21.9073 1.6178 -2.7149 10.3798 0.0000 0.0000 0.0000 38.0786 -20.9033 -41.3063 97.2603 -59.7999 -66.2834 0.0000 0.0000 -51.2880 0.0000 0.0000 0.0000 -56.0185 15.4323 -30.7851 -62.1676 56.8604 -36.1505 0.0000 0.0000 -21.7229
-1.3817 18.4744 22.2961 -0.2660 -9.1176 -1.9669 0.0000 0.0000 0.0000 -29.9442 13.1031 -0.3254 0.6211 5.0433 14.0322 -1.3340 28.4707 11.4256 0.0487 -1.4238 -3.9157 0.0000 0.0000 0.0000 17.7518 18.9230 -30.1942 -8.1334 -16.2165 53.0416 -0.0304 0.7518 3.6609 -0.3318 -3.7021 10.2401 -4.2514 -6.7005 2.9529 6.7793 -9.2200 -0.2897 9.6574 -4.7312 -0.1450 1.3646 -3.3739 -17.9415 7.8654 -7.6986 21.8238 1.4250 -2.7086 10.2531 0.0000 0.0000 0.0000 40.1929 -21.6564 -42.7068 95.7376 -59.8752 -64.9668 0.0000 0.0000 -51.7118 0.0000 0.0000 0.0000 -55.8495 15.0266 -32.7021 -61.0172 56.5750 -35.1888 0.0000 0.0000 -21.4746
-1.4064 17.9768 22.9659 0.3595 -8.8598 -3.1635 0.0000 0.0000 0.0000 -29.2824 17.9441 7.1799 0.1723 2.6738 7.3719 0.2744 17.1480 14.5563 2.0677 -9.0056 -25.8129 0.0000 0.0000 0.0000 17.5130 18.4307 -30.6072 -6.3344 -14.7447 46.3094 -0.1355 -3.6413 6.6390 -0.4336 -4.2255 11.7120 -5.3593 -6.6254 4.2229 6.4643 -9.1889 0.0936 10.0924 -4.7134 -0.3363 1.4007 -3.4343 -17.5981 7.5129 -7.7161 22.0326 1.2984 -2.7592 10.2432 0.0000 0.0000 0.0000 42.1933 -22.4241 -43.9304 95.6367 -59.8796 -64.8796 0.0000 0.0000 -51.2506 0.0000 0.0000 0.0000 -54.8304 15.0745 -34.0515 -60.4401 56.4261 -34.7075 0.0000 0.0000 -21.1374
-1.4407 17.4455 23.6892 1.7904 -9.4216 -4.3288 0.0000 0.0000 0.0000 -29.5630 22.2244 15.8961 0.0000 0.0000 0.0000 0.2279 10.0993 10.3654 3.2413 -11.0757 -32.5358 0.0000 0.0000 0.0000 17.0490 16.8867 -31.4240 -4.9855 -13.3674 40.7599 -0.0443 -4.0476 4.3894 -0.3844 -3.9818 11.0254 -7.1223 -6.3564 4.6204 5.8501 -8.9054 0.3428 10.4629 -4.5689 -0.1871 1.3973 -3.2387 -17.0482 6.7522 -7.3575 23.0300 1.0910 -2.6749 10.4470 0.0000 0.0000 0.0000 42.9869 -23.4780 -44.1368 97.0680 -59.8104 -66.1172 0.0000 0.0000 -50.9655 0.0000 0.0000 0.0000 -53.4853 16.1862 -34.8522 -61.2238 56.6273 -35.3613 0.0000 0.0000 -20.8910
-1.4652 16.9986 24.4922 3.3841 -10.0574 -4.3396 0.0000 0.0000 0.0000 -30.9767 24.4946 18.9649 0.0000 0.0000 0.0000 -0.0868 7.8020 3.3360 3.2181 -11.0401 -32.4151 0.0000 0.0000 0.0000 16.7772 13.7259 -34.0721 -4.2216 -12.4496 37.3416 -0.0402 -2.7248 3.7784 -0.2228 -3.0381 8.3849 -8.6589 -6.1868 3.3579 5.4515 -8.6384 0.0259 10.7603 -4.4301 0.2875 1.3351 -2.9079 -16.4581 5.7725 -6.8086 24.5947 0.8379 -2.5337 10.8445 0.0000 0.0000 0.0000 42.1218 -24.9797 -43.1403 99.6184 -59.6475 -68.3199 0.0000 0.0000 -49.8574 0.0000 0.0000 0.0000 -52.4959 17.3495 -34.2870 -63.4775 57.1676 -37.2493 0.0000 0.0000 -20.2873
-1.4881 16.6606 25.3488 3.7056 -9.8000 -3.7676 0.0000 0.0000 0.0000 -30.9095 25.4896 21.8442 0.0000 0.0000 0.0000 -0.1509 7.3278 0.0393 3.1339 -10.9087 -31.9724 0.0000 0.0000 0.0000 18.2443 9.0341 -36.2934 -3.9781 -12.1312 36.1978 -0.0519 -2.6782 4.1866 -0.2164 -2.9946 8.2637 -8.8953 -6.3159 1.4690 5.6066 -8.6830 -0.3199 10.8373 -4.4810 1.0503 1.2464 -2.7021 -15.7127 4.7706 -6.3605 25.7979 0.5640 -2.4664 11.0917 0.0000 0.0000 0.0000 40.7260 -25.9292 -41.5154 101.6798 -59.4782 -70.0973 0.0000 0.0000 -49.2046 0.0000 0.0000 0.0000 -52.0543 17.6445 -32.8426 -66.1612 57.7399 -39.5116 0.0000 0.0000 -19.8324
-1.4860 16.4209 26.2484 3.8082 -9.0663 -4.3800 0.0000 0.0000 0.0000 -29.5858 26.4375 26.0213 0.0000 0.0000 0.0000 -0.1248 7.0610 0.9189 2.9996 -10.6944 -31.2560 0.0000 0.0000 0.0000 18.9344 6.6756 -34.6946 -4.2276 -12.4573 37.3695 -0.0206 -1.3548 2.5745 -0.6391 -5.1146 14.2358 -8.8373 -6.4036 0.4160 5.8361 -8.7388 -0.1914 10.9053 -4.5650 1.8187 0.8428 -2.6692 -14.7695 3.6807 -6.1245 27.4643 0.2728 -2.5562 11.4955 0.0000 0.0000 0.0000 39.1829 -26.4523 -39.7590 102.7161 -59.3801 -70.9895 0.0000 0.0000 -49.6945 0.0000 0.0000 0.0000 -52.3689 17.7371 -31.5922 -68.1866 58.1235 -41.2281 0.0000 0.0000 -19.6043
-1.4748 16.3354 27.1969 3.5742 -7.6684 -5.0714 0.0000 0.0000 0.0000 -27.7155 26.5441 30.1325 0.0000 0.0000 0.0000 -0.0456 9.3817 5.7280 2.6947 -10.1836 -29.5735 0.0000 0.0000 0.0000 18.8663 8.1532 -30.7457 -4.8273 -13.1867 40.0713 -0.0212 0.8305 -2.5856 -1.3095 -7.2488 20.4547 -8.8274 -6.6051 -0.9447 6.3373 -8.9538 0.0046 11.2441 -4.7627 2.9287 0.1309 -2.6827 -13.2530 2.8625 -6.1336 29.9012 0.0870 -2.8069 12.1287 0.0000 0.0000 0.0000 37.5707 -27.1567 -38.2004 103.6406 -59.2851 -71.7847 0.0000 0.0000 -49.0269 0.0000 0.0000 0.0000 -53.1449 18.2736 -31.1678 -69.5267 58.3554 -42.3675 0.0000 0.0000 -18.9702
-1.4685 16.3937 28.1014 2.2669 -5.2676 -5.2224 0.0000 0.0000 0.0000 -25.1816 25.1547 33.2688 0.0000 0.0000 0.0000 0.2384 16.3854 13.7954 1.5923 -7.9594 -22.5910 0.0000 0.0000 0.0000 19.7596 9.6355 -26.9580 -5.2987 -13.7125 42.0977 -0.2021 -0.0934 -8.5257 -1.5665 -7.8977 22.4039 -8.3081 -6.9712 -2.3457 7.0365 -9.4419 0.3287 11.4609 -5.1151 4.2325 -0.3769 -2.7553 -11.8042 2.6621 -6.6213 32.6403 0.0109 -3.2013 12.9716 0.0000 0.0000 0.0000 37.3062 -27.4315 -37.6695 105.9914 -59.0113 -73.8030 0.0000 0.0000 -48.1870 0.0000 0.0000 0.0000 -52.9107 18.6607 -31.8042 -72.0840 58.7517 -44.5494 0.0000 0.0000 -18.1800
-1.4596 16.5018 28.9028 1.3787 -2.3477 -5.3089 0.0000 0.0000 0.0000 -24.4942 21.2141 23.2473 1.2744 7.1546 20.1742 0.3771 18.6699 16.2629 0.5405 -4.7104 -13.0845 0.0000 0.0000 0.0000 20.3107 7.3702 -23.6702 -5.2945 -13.7079 42.0799 -0.4431 1.5534 -12.1317 -1.3766 -7.4248 20.9801 -8.1425 -7.1273 -3.0354 7.2510 -9.6585 0.8177 11.4547 -5.3037 5.2181 -0.9826 -2.7923 -10.4932 2.7527 -7.0424 34.7306 0.0811 -3.5302 13.6340 0.0000 0.0000 0.0000 38.3398 -27.2366 -38.3086 109.0412 -58.5847 -76.4118 0.0000 0.0000 -47.3562 0.0000 0.0000 0.0000 -51.9958 18.0303 -32.5227 -75.1105 59.1455 -47.1423 0.0000 0.0000 -17.3396
-1.4339 16.6539 29.6622 0.2730 -0.3048 -5.7505 0.0000 0.0000 0.0000 -21.4774 20.2855 15.6055 3.6499 11.6793 34.6067 0.9280 17.3957 19.7233 0.1098 -2.1370 -5.8845 0.0000 0.0000 0.0000 21.5857 4.2155 -19.3182 -4.7668 -13.1163 39.8054 -0.6491 2.4793 -14.5758 -1.2481 -7.0833 19.9625 -6.6820 -6.4779 -3.2085 6.8886 -8.8264 1.5629 10.2702 -4.8655 5.5909 -1.4329 -2.6104 -9.2112 2.6356 -6.9308 36.2033 0.1376 -3.6119 14.0248 0.0000 0.0000 0.0000 39.6808 -27.3716 -39.5208 111.8302 -58.1204 -78.7862 0.0000 0.0000 -46.8347 0.0000 0.0000 0.0000 -50.9939 16.6141 -32.5515 -77.0390 59.3556 -48.7997 0.0000 0.0000 -16.7225
-1.4289 16.7712 30.3474 0.1577 0.7226 -6.2797 0.0000 0.0000 0.0000 -19.5862 19.9942 7.6092 6.6663 15.0443 47.6005 0.7741 11.2350 16.4540 0.1725 -2.6753 -7.3760 0.0000 0.0000 0.0000 21.9874 2.5726 -15.2214 -4.3625 -12.6277 37.9904 -0.8191 2.2517 -16.4870 -0.8914 -6.0180 16.8366 -6.0026 -5.4063 -2.7367 6.0691 -7.3700 2.2572 9.1852 -4.0930 5.4986 -1.9832 -2.1850 -7.7636 2.7101 -6.3440 37.0141 0.3757 -3.4665 14.0798 0.0000 0.0000 0.0000 40.4576 -26.9996 -40.5078 113.9769 -57.7122 -80.6051 0.0000 0.0000 -47.1255 0.0000 0.0000 0.0000 -50.0042 15.3236 -32.6775 -79.3664 59.5684 -50.8043 0.0000 0.0000 -15.9520
-1.3955 16.8664 30.9853 -0.6152 1.9992 -6.2638 0.0000 0.0000 0.0000 -17.7108 18.3565 -1.3204 10.1978 17.5196 60.1476 0.2684 7.7935 10.0036 0.3484 -3.7926 -10.4940 0.0000 0.0000 0.0000 22.8959 0.7591 -12.0174 -3.9673 -12.1168 36.1464 -0.9504 1.4483 -17.9942 -0.4395 -4.2538 11.7917 -3.8986 -4.1965 -2.6503 4.9446 -5.7771 3.1592 6.9125 -3.1990 5.7013 -1.8454 -2.1378 -7.2903 3.0734 -6.3947 37.2721 0.5069 -3.4093 14.1094 0.0000 0.0000 0.0000 42.1999 -26.1582 -42.8030 115.7257 -57.3453 -82.0805 0.0000 0.0000 -47.1333 0.0000 0.0000 0.0000 -48.0746 12.8177 -32.9111 -84.1723 59.8713 -54.9553 0.0000 0.0000 -14.8875
-1.3625 16.9523 31.6211 -2.2231 4.2995 -6.1213 0.0000 0.0000 0.0000 -15.1749 14.8735 -10.2652 13.4776 18.9479 70.6025 0.0037 5.7471 4.1320 0.4309 -4.2125 -11.6752 0.0000 0.0000 0.0000 24.5981 -2.3313 -9.3596 -3.4918 -11.4516 33.8185 -1.0458 0.4948 -19.1760 -0.2520 -3.2299 8.9195 -0.8111 -2.9943 -2.7732 3.5901 -4.2716 4.3069 3.8381 -2.2975 6.3809 -0.8175 -2.4501 -7.5748 3.6401 -7.0718 36.9288 0.4681 -3.4293 14.0329 0.0000 0.0000 0.0000 44.9656 -25.6340 -46.6584 118.5191 -56.6918 -84.4240 0.0000 0.0000 -47.0860 0.0000 0.0000 0.0000 -45.1376 9.0620 -33.6105 -91.4580 59.9920 -61.2626 0.0000 0.0000 -13.5878
-1.3578 16.9989 32.2353 -3.5350 6.5470 -6.4768 0.0000 0.0000 0.0000 -12.9362 10.9043 -18.2962 15.6301 19.5359 77.1277 -0.0446 3.8598 -0.3995 0.5110 -4.5821 -12.7203 0.0000 0.0000 0.0000 26.2554 -5.0288 -6.4529 -3.0899 -10.8392 31.7395 -1.1860 -0.8466 -20.9054 -0.2110 -2.9574 8.1603 1.1132 -2.0759 -1.9803 2.4927 -3.1044 5.2957 1.7291 -1.6013 6.7041 -0.4578 -2.4403 -7.2832 3.9757 -7.0652 36.6067 0.5604 -3.3048 13.8245 0.0000 0.0000 0.0000 46.4218 -25.5465 -50.1200 123.0158 -55.4512 -88.1559 0.0000 0.0000 -45.9048 0.0000 0.0000 0.0000 -41.9231 7.0625 -36.1406 -101.4641 59.4975 -69.9115 0.0000 0.0000 -12.1307
-1.3585 16.9968 32.8260 -4.4940 8.0179 -6.9109 0.0000 0.0000 0.0000 -11.2635 7.3362 -25.3283 16.1778 19.6461 78.7611 -0.0102 2.9261 -3.5282 0.6588 -5.1914 -14.4552 0.0000 0.0000 0.0000 27.9720 -6.3332 -3.3027 -2.7755 -10.3224 30.0272 -1.4195 -2.9127 -23.7196 -0.1810 -2.7403 7.5565 2.8539 -0.7868 -1.0322 1.0655 -1.3972 6.3617 -0.5906 -0.6169 7.1744 0.2180 -2.3091 -7.2415 4.1624 -6.9613 36.7350 0.5397 -3.1092 13.8594 0.0000 0.0000 0.0000 48.5652 -27.4270 -54.8826 126.7734 -54.2168 -91.2282 0.0000 0.0000 -42.7678 0.0000 0.0000 0.0000 -37.7052 6.5711 -40.1933 -111.5142 58.1767 -78.5178 0.0000 0.0000 -10.9076
-1.3433 16.9685 33.4142 -5.1314 8.7245 -7.2071 0.0000 0.0000 0.0000 -10.1224 4.3767 -30.6137 14.9671 19.3815 75.1375 0.0551 2.6207 -6.1839 0.7622 -5.5755 -15.5576 0.0000 0.0000 0.0000 29.4617 -7.3081 -0.2943 -2.4970 -9.8325 28.4360 -1.6916 -4.8720 -26.7261 -0.1965 -2.8549 7.8749 4.6755 0.7329 -0.4919 -0.4440 0.6317 7.1574 -3.0474 0.5653 7.8495 0.9956 -1.5822 -6.7953 4.2365 -5.9482 36.9321 0.5870 -2.5314 13.8014 0.0000 0.0000 0.0000 51.1729 -33.0755 -61.2332 124.2492 -55.0670 -89.1694 0.0000 0.0000 -40.4373 0.0000 0.0000 0.0000 -34.1790 9.1327 -44.6903 -116.6971 57.1277 -82.8974 0.0000 0.0000 -11.2763
-1.2992 16.9431 34.0247 -5.4480 8.7638 -7.4673 0.0000 0.0000 0.0000 -9.3719 1.5313 -32.9133 12.1212 18.4414 66.3725 0.1080 3.6589 -8.6438 0.8968 -6.0357 -16.8882 0.0000 0.0000 0.0000 30.3492 -8.0410 3.2030 -2.1691 -9.2098 26.4537 -1.8600 -6.4238 -28.7335 -0.1953 -2.8461 7.8505 6.7824 2.5493 -0.5480 -2.2054 3.0646 7.5663 -5.9067 2.0192 8.8452 2.5371 -0.5549 -5.9866 4.3859 -4.7138 37.3347 0.5546 -1.7600 13.7598 0.0000 0.0000 0.0000 56.4430 -42.1646 -68.2689 108.5459 -58.6596 -75.9889 0.0000 0.0000 -38.6144 0.0000 0.0000 0.0000 -30.8665 14.7665 -46.8295 -110.3732 58.3721 -77.5473 0.0000 0.0000 -14.0468
-1.2228 16.9168 34.6562 -5.5071 8.6850 -7.6215 0.0000 0.0000 0.0000 -8.7025 -1.6800 -32.3795 8.3900 16.3987 53.9555 0.1489 4.8816 -10.6983 0.9321 -6.1499 -17.2199 0.0000 0.0000 0.0000 30.4870 -8.7063 6.6608 -1.8954 -8.6446 24.6899 -1.8492 -7.4713 -29.2830 -0.1322 -2.3432 6.4550 8.4381 4.4057 -1.1666 -3.6238 5.5446 7.6254 -8.0872 3.4908 10.0944 3.7853 0.1674 -5.1848 4.5070 -3.8748 37.8843 0.5045 -1.2018 13.8234 0.0000 0.0000 0.0000 63.9558 -50.4725 -71.1100 78.4371 -59.4887 -50.0035 0.0000 0.0000 -35.1890 0.0000 0.0000 0.0000 -29.0872 20.6755 -44.4310 -83.3176 59.8306 -54.2162 0.0000 0.0000 -11.4345
-1.1073 16.8669 35.3204 -5.4017 8.6155 -7.2898 0.0000 0.0000 0.0000 -8.0722 -4.6045 -30.4049 5.0175 13.4035 40.8982 0.2269 3.8003 -11.2206 1.2053 -6.9651 -19.6121 0.0000 0.0000 0.0000 29.8712 -9.5789 9.0081 -1.8100 -8.4587 24.1161 -1.7355 -7.6974 -28.6727 -0.0439 -1.3517 3.7170 8.8881 5.8459 -2.3693 -4.0207 7.4388 7.4024 -8.4063 4.5158 11.1338 3.8467 0.8831 -5.0820 4.5619 -2.8894 38.9470 0.6581 -0.7281 14.2952 0.0000 0.0000 0.0000 66.9782 -55.8855 -59.7546 57.9692 -55.7441 -32.6569 0.0000 0.0000 -34.6381 0.0000 0.0000 0.0000 -30.5128 25.0275 -34.8406 -50.6381 53.2496 -26.6846 0.0000 0.0000 -6.5772
-0.9592 16.7980 36.0291 -5.4740 8.3720 -6.6593 0.0000 0.0000 0.0000 -7.1963 -6.8907 -28.2689 3.0400 10.7596 31.4732 0.3149 1.9705 -11.5084 1.5292 -7.8076 -22.1311 0.0000 0.0000 0.0000 29.2425 -10.3568 10.7171 -1.8249 -8.4914 24.2169 -1.6019 -7.6092 -27.7068 -0.0072 -0.5462 1.5010 8.8565 6.6119 -3.1625 -3.9555 8.4545 6.6917 -8.0820 4.9750 11.0121 2.9189 1.6212 -6.7830 5.2159 -2.0587 40.6750 1.2520 -0.3650 15.5537 0.0000 0.0000 0.0000 61.7751 -60.7271 -34.2911 57.2646 -55.5358 -32.0752 0.0000 0.0000 -35.5508 0.0000 0.0000 0.0000 -31.1803 26.6786 -12.2019 -42.3394 49.3964 -20.1978 0.0000 0.0000 -8.2885
-0.7650 16.7332 36.7823 -6.0757 8.4495 -5.9366 0.0000 0.0000 0.0000 -6.1446 -8.9668 -26.7553 2.4015 9.6566 27.8717 0.3644 1.3629 -11.9814 1.5024 -7.7420 -21.9331 0.0000 0.0000 0.0000 29.1359 -11.3153 12.5854 -1.7514 -8.3279 23.7147 -1.3843 -8.3291 -26.6425 -0.0008 0.1806 -0.4963 9.0865 6.7485 -3.9108 -3.6583 8.5881 5.4945 -7.8328 4.9670 10.1025 1.8107 1.6292 -8.8153 5.8064 -1.9749 40.6555 1.7435 -0.3567 16.0353 0.0000 0.0000 0.0000 44.7244 -67.0912 -3.0133 64.0832 -57.3033 -37.7586 0.0000 0.0000 -35.7598 0.0000 0.0000 0.0000 -30.1062 29.6890 12.8481 -49.7731 52.9036 -25.9931 0.0000 0.0000 -11.8409
-0.5291 16.6624 37.5677 -6.5597 7.9604 -5.0600 0.0000 0.0000 0.0000 -6.2215 -8.8828 -25.6636 2.4808 9.8030 28.3411 0.4048 0.8712 -12.3659 1.4778 -7.6810 -21.7494 0.0000 0.0000 0.0000 28.7677 -11.4524 14.4579 -1.7475 -8.3190 23.6872 -1.0845 -9.3234 -25.1080 -0.0123 0.7160 -1.9676 9.3308 6.1877 -5.4244 -3.4200 7.6966 4.7398 -7.7601 4.5011 9.9390 1.2184 1.1956 -10.6959 5.7868 -2.0246 37.6305 1.7705 -0.3853 14.9358 0.0000 0.0000 0.0000 10.4719 -67.6882 35.7901 69.8414 -58.4074 -42.6355 0.0000 0.0000 -34.4976 0.0000 0.0000 0.0000 -24.9881 37.6489 29.7563 -57.1654 55.5060 -31.9934 0.0000 0.0000 -12.9351
-0.2739 16.5838 38.3553 -6.0187 6.5012 -3.9910 0.0000 0.0000 0.0000 -7.6937 -7.4618 -24.0299 2.6859 10.1684 29.5236 0.3884 -0.1205 -11.7313 1.4062 -7.5008 -21.2078 0.0000 0.0000 0.0000 27.3646 -10.0770 15.2547 -2.1152 -9.1021 26.1151 -0.7293 -10.6325 -23.2791 -0.0252 1.0257 -2.8196 8.3592 5.5963 -6.5781 -3.1012 6.8795 4.5439 -6.9306 4.0129 10.0235 -0.1494 0.0008 -11.6809 6.0912 -2.7775 31.8344 1.9038 -0.7887 12.5885 0.0000 0.0000 0.0000 -15.7027 -60.8692 60.1598 73.1243 -58.8961 -45.4394 0.0000 0.0000 -32.1899 0.0000 0.0000 0.0000 -15.1650 45.2936 41.8579 -59.7515 56.2434 -34.1344 0.0000 0.0000 -12.6673
-0.0207 16.5357 39.1222 -4.2661 4.9844 -3.5232 0.0000 0.0000 0.0000 -10.1629 -5.4512 -22.6977 2.9107 10.5490 30.7735 0.1606 1.2844 -8.1534 1.3767 -7.4249 -20.9805 0.0000 0.0000 0.0000 24.6149 -8.6042 13.9582 -3.1953 -11.0046 32.2955 -0.2539 -12.8798 -21.1682 -0.0075 -0.5606 1.5404 6.1021 5.5137 -5.9504 -2.8783 7.0007 4.8498 -5.4470 3.9041 9.6566 -1.3981 -1.5918 -12.5309 6.4684 -4.2862 27.0010 1.9820 -1.5293 10.9506 0.0000 0.0000 0.0000 -30.5172 -54.0605 71.7164 73.6571 -58.9663 -45.8957 0.0000 0.0000 -30.8843 0.0000 0.0000 0.0000 -2.5339 48.2172 51.8986 -59.9929 56.3080 -34.3352 0.0000 0.0000 -12.1531
0.2178 16.5006 39.8307 -1.6629 3.5819 -3.8803 0.0000 0.0000 0.0000 -13.6592 -2.0251 -21.2654 3.2293 11.0573 32.4735 0.1358 0.3636 -7.1008 0.9664 -6.2589 -17.5374 0.0000 0.0000 0.0000 20.4765 -7.6879 9.5423 -5.5713 -13.9996 43.2357 0.5046 -17.0008 -18.6149 -0.6158 -5.0224 13.9726 3.4390 5.5146 -4.0610 -3.1126 7.2851 5.5446 -4.3228 3.8732 9.0054 -1.8415 -2.7311 -13.4970 6.9547 -5.7115 25.1131 2.0156 -2.1505 10.5410 0.0000 0.0000 0.0000 -39.1979 -48.5870 78.2867 71.6128 -58.6832 -44.1467 0.0000 0.0000 -29.4921 0.0000 0.0000 0.0000 11.0425 48.1608 59.9025 -59.6007 56.2026 -34.0091 0.0000 0.0000 -11.8313
0.4746 16.5315 40.5365 0.5941 2.0418 -3.9908 0.0000 0.0000 0.0000 -16.9049 1.1030 -18.6056 3.1840 10.9871 32.2365 0.2165 -0.6140 -8.5908 0.8125 -5.7520 -16.0665 0.0000 0.0000 0.0000 16.7468 -5.9996 3.2714 -8.7482 -16.6430 55.2153 1.3073 -20.9425 -15.5328 -1.9011 -8.6569 24.7280 1.5066 5.4516 -2.9223 -3.1232 7.3245 6.2673 -3.3465 3.7615 8.8642 -2.1138 -3.4044 -13.3812 6.9565 -6.4697 23.9291 1.9537 -2.5392 10.1367 0.0000 0.0000 0.0000 -45.1347 -44.5307 82.8660 69.0851 -58.2809 -41.9917 0.0000 0.0000 -27.6718 0.0000 0.0000 0.0000 22.0984 47.1554 66.3586 -58.5331 55.9062 -33.1234 0.0000 0.0000 -10.5773
0.7271 16.6167 41.2609 2.1101 0.7364 -3.5796 0.0000 0.0000 0.0000 -19.4135 3.3400 -15.1444 2.8016 10.3668 30.1728 0.3053 -0.8366 -10.1752 0.8112 -5.7476 -16.0538 0.0000 0.0000 0.0000 14.4360 -3.8198 -3.6102 -11.6752 -18.2500 64.9557 0.9255 -17.3182 -11.2883 -1.2663 -7.1328 20.1094 0.1599 5.0273 -2.9550 -2.6484 6.8083 6.8904 -2.1446 3.3891 9.2861 -2.2864 -3.6062 -13.0496 6.3611 -6.5754 23.9764 1.7646 -2.6789 10.0761 0.0000 0.0000 0.0000 -50.8796 -40.4572 85.7677 66.6287 -57.8320 -39.9071 0.0000 0.0000 -26.3743 0.0000 0.0000 0.0000 31.8385 45.2420 71.8311 -56.3043 55.2419 -31.2849 0.0000 0.0000 -9.2442
0.9212 16.7376 41.9809 2.9459 0.6098 -2.4007 0.0000 0.0000 0.0000 -21.1117 4.2637 -12.3097 2.3852 9.6261 27.7743 0.3454 -0.7998 -10.8491 0.8519 -5.8863 -16.4550 0.0000 0.0000 0.0000 13.8376 -2.1624 -11.5166 -13.8240 -19.0598 71.6662 0.3598 -12.4635 -11.6570 -0.5654 -4.8160 13.3844 -1.1200 3.9565 -3.6312 -1.9556 5.4330 7.1784 -0.8120 2.5861 9.7270 -2.1761 -3.4830 -13.4763 5.7194 -6.3826 25.0442 1.5400 -2.6349 10.5081 0.0000 0.0000 0.0000 -55.7537 -35.7730 86.6140 64.5411 -57.4034 -38.1442 0.0000 0.0000 -25.1052 0.0000 0.0000 0.0000 40.8536 41.0685 75.2544 -54.5999 54.6902 -29.8892 0.0000 0.0000 -8.1152
1.0732 16.8749 42.7055 2.8197 1.5154 -0.9358 0.0000 0.0000 0.0000 -21.6336 4.4852 -10.3756 2.1418 9.1553 26.2824 0.3420 -0.5901 -10.8544 1.0065 -6.3836 -17.9015 0.0000 0.0000 0.0000 14.8449 -1.0336 -19.2937 -14.8367 -19.3484 74.7442 -0.0652 -9.1175 -14.0998 -0.2829 -3.4210 9.4530 -1.9208 2.3236 -4.0890 -0.6622 3.2201 7.1575 0.7595 1.3943 9.8096 -2.1932 -3.2140 -13.8148 4.6623 -5.7386 25.3759 1.2479 -2.4541 10.6276 0.0000 0.0000 0.0000 -59.9280 -30.7498 86.0900 62.7498 -56.9992 -36.6384 0.0000 0.0000 -23.5540 0.0000 0.0000 0.0000 46.8987 35.6768 76.3214 -53.9152 54.4575 -29.3313 0.0000 0.0000 -6.8692
1.2095 16.9955 43.4421 2.9295 2.4950 0.6096 0.0000 0.0000 0.0000 -22.3198 4.7960 -8.9913 2.0138 8.8948 25.4668 0.3289 0.0299 -10.8439 1.1198 -6.7220 -18.8944 0.0000 0.0000 0.0000 15.5272 0.6745 -26.2243 -14.7543 -19.3270 74.4954 -0.5488 -6.2000 -17.6209 -0.1274 -2.3011 6.3386 -2.5694 0.6492 -4.4023 0.6047 0.9316 6.9420 2.1936 0.1827 9.7817 -1.9927 -2.7625 -13.9982 3.1833 -4.7177 25.1637 0.8224 -2.1363 10.4948 0.0000 0.0000 0.0000 -63.4510 -25.7160 84.5543 61.2372 -56.6307 -35.3724 0.0000 0.0000 -22.3471 0.0000 0.0000 0.0000 50.0844 30.5072 76.2040 -52.9940 54.1339 -28.5832 0.0000 0.0000 -5.9052
1.3324 17.0778 44.1785 3.7285 2.6145 2.2955 0.0000 0.0000 0.0000 -23.7884 5.3741 -7.7458 1.8782 8.6076 24.5754 0.3107 1.7051 -11.2921 1.1630 -6.8463 -19.2607 0.0000 0.0000 0.0000 14.8245 4.0919 -32.1198 -13.7181 -19.0263 71.3417 -0.8990 -4.2030 -19.9055 -0.0778 -1.7993 4.9513 -3.0247 -0.6512 -4.4246 1.2470 -0.8216 6.4316 2.9126 -0.7121 9.3566 -1.2637 -2.1605 -14.1523 2.0182 -3.7340 25.0807 0.4140 -1.7542 10.4232 0.0000 0.0000 0.0000 -65.4849 -21.3326 83.2447 60.0116 -56.3130 -34.3507 0.0000 0.0000 -20.7404 0.0000 0.0000 0.0000 53.5796 25.1431 74.1584 -50.1342 53.0495 -26.2813 0.0000 0.0000 -4.3135
