HIERARCHY
ROOT Hips
{
	OFFSET 0.00000 0.00000 0.00000
	CHANNELS 6 Xposition Yposition Zposition Zrotation Yrotation Xrotation
	JOINT LHipJoint
	{
		OFFSET 0.00000 0.00000 0.00000
		CHANNELS 3 Zrotation Yrotation Xrotation
		JOINT LeftUpLeg
		{
			OFFSET 1.41496 -1.84582 0.78394
			CHANNELS 3 Zrotation Yrotation Xrotation
			JOINT LeftLeg
			{
				OFFSET 2.58040 -7.08960 0.00000
				CHANNELS 3 Zrotation Yrotation Xrotation
				JOINT LeftFoot
				{
					OFFSET 2.64719 -7.27309 0.00000
					CHANNELS 3 Zrotation Yrotation Xrotation
					JOINT LeftToeBase
					{
						OFFSET 0.20718 -0.56921 2.20259
						CHANNELS 3 Zrotation Yrotation Xrotation
						End Site
						{
							OFFSET 0.00000 -0.00000 1.14243
						}
					}
				}
			}
		}
	}
	JOINT RHipJoint
	{
		OFFSET 0.00000 0.00000 0.00000
		CHANNELS 3 Zrotation Yrotation Xrotation
		JOINT RightUpLeg
		{
			OFFSET -1.40551 -1.84582 0.78394
			CHANNELS 3 Zrotation Yrotation Xrotation
			JOINT RightLeg
			{
				OFFSET -2.56572 -7.04926 0.00000
				CHANNELS 3 Zrotation Yrotation Xrotation
				JOINT RightFoot
				{
					OFFSET -2.57974 -7.08778 0.00000
					CHANNELS 3 Zrotation Yrotation Xrotation
					JOINT RightToeBase
					{
						OFFSET -0.26704 -0.73369 2.20815
						CHANNELS 3 Zrotation Yrotation Xrotation
						End Site
						{
							OFFSET -0.00000 -0.00000 1.16246
						}
					}
				}
			}
		}
	}
	JOINT LowerBack
	{
		OFFSET 0.00000 0.00000 0.00000
		CHANNELS 3 Zrotation Yrotation Xrotation
		JOINT Spine
		{
			OFFSET -0.04690 2.05196 -0.07017
			CHANNELS 3 Zrotation Yrotation Xrotation
			JOINT Spine1
			{
				OFFSET 0.04085 2.05260 0.00800
				CHANNELS 3 Zrotation Yrotation Xrotation
				JOINT Neck
				{
					OFFSET 0.00000 0.00000 0.00000
					CHANNELS 3 Zrotation Yrotation Xrotation
					JOINT Neck1
					{
						OFFSET -0.03582 1.80995 0.19301
						CHANNELS 3 Zrotation Yrotation Xrotation
						JOINT Head
						{
							OFFSET 0.00952 1.80195 -0.36389
							CHANNELS 3 Zrotation Yrotation Xrotation
							End Site
							{
								OFFSET 0.00392 1.85062 -0.14494
							}
						}
					}
				}
				JOINT LeftShoulder
				{
					OFFSET 0.00000 0.00000 0.00000
					CHANNELS 3 Zrotation Yrotation Xrotation
					JOINT LeftArm
					{
						OFFSET 3.55224 1.39726 -0.13667
						CHANNELS 3 Zrotation Yrotation Xrotation
						JOINT LeftForeArm
						{
							OFFSET 5.14507 -0.00000 -0.00000
							CHANNELS 3 Zrotation Yrotation Xrotation
							JOINT LeftHand
							{
								OFFSET 3.50646 -0.00000 0.00000
								CHANNELS 3 Zrotation Yrotation Xrotation
								End Site
								{
									OFFSET 0.00000 0.60000 0.00000
								}
							}
						}
					}
				}
				JOINT RightShoulder
				{
					OFFSET 0.00000 0.00000 0.00000
					CHANNELS 3 Zrotation Yrotation Xrotation
					JOINT RightArm
					{
						OFFSET -3.06467 1.61290 -0.28813
						CHANNELS 3 Zrotation Yrotation Xrotation
						JOINT RightForeArm
						{
							OFFSET -5.23200 -0.00000 -0.00000
							CHANNELS 3 Zrotation Yrotation Xrotation
							JOINT RightHand
							{
								OFFSET -3.65641 -0.00000 0.00000
								CHANNELS 3 Zrotation Yrotation Xrotation
								End Site
								{
									OFFSET 0.00000 0.60000 0.00000
								}
							}
						}
					}
				}
			}
		}
	}
}
MOTION
Frames: 51
Frame Time: 0.0333333
0.0000 14.6988 0.0000 -7.2601 -0.0000 28.7057 0.0000 0.0000 0.0000 0.6405 -11.2280 -94.3917 17.4964 19.8491 82.6623 0.4043 -11.8238 -13.1180 0.0708 -1.7162 -4.7219 0.0000 0.0000 0.0000 23.0798 0.9477 -42.5454 -13.0411 -18.7969 69.2531 -3.3228 2.6346 -33.9111 -5.9090 14.3395 -44.6153 6.3184 -0.0137 39.1434 1.4765 5.2339 8.2573 -3.9831 3.2739 -9.5191 -0.1822 -0.4804 -11.0972 -10.5864 0.2075 -3.1220 -3.4046 0.2463 0.9548 -0.0000 -0.0000 0.0000 -86.0584 -5.2191 21.9221 60.0468 -56.3224 -34.3801 -0.0000 0.0000 -4.9987 -0.0000 -0.0000 0.0000 79.4117 26.1761 35.7278 -66.8766 57.8800 -40.1171 0.0000 -0.0000 -7.8800
0.2856 14.4484 1.5930 -8.5707 -0.4469 29.9721 0.0000 0.0000 0.0000 1.0799 -11.3612 -99.5627 13.5735 18.9795 70.8977 0.0834 -7.4472 -6.9127 0.0353 -1.2132 -3.3357 0.0000 0.0000 0.0000 22.8485 0.9276 -34.1878 -11.2483 -18.0545 63.5855 -3.4844 2.0723 -34.8897 -6.5537 14.9442 -47.1654 6.2157 0.6566 37.4012 0.7991 5.7762 8.7552 -4.7420 3.6016 -8.2676 0.2606 -0.5384 -9.9773 -10.2499 -0.0266 -2.5285 -3.3744 0.0863 0.9377 0.0000 0.0000 0.0000 -84.5648 -5.8680 19.9654 64.4001 -57.3728 -38.0254 0.0000 0.0000 -5.7115 0.0000 0.0000 0.0000 80.4693 29.6753 37.8145 -74.6103 59.0859 -46.7130 0.0000 0.0000 -5.9286
0.5865 14.2817 3.3506 -10.3802 -0.0600 31.3113 0.0000 0.0000 0.0000 0.4345 -12.2388 -102.0065 11.1688 18.0167 63.3284 -0.0299 -4.2479 4.6740 0.0053 -0.4685 -1.2873 0.0000 0.0000 0.0000 23.6312 0.9232 -23.9977 -8.3486 -16.3698 53.8089 -2.8843 2.2768 -31.5923 -6.9866 15.3206 -48.8237 6.2923 1.2620 36.5550 0.1104 6.4140 8.9434 -5.6792 3.9426 -7.6201 1.1102 -0.6856 -8.9640 -9.8225 -0.4023 -1.7541 -3.3973 -0.1551 0.9888 0.0000 0.0000 0.0000 -82.1035 -7.1195 19.1858 70.6120 -58.5309 -43.2923 0.0000 0.0000 -4.7202 0.0000 0.0000 0.0000 81.9326 31.8296 39.3298 -83.6559 59.8474 -54.5087 0.0000 0.0000 -5.0204
0.8987 14.2025 5.2804 -12.9217 1.1167 33.7446 0.0000 0.0000 0.0000 -0.6388 -13.5992 -103.4619 11.3194 18.0879 63.8146 0.1062 -3.6141 8.5580 0.2715 3.3516 9.2591 0.0000 0.0000 0.0000 25.2499 2.2768 -13.6990 -5.0158 -13.4016 40.8909 -1.2581 5.5839 -20.0941 -6.9079 15.2538 -48.5249 6.1772 2.0777 35.5374 -0.3960 7.2134 8.9055 -6.3673 4.3204 -7.1570 2.0765 -0.7539 -8.3629 -9.6079 -0.6337 -1.0621 -3.5159 -0.3152 1.0937 0.0000 0.0000 0.0000 -79.0453 -9.8921 18.7591 77.1556 -59.3673 -48.9001 0.0000 0.0000 -3.6718 0.0000 0.0000 0.0000 83.1829 33.5798 40.2870 -92.5184 59.9760 -62.1808 0.0000 0.0000 -4.9327
1.1987 14.2379 7.3001 -15.9286 3.4209 38.0987 0.0000 0.0000 0.0000 1.3543 -15.1957 -104.1858 13.1373 18.8312 69.5514 0.0034 -2.2151 -1.7941 2.2104 9.2912 26.7105 0.0000 0.0000 0.0000 27.1624 3.0862 -6.6637 -2.0958 -9.0628 25.9920 0.0531 4.6487 4.0592 -5.1556 13.5569 -41.4908 5.5867 3.1910 33.8489 -0.6924 8.1086 8.6390 -6.6012 4.6782 -6.8634 2.4585 -0.4012 -8.7818 -9.0621 -0.9104 -0.4342 -3.4309 -0.7968 1.3575 0.0000 0.0000 0.0000 -75.4805 -14.9771 18.0231 82.4033 -59.7808 -53.4259 0.0000 0.0000 -3.5312 0.0000 0.0000 0.0000 84.0635 35.2283 40.1793 -100.5607 59.5744 -69.1328 0.0000 0.0000 -3.7442
1.5142 14.4383 9.2549 -17.4659 7.6867 43.3878 0.0000 0.0000 0.0000 7.8497 -18.2143 -104.8013 14.8095 19.3414 74.6622 0.3682 -2.4423 -10.8791 2.3419 9.5446 27.5141 0.0000 0.0000 0.0000 28.8415 0.1431 -6.6322 -0.8853 -5.9977 16.7778 -1.8985 -3.5434 25.1801 -2.8851 10.5067 -30.6336 5.2743 3.4548 33.3755 -1.3916 8.1025 8.0867 -7.1794 4.5811 -7.2314 2.5086 -0.8105 -10.2256 -7.7726 -1.4313 0.0515 -3.0499 -1.0456 1.7405 0.0000 0.0000 0.0000 -70.3111 -23.0364 16.6898 85.8381 -59.9344 -56.3965 0.0000 0.0000 -5.0125 0.0000 0.0000 0.0000 84.0718 37.2506 38.2697 -107.9710 58.7438 -75.4977 0.0000 0.0000 -3.2869
1.9066 14.8678 11.1495 -17.5063 11.8426 48.2094 0.0000 0.0000 0.0000 13.1641 -21.7652 -102.2619 14.8918 19.3625 74.9105 0.8432 -3.6687 -16.5023 1.7336 8.2877 23.5914 0.0000 0.0000 0.0000 30.2051 -4.7889 -14.1181 -1.7758 -8.3826 23.8824 -1.6906 -2.7694 23.8585 -2.2251 9.3200 -26.8016 4.6785 3.0527 34.2944 -2.6133 7.4213 8.3473 -7.9894 4.2980 -7.3106 2.4252 -1.1248 -10.2797 -6.7749 -1.9524 -1.2130 -2.6931 -1.2700 1.3060 0.0000 0.0000 0.0000 -62.5109 -34.9319 12.9401 86.2430 -59.9466 -56.7470 0.0000 0.0000 -7.4695 0.0000 0.0000 0.0000 82.6697 41.5252 35.1744 -113.6908 57.7693 -80.3632 0.0000 0.0000 -3.3133
2.3945 15.4936 13.0707 -19.2920 14.8255 52.9575 0.0000 0.0000 0.0000 16.7934 -22.9385 -96.3521 13.2227 18.8611 69.8157 1.2644 -3.6263 -20.3688 1.3675 7.4013 20.9097 0.0000 0.0000 0.0000 32.3115 -8.6855 -23.2086 -4.4323 -12.7145 38.3088 -0.7881 -2.1126 16.1892 -3.0169 10.7223 -31.3490 3.4200 3.7462 35.3506 -3.2126 8.0123 8.8929 -8.1999 4.6301 -7.0791 2.2595 -1.4422 -9.8148 -7.4975 -2.5078 -2.6502 -2.8940 -1.5689 0.7271 0.0000 0.0000 0.0000 -51.8393 -48.7968 5.1884 81.6549 -59.7352 -52.7794 0.0000 0.0000 -6.7972 0.0000 0.0000 0.0000 78.6167 48.3161 30.9962 -115.8304 57.3224 -82.1687 0.0000 0.0000 -4.0637
2.9446 16.2063 15.0399 -20.1473 18.8693 58.4829 0.0000 0.0000 0.0000 19.5280 -24.0701 -89.7583 10.2642 17.5558 60.3679 1.1565 -3.1547 -19.5242 0.8481 5.8738 16.4186 0.0000 0.0000 0.0000 34.0650 -12.1722 -31.8795 -8.6800 -16.5973 54.9767 -0.7228 -2.9180 15.3365 -1.7752 8.3811 -23.8779 2.4988 3.9921 36.4152 -3.3613 8.0420 9.1382 -7.9493 4.6115 -7.2591 1.7667 -1.8125 -9.2911 -8.4154 -3.1274 -3.8827 -3.1047 -1.8965 0.2012 0.0000 0.0000 0.0000 -34.5822 -59.8794 -10.1339 72.9518 -58.8728 -45.2917 0.0000 0.0000 -4.7998 0.0000 0.0000 0.0000 72.4503 56.1251 26.3650 -114.0329 57.7010 -80.6525 0.0000 0.0000 -4.5321
3.5331 16.9275 17.1089 -19.5221 23.7319 65.2788 0.0000 0.0000 0.0000 21.4336 -24.3579 -83.4862 6.7256 15.0964 47.8286 0.4808 -3.5150 -12.3678 0.3303 3.6934 10.2157 0.0000 0.0000 0.0000 34.9122 -15.4816 -37.7915 -13.1584 -18.8386 69.6169 -0.6152 -0.7733 14.5734 -1.8444 8.5341 -24.3485 1.9330 3.8642 37.0182 -3.3717 7.5863 9.0915 -7.5336 4.3176 -7.5024 1.1963 -2.2266 -8.7987 -9.0152 -3.7736 -4.7747 -3.1972 -2.2170 -0.2087 0.0000 0.0000 0.0000 -8.9107 -66.4582 -33.9158 62.7672 -57.0033 -36.6529 0.0000 0.0000 -5.3031 0.0000 0.0000 0.0000 63.0692 62.4245 18.7136 -110.6274 58.3296 -77.7637 0.0000 0.0000 -1.5765
4.1501 17.5234 19.2544 -17.7248 28.9539 74.2594 0.0000 0.0000 0.0000 25.1579 -23.6307 -79.9835 3.7994 11.8886 35.3389 -0.0011 -0.5777 0.2006 0.0398 1.2877 3.5407 0.0000 0.0000 0.0000 35.0627 -16.2509 -40.7465 -16.6963 -19.7363 80.2996 -0.3683 3.8322 13.5224 -3.3818 11.2889 -33.2604 3.1612 5.9382 35.6407 -2.8032 6.5968 9.0645 -6.9635 2.6372 -7.1772 0.7837 -2.8968 -8.4398 -9.7435 -4.7278 -4.9061 -3.3794 -2.7042 -0.3781 0.0000 0.0000 0.0000 22.1387 -68.8388 -63.0644 53.4962 -54.3118 -28.9906 0.0000 0.0000 -3.4369 0.0000 0.0000 0.0000 48.5436 64.8214 5.7386 -106.6295 58.9289 -74.3498 0.0000 0.0000 1.6493
4.7868 17.8565 21.4113 -14.6406 33.1095 84.5841 0.0000 0.0000 0.0000 27.3010 -22.1638 -79.8196 2.7098 10.2098 29.6589 0.0784 7.0449 6.6139 0.0452 -1.3721 -3.7732 0.0000 0.0000 0.0000 33.5124 -13.8667 -40.6603 -18.8661 -19.9691 86.6832 -0.1321 7.0403 12.6751 -4.5094 12.8091 -38.6580 2.2458 5.6166 33.2638 -2.9259 6.2956 8.4593 -6.4223 2.6490 -7.0864 0.3838 -3.4839 -8.3644 -10.2112 -5.4882 -4.5053 -3.4829 -3.1003 -0.3124 0.0000 0.0000 0.0000 48.9685 -66.5176 -88.2733 46.8892 -51.6611 -23.7115 0.0000 0.0000 0.2645 0.0000 0.0000 0.0000 34.2856 64.2890 -6.7658 -101.3869 59.5044 -69.8449 0.0000 0.0000 4.0111
5.4654 17.9052 23.5499 -10.7689 36.1093 93.5066 0.0000 0.0000 0.0000 19.5602 -18.4670 -80.4673 3.6406 11.6661 34.5609 0.1711 4.8122 7.5955 0.2386 -3.1438 -8.6792 0.0000 0.0000 0.0000 30.9220 -10.5070 -36.8468 -19.5178 -19.9944 88.5899 -0.1733 5.9039 12.1707 -4.1975 12.4187 -37.2295 1.6784 4.7911 33.1471 -3.3680 5.2711 7.9399 -6.2833 2.2353 -7.7387 -0.0344 -3.6714 -8.4644 -10.5640 -5.6641 -4.1074 -3.5403 -3.1968 -0.1777 0.0000 0.0000 0.0000 66.7288 -62.0680 -104.3641 41.9845 -49.2027 -19.9288 0.0000 0.0000 2.1493 0.0000 0.0000 0.0000 21.8400 63.0767 -17.2386 -94.5685 59.9210 -63.9554 0.0000 0.0000 7.5976
6.1594 17.6866 25.6171 -6.3358 38.4823 101.4556 0.0000 0.0000 0.0000 14.9947 -16.3184 -80.1607 5.9095 14.3401 44.6176 0.2449 -2.5278 10.6296 0.4478 -4.2932 -11.9029 0.0000 0.0000 0.0000 29.2096 -7.6398 -32.0545 -19.1838 -19.9840 87.6130 -0.2799 1.4084 10.6082 -2.9200 10.5644 -30.8245 1.8350 3.5031 34.7298 -3.7685 3.8060 7.3465 -6.3966 1.5544 -9.1201 -0.9684 -3.4740 -8.0904 -10.7253 -5.2708 -3.9182 -3.4072 -2.9668 -0.1394 0.0000 0.0000 0.0000 77.8854 -58.7567 -113.6183 38.2429 -46.9937 -17.1430 0.0000 0.0000 3.4769 0.0000 0.0000 0.0000 11.4553 61.5354 -24.8100 -87.8438 59.9824 -58.1328 0.0000 0.0000 11.3548
6.8605 17.2049 27.6214 -1.0822 39.2242 110.0886 0.0000 0.0000 0.0000 12.2690 -15.4545 -78.8153 8.6413 16.5713 54.8412 0.0906 -9.4519 14.9269 0.4895 -4.4859 -12.4480 0.0000 0.0000 0.0000 27.6770 -7.1700 -29.2671 -18.5446 -19.9491 85.7411 -0.2202 -6.2705 8.8216 -0.9816 6.3066 -17.6768 2.1365 1.9083 35.8412 -4.3793 1.9691 6.8629 -6.5924 0.7138 -10.2570 -2.1078 -3.1498 -8.0759 -11.0457 -4.6573 -3.5387 -3.3022 -2.6456 0.0301 0.0000 0.0000 0.0000 85.4246 -58.2199 -118.7437 36.1804 -45.6369 -15.6513 0.0000 0.0000 7.1725 0.0000 0.0000 0.0000 4.3039 58.8571 -27.8776 -84.2452 59.8745 -55.0183 0.0000 0.0000 13.6926
7.5615 16.4767 29.6140 3.6631 38.4421 118.6345 0.0000 0.0000 0.0000 9.2456 -14.1258 -75.8573 11.1617 18.0133 63.3057 0.0348 -10.2644 15.1577 0.5648 -4.8132 -13.3767 0.0000 0.0000 0.0000 26.0319 -8.4372 -28.2870 -17.9529 -19.8992 84.0050 0.2398 -14.7873 7.4149 -0.0002 -0.0947 0.2601 2.0392 0.6932 35.8738 -5.4870 0.3606 6.8504 -7.1220 0.0233 -10.5009 -2.6250 -2.8281 -9.1076 -11.5239 -3.9384 -2.4757 -3.4041 -2.3421 0.5894 0.0000 0.0000 0.0000 90.4908 -63.8392 -124.6274 42.6714 -49.5753 -20.4502 0.0000 0.0000 16.7637 0.0000 0.0000 0.0000 2.0067 54.0288 -24.9016 -88.4735 59.9912 -58.6780 0.0000 0.0000 13.7696
8.1943 15.5508 31.6314 6.8732 37.7049 125.9478 0.0000 0.0000 0.0000 7.1069 -10.3751 -71.4480 13.1714 18.8432 69.6570 0.2320 -6.5734 13.8057 0.4647 -4.3725 -12.1270 0.0000 0.0000 0.0000 25.1915 -8.9388 -27.8239 -17.7586 -19.8791 83.4339 0.5752 -17.6989 6.0150 -0.1025 -2.0642 5.6832 0.8076 0.4846 35.5539 -7.2458 -0.5083 7.2502 -8.0275 -0.2782 -10.1179 -2.6279 -2.7140 -10.1895 -11.6991 -3.5200 -1.3868 -3.5068 -2.1915 1.1558 0.0000 0.0000 0.0000 91.6130 -71.5793 -123.9329 56.5983 -55.3332 -31.5266 0.0000 0.0000 19.4626 0.0000 0.0000 0.0000 6.8069 47.1584 -13.5949 -105.6218 59.0575 -73.4861 0.0000 0.0000 4.0698
8.7365 14.4993 33.6297 11.3129 35.6949 134.5140 0.0000 0.0000 0.0000 6.8135 -7.0445 -68.4982 14.7577 19.3279 74.5057 0.5435 -0.7489 14.2172 0.1701 -2.6570 -7.3252 0.0000 0.0000 0.0000 24.9302 -9.8390 -29.7148 -18.4593 -19.9430 85.4911 0.1475 -11.5679 5.7681 -0.0102 0.6528 -1.7938 -1.0517 0.3452 34.5248 -8.7728 -1.4188 7.5576 -8.3168 -0.6020 -9.5597 -4.2749 -2.7373 -9.7637 -11.6207 -3.1497 0.1941 -3.1898 -2.0391 1.6392 0.0000 0.0000 0.0000 87.3935 -77.0130 -114.7139 64.5746 -57.4106 -38.1723 0.0000 0.0000 19.4962 0.0000 0.0000 0.0000 15.6024 37.9698 1.7176 -123.3523 55.3484 -88.4329 0.0000 0.0000 -7.3736
9.2316 13.3283 35.6064 17.8499 31.8421 143.9913 0.0000 0.0000 0.0000 8.8041 -5.2350 -67.2300 16.2517 19.6598 78.9808 0.7214 4.0336 15.1887 0.0523 -1.4759 -4.0592 0.0000 0.0000 0.0000 25.6817 -11.9513 -33.1609 -19.9763 -20.0000 89.9308 -0.1355 -4.5184 6.8129 -0.0298 1.1135 -3.0611 -1.8889 -0.0415 33.8208 -9.6161 -2.1132 8.2965 -8.5017 -0.8319 -8.5922 -5.6093 -2.3489 -8.8431 -12.3178 -2.1524 2.6609 -3.1907 -1.6393 2.3508 0.0000 0.0000 0.0000 88.7837 -81.7673 -111.1887 66.9134 -57.8871 -40.1483 0.0000 0.0000 20.5787 0.0000 0.0000 0.0000 22.3421 27.3023 14.0633 -131.5231 52.3624 -95.0371 0.0000 0.0000 -13.1925
9.7197 11.9903 37.5874 24.8909 25.6897 152.3715 0.0000 0.0000 0.0000 11.9113 -4.1747 -66.6628 17.6849 19.8710 83.2170 0.7288 6.0467 15.2194 0.0011 -0.2172 -0.5967 0.0000 0.0000 0.0000 26.6144 -14.6768 -36.6150 -22.0152 -19.9024 95.9013 -0.3348 -3.2472 10.2959 -0.0130 -0.7348 2.0194 -2.1360 -0.5885 35.2482 -9.8615 -2.7523 9.7272 -8.3845 -0.9751 -7.6341 -6.4931 -2.4027 -8.1484 -12.5129 -1.8328 5.0107 -3.1409 -1.5918 3.0479 0.0000 0.0000 0.0000 107.8271 -84.8126 -125.5927 65.4389 -57.5932 -38.9014 0.0000 0.0000 20.9510 0.0000 0.0000 0.0000 29.0566 17.8799 22.3440 -127.3931 53.9943 -91.7302 0.0000 0.0000 -16.9352
10.2257 10.4314 39.5402 29.9701 17.3875 159.6128 0.0000 0.0000 0.0000 14.2484 -3.3222 -67.2055 19.0663 19.9791 87.2692 0.5676 5.3765 13.4203 0.0000 -0.0283 -0.0778 0.0000 0.0000 0.0000 26.0134 -16.9950 -40.6143 -24.3658 -19.5368 102.8600 -0.5584 -2.6947 13.4504 -0.0936 -1.9727 5.4303 -2.8147 -1.1325 37.4636 -9.6860 -3.4448 11.3008 -7.5601 -1.0965 -6.6859 -8.0282 -2.8749 -7.4372 -11.3533 -2.0698 7.8782 -2.5564 -1.8336 3.9356 0.0000 0.0000 0.0000 146.1355 -86.8563 -160.3203 64.3415 -57.3600 -37.9760 0.0000 0.0000 19.5924 0.0000 0.0000 0.0000 44.4510 12.8628 23.8615 -119.3223 56.4878 -85.0944 0.0000 0.0000 -28.0196
10.7824 8.6456 41.3962 32.6566 8.0415 166.4565 0.0000 0.0000 0.0000 14.9262 -2.1821 -68.4691 20.5242 19.9934 91.5329 0.4985 3.1532 12.6305 0.0034 -0.3752 -1.0310 0.0000 0.0000 0.0000 23.7497 -19.2556 -44.8171 -26.6916 -18.8907 109.9195 -0.6005 -0.9294 14.3499 -0.0331 -1.1750 3.2304 -3.0198 -1.0143 39.5906 -8.7263 -2.8220 13.3417 -6.7223 -0.4938 -4.7936 -8.8642 -3.8673 -7.1956 -8.9957 -3.1930 11.3490 -1.5549 -2.4945 4.6472 0.0000 0.0000 0.0000 214.3574 -84.9079 -226.9310 67.4543 -57.9894 -40.6066 0.0000 0.0000 18.1577 0.0000 0.0000 0.0000 57.2001 11.7943 24.8624 -121.3614 55.9361 -86.7892 0.0000 0.0000 2.3016
11.4123 6.7918 43.1706 33.2828 -2.6155 173.6888 0.0000 0.0000 0.0000 13.2626 -1.8835 -71.4255 22.5532 19.8430 97.4838 0.6316 2.6900 14.3372 0.0101 0.6493 1.7843 0.0000 0.0000 0.0000 20.0265 -23.3046 -49.9748 -29.0682 -17.9015 117.4402 -0.5861 -0.0675 14.4438 0.0000 -0.0063 0.0173 -2.4995 0.6703 43.7301 -5.4456 0.4961 15.2638 -4.7744 1.5430 -3.4108 -9.5490 -6.1538 -7.0741 -0.8909 -7.1605 12.0421 0.7706 -3.9979 5.1190 0.0000 0.0000 0.0000 225.3660 -76.1513 -237.3814 74.5674 -59.0807 -46.6763 0.0000 0.0000 15.5354 0.0000 0.0000 0.0000 60.7314 12.4422 21.3655 -125.5797 54.6298 -90.2573 0.0000 0.0000 6.8715
12.0777 5.0840 44.9002 32.5264 -15.6113 183.1983 0.0000 0.0000 0.0000 9.4980 -2.9441 -79.0033 25.7771 19.1803 107.1159 0.7565 3.4833 15.6234 0.1551 2.5374 6.9932 0.0000 0.0000 0.0000 16.6482 -31.2446 -58.0429 -31.5731 -16.4244 125.9138 -0.6837 -0.0672 15.6049 -0.0005 0.1489 -0.4092 0.2124 1.0831 50.4687 -0.0689 3.6444 14.0717 -1.7485 3.3121 -4.8607 -11.0263 -7.9351 -6.4696 6.4764 -10.2225 8.8751 3.0925 -5.0388 4.6162 0.0000 0.0000 0.0000 239.7805 -65.3561 -251.6615 88.6260 -59.9929 -58.8101 0.0000 0.0000 10.7962 0.0000 0.0000 0.0000 56.3045 14.3260 16.1649 -119.1630 56.5289 -84.9616 0.0000 0.0000 2.2397
12.7182 3.4917 46.4664 29.0529 -28.7551 196.0408 0.0000 0.0000 0.0000 3.5549 -2.9700 -87.0217 29.2739 17.7984 118.1112 0.8613 0.4391 17.3993 0.0221 0.9602 2.6393 0.0000 0.0000 0.0000 15.9588 -40.1938 -66.4208 -33.4787 -14.9151 132.9604 -0.7863 -1.6161 16.2834 -0.0911 -1.9471 5.3595 3.7197 -1.9144 55.6417 3.0565 3.4212 12.0247 -0.0482 3.2937 -7.7238 -9.3389 -7.2986 -8.1667 6.3882 -9.2635 6.8110 2.8556 -4.4871 4.0953 0.0000 0.0000 0.0000 263.1870 -53.6109 -281.4668 103.8692 -59.2606 -71.9813 0.0000 0.0000 13.5407 0.0000 0.0000 0.0000 50.7714 21.1497 16.0253 -109.3858 58.5313 -76.7058 0.0000 0.0000 -9.4577
13.2296 2.2324 47.5831 19.2911 -39.6413 216.0842 0.0000 0.0000 0.0000 -4.0013 0.4132 -93.2894 32.4025 15.8151 128.9003 0.8481 -5.4645 20.2116 0.0198 -0.9090 -2.4986 0.0000 0.0000 0.0000 19.9264 -48.0212 -74.1283 -34.7857 -13.6211 138.2596 -0.4620 -5.6263 12.1474 -0.1877 -2.7906 7.6964 8.2094 -5.4894 56.0773 4.2763 2.4834 8.7843 -0.3463 2.5750 -11.2387 -8.1919 -6.4102 -8.6725 4.7062 -8.0239 6.8770 2.2440 -3.9408 3.9832 0.0000 0.0000 0.0000 272.6980 -36.0031 -306.6968 115.5021 -57.3940 -81.8922 0.0000 0.0000 3.7305 0.0000 0.0000 0.0000 51.0827 26.8623 16.3237 -105.5880 59.0617 -73.4570 0.0000 0.0000 -13.9775
13.4757 1.9058 48.4202 -1.8930 -43.3136 247.7800 0.0000 0.0000 0.0000 -9.8622 6.1904 -98.6140 35.1083 13.2608 139.6473 0.9835 -10.0085 24.8619 0.0002 0.0852 0.2342 0.0000 0.0000 0.0000 26.8512 -58.2820 -86.3120 -36.0343 -12.1146 143.8616 -0.3143 -6.9496 10.4039 -0.1729 -2.6786 7.3853 10.9785 -5.7535 42.1006 5.8440 1.0041 8.9341 0.0928 1.5688 -9.8990 -8.8201 -6.8309 -6.7487 4.2399 -8.6773 7.8223 2.1982 -4.3414 4.0064 0.0000 0.0000 0.0000 273.8559 -18.7582 -323.8018 118.7079 -56.6445 -84.5817 0.0000 0.0000 -4.2224 0.0000 0.0000 0.0000 53.1200 30.3609 13.8884 -104.1131 59.2339 -72.1908 0.0000 0.0000 -10.4627
13.6368 2.1451 49.4100 -15.9772 -33.2999 271.5327 0.0000 0.0000 0.0000 -9.8558 16.3048 -94.4840 35.7802 12.4473 142.6667 0.3782 -11.9558 21.3502 0.0017 0.2701 0.7422 0.0000 0.0000 0.0000 24.5629 -60.3898 -95.4134 -36.6642 -11.2198 146.9754 -0.4509 -6.4765 12.1064 -0.4793 -4.4397 12.3170 2.8216 -2.1685 28.9431 6.1071 0.2801 9.2102 5.0007 0.9756 -5.6404 -8.2154 -6.3494 -7.1733 3.4976 -8.0065 10.3625 1.8783 -4.0374 4.7585 0.0000 0.0000 0.0000 275.0798 -4.1984 -335.2849 110.7018 -58.3171 -77.8270 0.0000 0.0000 4.2264 0.0000 0.0000 0.0000 50.6710 35.6569 11.4735 -97.1945 59.8035 -66.2265 0.0000 0.0000 -8.4569
13.8089 2.3750 50.3273 -21.6433 -16.0671 285.7543 0.0000 0.0000 0.0000 -16.0215 8.6192 -82.4033 33.0183 15.3165 131.1949 0.0747 2.4118 4.8873 0.2516 3.2273 8.9123 0.0000 0.0000 0.0000 11.7258 -55.1496 -101.5022 -36.1393 -11.9727 144.3646 -0.4058 -5.4821 11.4010 -0.3144 -3.6045 9.9665 -9.6719 0.3461 24.5492 3.3393 -0.3673 8.0035 9.3458 0.2927 -4.5210 -7.1151 -6.2216 -8.5704 3.9762 -7.9389 12.6722 1.7913 -3.8943 5.6801 0.0000 0.0000 0.0000 277.0753 5.2458 -341.8017 90.7322 -59.9980 -60.6341 0.0000 0.0000 12.3183 0.0000 0.0000 0.0000 42.2387 39.5053 4.9172 -86.5777 59.9557 -57.0366 0.0000 0.0000 -11.5233
13.9201 2.7347 51.1546 -27.7379 -5.2350 298.1306 0.0000 0.0000 0.0000 -25.5353 3.6215 -81.1692 29.9067 17.4620 120.2001 -0.0359 6.1323 -7.6924 1.5402 -7.8343 -22.2118 0.0000 0.0000 0.0000 4.0781 -46.0502 -101.9660 -34.6566 -13.7604 137.7141 -0.2118 -0.8907 8.4236 -0.0533 1.4900 -4.0983 -12.9072 0.4345 23.5527 2.5920 -1.0102 7.4424 10.5557 -0.0587 -4.3616 -7.3201 -6.5196 -9.0714 5.9785 -8.5530 12.9222 2.3801 -4.0345 5.9752 0.0000 0.0000 0.0000 278.5461 6.1063 -344.1659 59.4782 -56.1693 -33.9073 0.0000 0.0000 14.8452 0.0000 0.0000 0.0000 30.2688 38.5069 -5.3794 -81.8463 59.7473 -52.9447 0.0000 0.0000 -11.6916
13.8967 3.2338 51.9716 -36.2417 -0.0441 306.1630 0.0000 0.0000 0.0000 -31.1390 6.2694 -86.4686 30.3550 17.2054 121.7047 0.3368 -4.2556 -10.3283 7.5730 -15.7960 -51.0095 0.0000 0.0000 0.0000 3.4282 -36.5340 -98.6548 -33.0223 -15.3131 131.2101 -0.0367 1.3661 4.3959 -0.9430 6.1850 -17.3220 -6.9638 1.5084 26.1414 4.1268 -1.2430 8.1588 9.0772 -1.4736 -5.1782 -7.9845 -7.0637 -9.6260 8.2926 -9.4970 13.2225 3.1088 -4.3165 6.3788 0.0000 0.0000 0.0000 280.4439 0.4715 -342.1724 36.1511 -45.6168 -15.6304 0.0000 0.0000 30.1330 0.0000 0.0000 0.0000 21.0467 35.4561 -14.8194 -81.8496 59.7475 -52.9476 0.0000 0.0000 -10.7028
13.8396 3.8045 52.6982 -43.8001 6.3114 309.9391 0.0000 0.0000 0.0000 -32.1756 8.0070 -89.3107 31.7608 16.2924 126.5803 0.1566 -8.7055 -8.7422 4.6988 -13.0364 -39.5049 0.0000 0.0000 0.0000 2.1541 -28.4291 -96.0346 -31.1772 -16.6923 124.5249 0.0056 3.5808 4.8404 -1.9603 8.7828 -25.1183 -1.1384 0.6461 32.0449 5.4073 -1.5100 8.9655 6.9625 -1.9211 -6.5990 -7.8260 -7.4683 -10.6126 10.8796 -10.3555 12.9227 3.7955 -4.4665 6.6670 0.0000 0.0000 0.0000 281.7533 -6.5173 -338.8224 27.4901 -38.6425 -9.8036 0.0000 0.0000 48.7980 0.0000 0.0000 0.0000 14.7784 34.3734 -21.5017 -81.2242 59.7070 -52.4074 0.0000 0.0000 -12.9773
13.8033 4.4371 53.3988 -49.2539 13.2171 311.6265 0.0000 0.0000 0.0000 -34.0186 9.8624 -92.0648 32.9378 15.3841 130.8908 0.2257 -7.4047 -9.2562 1.3737 -7.4171 -20.9572 0.0000 0.0000 0.0000 0.6912 -21.3274 -95.0690 -28.9080 -17.9798 116.9201 0.2736 9.4504 5.6512 -3.0396 10.7589 -31.4711 3.7336 -0.5845 38.1521 6.2148 -1.8769 9.5461 5.6180 -2.4466 -7.9764 -7.5212 -7.2087 -11.6367 13.0004 -10.7258 11.5123 4.3247 -4.7932 6.5451 0.0000 0.0000 0.0000 282.2379 -12.7849 -334.6016 26.9777 -38.1579 -9.4853 0.0000 0.0000 39.1639 0.0000 0.0000 0.0000 9.3682 35.3319 -25.7120 -77.1416 59.3659 -48.8880 0.0000 0.0000 -12.7186
13.8278 5.1291 54.1757 -50.6407 19.9033 313.8031 0.0000 0.0000 0.0000 -36.5455 11.3784 -94.0000 33.9203 14.5052 134.6991 0.2252 -7.4505 -9.2644 0.0430 -1.3386 -3.6811 0.0000 0.0000 0.0000 0.1052 -14.4923 -97.5396 -26.5425 -18.9412 109.4596 0.4225 11.6150 6.5002 -4.4891 12.7843 -38.5662 5.1387 -0.6458 42.1051 6.5231 -1.6009 10.0942 5.2797 -2.5382 -8.5905 -7.5334 -7.4363 -11.4749 14.9791 -11.1218 9.3330 4.9222 -4.9526 6.0104 0.0000 0.0000 0.0000 283.2494 -14.5830 -332.2453 29.8571 -40.7706 -11.3162 0.0000 0.0000 30.2980 0.0000 0.0000 0.0000 4.7035 36.0036 -26.1965 -71.3367 58.6421 -43.9108 0.0000 0.0000 -13.7933
13.8938 5.8483 55.0341 -48.8036 25.5356 316.8075 0.0000 0.0000 0.0000 -37.8303 14.1071 -94.0335 34.6338 13.7847 137.6184 0.0711 -11.0624 -8.7881 0.0479 1.4121 3.8835 0.0000 0.0000 0.0000 1.5231 -8.0375 -101.8441 -24.1028 -19.5915 102.0747 0.1467 9.3863 10.3503 -4.4718 12.7630 -38.4877 3.3350 0.7070 44.8675 6.3650 -0.9926 10.9629 5.8592 -2.4148 -8.4748 -7.3289 -7.3467 -11.6408 17.6420 -11.3081 7.5357 5.7150 -5.0172 5.6832 0.0000 0.0000 0.0000 285.1193 -13.4705 -332.0897 31.7335 -42.3337 -12.5610 0.0000 0.0000 28.9498 0.0000 0.0000 0.0000 3.8109 35.9804 -23.3069 -68.6373 58.2034 -41.6110 0.0000 0.0000 -14.6358
13.9717 6.5372 56.0118 -47.1010 30.1706 319.4495 0.0000 0.0000 0.0000 -37.8369 20.9357 -93.5083 35.3064 13.0302 140.5184 -0.3852 -17.6777 -8.4066 0.0687 1.6906 4.6514 0.0000 0.0000 0.0000 6.4721 -3.2506 -106.2929 -21.9558 -19.9080 95.7269 -0.2114 7.3291 14.2696 -3.9556 12.1010 -36.0904 1.8045 1.5514 46.9000 5.6855 -1.0345 11.8620 5.9487 -2.5580 -8.0006 -6.8006 -6.9110 -12.0131 20.0476 -11.0932 6.1689 6.4164 -4.9156 5.4505 0.0000 0.0000 0.0000 288.3739 -13.0827 -333.8676 29.8982 -40.8060 -11.3430 0.0000 0.0000 32.0299 0.0000 0.0000 0.0000 7.8272 36.0988 -18.8088 -70.1311 58.4545 -42.8823 0.0000 0.0000 -14.1270
14.0401 7.2130 57.0227 -46.7281 35.4583 321.9990 0.0000 0.0000 0.0000 -34.8435 27.8836 -91.7503 35.7768 12.4517 142.6509 -1.9292 -27.9635 -5.5677 0.0016 -0.2559 -0.7031 0.0000 0.0000 0.0000 13.5019 -0.3362 -110.8064 -20.7203 -19.9876 92.1063 -0.3176 6.1032 14.6210 -3.9222 12.0561 -35.9308 0.9526 1.0615 48.6512 4.8069 -2.0706 11.3181 5.8490 -3.0096 -7.6064 -6.6736 -6.6673 -11.7142 22.1131 -10.9016 4.3810 7.0942 -4.9365 4.9811 0.0000 0.0000 0.0000 292.4846 -12.7141 -336.0521 26.5979 -37.7930 -9.2516 0.0000 0.0000 33.7243 0.0000 0.0000 0.0000 14.5527 36.3428 -14.0915 -73.7419 58.9773 -45.9685 0.0000 0.0000 -13.9502
14.0884 7.8221 58.1163 -45.4062 42.6850 325.6235 0.0000 0.0000 0.0000 -30.4682 29.5826 -88.2518 36.0286 12.1223 143.8340 -4.5583 -37.0832 0.3300 0.0539 1.4976 4.1192 0.0000 0.0000 0.0000 16.4411 1.7986 -114.7685 -21.0055 -19.9757 92.9411 -0.3776 3.8441 13.6649 -3.3950 11.3085 -33.3275 -0.9501 0.4700 46.9192 3.7478 -3.4587 12.5434 6.2000 -3.4423 -7.0383 -6.8895 -6.8442 -11.0713 24.4836 -11.1661 2.2721 7.8978 -5.2600 4.4834 0.0000 0.0000 0.0000 295.7920 -14.2166 -338.7650 21.9624 -32.9345 -6.5654 0.0000 0.0000 33.6731 0.0000 0.0000 0.0000 21.9805 34.4710 -10.3473 -78.1572 59.4634 -49.7624 0.0000 0.0000 -13.2261
14.0992 8.3989 59.1794 -42.9882 50.3091 329.1482 0.0000 0.0000 0.0000 -28.2607 26.9778 -84.8125 36.1148 12.0060 144.2467 -4.7731 -37.3508 1.7163 0.2577 3.2658 9.0197 0.0000 0.0000 0.0000 15.7537 3.5439 -113.7420 -21.7448 -19.9269 95.1074 -0.3528 -1.0455 10.9016 -1.8969 8.6479 -24.7001 -2.4067 -0.0716 47.1518 2.9325 -4.5495 12.4837 6.5065 -3.7829 -7.0377 -7.5106 -7.3672 -10.4565 26.4681 -11.7312 0.4979 8.6260 -5.7112 4.1582 0.0000 0.0000 0.0000 298.0948 -18.2281 -342.6937 16.0189 -25.5462 -3.6541 0.0000 0.0000 35.9532 0.0000 0.0000 0.0000 28.2541 31.6611 -8.0946 -80.8754 59.6831 -52.1063 0.0000 0.0000 -13.0253
14.1182 8.9272 60.2325 -40.7107 57.4981 332.9874 0.0000 0.0000 0.0000 -27.2279 21.8570 -82.2575 36.1109 12.0113 144.2281 -3.5283 -33.6789 -1.0361 0.1992 2.8741 7.9285 0.0000 0.0000 0.0000 13.5724 4.7175 -112.2694 -22.2661 -19.8764 96.6387 -0.1056 -6.6279 6.9405 -0.1581 2.5622 -7.0623 -2.7032 -1.1680 47.1412 2.5189 -5.6167 11.9421 6.6767 -4.0433 -7.5434 -8.3334 -8.0602 -10.1164 27.8074 -12.4446 -0.7371 9.1538 -6.1598 4.0482 0.0000 0.0000 0.0000 299.5129 -22.4587 -346.2285 10.6572 -17.7609 -1.6699 0.0000 0.0000 38.0624 0.0000 0.0000 0.0000 32.8464 29.6141 -6.6243 -80.6114 59.6643 -51.8784 0.0000 0.0000 -13.5747
14.1659 9.4083 61.2133 -38.4014 62.0821 336.6208 0.0000 0.0000 0.0000 -24.6352 18.8592 -79.3534 35.9566 12.2179 143.4928 -2.9853 -32.6786 -4.1248 0.1093 2.1316 5.8695 0.0000 0.0000 0.0000 10.5407 6.1827 -113.1147 -23.1972 -19.7531 99.3851 0.1935 -10.2811 3.4226 -0.0301 -1.1200 3.0789 -2.0359 -1.9117 47.0466 2.6144 -5.8411 11.1875 6.5846 -3.9483 -8.3853 -8.9658 -8.5839 -9.5002 27.7274 -12.6860 -2.0626 9.2348 -6.3675 3.6398 0.0000 0.0000 0.0000 299.1748 -25.1873 -350.8580 7.2808 -12.3804 -0.7907 0.0000 0.0000 43.2231 0.0000 0.0000 0.0000 35.6712 28.8065 -5.4426 -77.6397 59.4148 -49.3167 0.0000 0.0000 -12.6102
14.2421 9.9762 62.0331 -37.6418 64.2906 338.1332 0.0000 0.0000 0.0000 -20.6840 16.3751 -74.8184 35.4315 12.8807 141.0764 -2.3954 -32.5094 -8.7360 0.0904 1.9387 5.3362 0.0000 0.0000 0.0000 11.3836 7.8712 -110.9113 -23.4120 -19.7186 100.0211 0.3787 -11.2122 -1.0303 -0.0758 -1.7757 4.8860 -0.1973 -2.4534 47.3288 3.2736 -5.3775 10.5089 6.2387 -3.6401 -9.3231 -9.6568 -8.9214 -8.8858 27.0236 -12.6365 -3.3100 9.1582 -6.4084 3.1468 0.0000 0.0000 0.0000 296.9476 -26.6708 -354.3678 6.4741 -11.0505 -0.6269 0.0000 0.0000 48.5182 0.0000 0.0000 0.0000 37.9343 29.9335 -3.9161 -72.8914 58.8646 -45.2400 0.0000 0.0000 -10.6551
14.3494 10.5935 62.7854 -31.3141 67.1854 345.3750 0.0000 0.0000 0.0000 -21.6165 9.5527 -70.7129 34.4910 13.9350 137.0223 -0.6876 -27.3460 -14.9284 0.0376 1.2512 3.4402 0.0000 0.0000 0.0000 11.6654 7.6082 -109.5152 -23.3667 -19.7260 99.8869 0.3245 -10.0407 -3.9852 -0.0082 -0.5846 1.6064 0.2488 -2.6714 45.9802 3.3706 -5.1436 9.9115 5.9822 -3.3977 -9.7029 -10.0217 -9.5357 -9.2144 26.5125 -13.1354 -4.2144 8.9808 -6.6497 3.0161 0.0000 0.0000 0.0000 294.2579 -28.0819 -347.2979 8.2572 -13.9689 -1.0133 0.0000 0.0000 42.4731 0.0000 0.0000 0.0000 41.2289 30.0907 -1.8523 -68.5653 58.1907 -41.5498 0.0000 0.0000 -10.5165
14.4896 11.2587 63.4196 -20.8515 67.7200 356.4684 0.0000 0.0000 0.0000 -24.7775 4.7539 -67.1908 33.1501 15.2042 131.6957 0.9406 -19.4425 -20.6634 0.0004 -0.1228 -0.3374 0.0000 0.0000 0.0000 12.4822 7.6448 -107.2233 -22.8473 -19.8045 98.3511 0.1437 -7.8574 -7.2366 -0.0099 -0.6420 1.7642 -0.2123 -2.0797 44.2344 3.0517 -4.4214 9.2683 5.5080 -2.9310 -10.0291 -10.5621 -10.0763 -9.5455 25.8665 -13.5158 -5.1835 8.8079 -6.8366 2.8404 0.0000 0.0000 0.0000 290.8810 -29.6537 -342.1817 9.9605 -16.6777 -1.4636 0.0000 0.0000 35.9945 0.0000 0.0000 0.0000 45.0178 29.1433 1.1730 -64.6718 57.4315 -38.2543 0.0000 0.0000 -9.8918
14.6681 12.0077 63.9693 -11.9704 66.6463 365.7137 0.0000 0.0000 0.0000 -27.6816 1.9524 -63.0509 31.2551 16.6408 124.7962 1.8676 -11.5491 -24.6515 0.0373 -1.2462 -3.4265 0.0000 0.0000 0.0000 14.4413 7.4681 -103.1791 -21.7107 -19.9297 95.0073 -0.1055 -5.0428 -9.9625 -0.0058 0.4905 -1.3479 -0.6180 -1.5860 42.6699 2.7299 -3.8180 8.5930 5.0741 -2.5385 -10.3973 -11.1982 -10.4698 -9.7457 24.9699 -13.7116 -6.1522 8.6051 -6.9430 2.5862 0.0000 0.0000 0.0000 287.4854 -28.6512 -338.8202 11.6618 -19.2956 -1.9891 0.0000 0.0000 31.0709 0.0000 0.0000 0.0000 49.3141 28.3424 5.5065 -61.1025 56.5966 -35.2599 0.0000 0.0000 -7.5543
14.8747 12.8323 64.4760 -5.5553 64.9717 372.6474 0.0000 0.0000 0.0000 -29.5560 -0.1754 -58.8872 28.8952 17.9860 116.8785 1.9700 -5.4618 -25.3757 0.0917 -1.9526 -5.3747 0.0000 0.0000 0.0000 16.6795 6.9550 -98.3212 -20.1038 -19.9997 90.3036 -0.3392 -2.0317 -11.9355 -0.0754 1.7714 -4.8744 -0.9652 -1.4735 41.1222 2.5079 -3.6207 7.7751 4.9051 -2.3252 -10.8671 -11.7674 -10.7578 -9.6266 24.2789 -13.7930 -7.7204 8.5097 -7.0742 2.0999 0.0000 0.0000 0.0000 284.7228 -24.4018 -336.0943 15.3853 -24.6801 -3.3852 0.0000 0.0000 26.3300 0.0000 0.0000 0.0000 54.5540 27.3868 10.8025 -58.9628 56.0272 -33.4795 0.0000 0.0000 -5.9211
15.0871 13.7136 64.9672 -1.8381 62.7236 377.1610 0.0000 0.0000 0.0000 -29.7015 -2.5292 -56.5226 26.6757 18.8961 109.8701 1.1757 -0.6465 -20.2990 0.0902 -1.9366 -5.3304 0.0000 0.0000 0.0000 19.4703 6.4436 -92.7999 -17.9572 -19.8997 84.0176 -0.4849 1.5146 -12.7166 -0.1102 2.1401 -5.8931 -1.2831 -1.2984 39.7427 2.3086 -3.3366 6.8818 4.7215 -2.0750 -11.4561 -11.7203 -11.0276 -9.4523 23.9641 -13.9505 -9.8900 8.4571 -7.3309 1.4376 0.0000 0.0000 0.0000 282.7152 -19.3393 -334.3779 19.8742 -30.4905 -5.4674 0.0000 0.0000 20.5346 0.0000 0.0000 0.0000 61.3128 25.5320 15.1028 -58.2219 55.8172 -32.8658 0.0000 0.0000 -4.1516
15.2729 14.6454 65.4556 0.4646 60.5609 380.1590 0.0000 0.0000 0.0000 -28.4632 -6.0395 -56.4286 25.3254 19.3060 105.7454 0.3570 3.1880 -12.9154 0.0009 0.1897 0.5213 0.0000 0.0000 0.0000 22.9098 4.9616 -86.8483 -15.3553 -19.4747 76.3046 -0.3773 6.1698 -11.1074 -0.0349 1.2054 -3.3141 -1.8437 -1.1091 38.3957 2.1770 -3.1712 6.2203 4.7805 -1.9033 -11.7470 -11.3043 -11.1496 -9.6568 23.8378 -14.0368 -11.5584 8.3909 -7.5282 0.9586 0.0000 0.0000 0.0000 281.2423 -14.9780 -333.8982 23.4258 -34.5512 -7.3784 0.0000 0.0000 16.7115 0.0000 0.0000 0.0000 68.6848 23.2210 18.0081 -57.4253 55.5839 -32.2078 0.0000 0.0000 -2.9958
15.4279 15.4496 65.9333 1.6498 58.2676 381.5593 0.0000 0.0000 0.0000 -25.9928 -10.6120 -58.0508 25.0131 19.3865 104.8028 0.1218 6.1330 -11.4713 0.1594 2.5723 7.0901 0.0000 0.0000 0.0000 26.3199 2.6931 -81.9477 -13.2168 -18.8590 69.7975 0.1728 11.5173 -5.2575 -0.0577 -1.5501 4.2639 -2.4914 -0.8523 37.2537 2.0836 -3.0256 5.9280 4.9304 -1.7868 -11.6633 -10.7923 -11.0708 -10.3507 23.5632 -13.9511 -12.1953 8.2235 -7.5427 0.8011 0.0000 0.0000 0.0000 280.0676 -11.7799 -333.6270 25.6136 -36.8246 -8.6550 0.0000 0.0000 15.4068 0.0000 0.0000 0.0000 75.4189 21.1009 19.9409 -55.2771 54.9141 -30.4426 0.0000 0.0000 -3.3056
15.5619 16.1785 66.3694 1.4237 55.0452 381.5089 0.0000 0.0000 0.0000 -21.4780 -15.4233 -61.0666 24.3187 19.5468 102.7192 0.0655 8.4448 -13.2329 0.4983 4.5257 12.5605 0.0000 0.0000 0.0000 28.2713 0.9634 -78.2836 -11.8343 -18.3197 65.4625 0.8005 15.6175 6.4382 -0.2806 -3.4067 9.4130 -2.9591 -0.3176 36.3608 1.7826 -2.5258 5.7666 4.6255 -1.5380 -11.5556 -10.1474 -10.8252 -11.1289 23.2536 -13.6979 -12.4599 8.0267 -7.4493 0.7239 0.0000 0.0000 0.0000 279.3566 -9.5659 -333.3469 26.7006 -37.8922 -9.3146 0.0000 0.0000 14.9949 0.0000 0.0000 0.0000 81.2038 19.6761 21.3791 -50.7147 53.2797 -26.7460 0.0000 0.0000 -3.8740
15.7087 16.7962 66.7534 1.3071 51.1021 381.6198 0.0000 0.0000 0.0000 -15.5085 -20.2228 -64.1900 22.1527 19.8885 96.3054 0.2800 7.9557 -15.8980 0.7817 5.6446 15.7565 0.0000 0.0000 0.0000 26.3441 0.6695 -75.9827 -11.5506 -18.1942 64.5572 0.6309 16.1591 14.8195 -0.2367 3.1309 -8.6434 -3.0918 0.1350 35.8554 1.2012 -2.0297 5.3875 3.8664 -1.2815 -11.8490 -9.8319 -10.5308 -11.9049 22.7196 -13.3663 -12.4432 7.8125 -7.2717 0.7175 0.0000 0.0000 0.0000 278.4292 -7.5237 -333.7921 27.4524 -38.6072 -9.7801 0.0000 0.0000 13.8116 0.0000 0.0000 0.0000 85.3676 18.9485 22.8338 -44.2005 50.3707 -21.6212 0.0000 0.0000 -3.6751
