HIERARCHY
ROOT Hips
{
	OFFSET 0.00000 0.00000 0.00000
	CHANNELS 6 Xposition Yposition Zposition Zrotation Yrotation Xrotation
	JOINT LHipJoint
	{
		OFFSET 0.00000 0.00000 0.00000
		CHANNELS 3 Zrotation Yrotation Xrotation
		JOINT LeftUpLeg
		{
			OFFSET 1.37959 -1.78713 0.86582
			CHANNELS 3 Zrotation Yrotation Xrotation
			JOINT LeftLeg
			{
				OFFSET 2.54611 -6.99539 0.00000
				CHANNELS 3 Zrotation Yrotation Xrotation
				JOINT LeftFoot
				{
					OFFSET 2.59951 -7.14211 0.00000
					CHANNELS 3 Zrotation Yrotation Xrotation
					JOINT LeftToeBase
					{
						OFFSET 0.18493 -0.50810 1.96120
						CHANNELS 3 Zrotation Yrotation Xrotation
						End Site
						{
							OFFSET 0.00000 -0.00000 1.02054
						}
					}
				}
			}
		}
	}
	JOINT RHipJoint
	{
		OFFSET 0.00000 0.00000 0.00000
		CHANNELS 3 Zrotation Yrotation Xrotation
		JOINT RightUpLeg
		{
			OFFSET -1.33564 -1.78713 0.86582
			CHANNELS 3 Zrotation Yrotation Xrotation
			JOINT RightLeg
			{
				OFFSET -2.52705 -6.94302 0.00000
				CHANNELS 3 Zrotation Yrotation Xrotation
				JOINT RightFoot
				{
					OFFSET -2.55964 -7.03257 0.00000
					CHANNELS 3 Zrotation Yrotation Xrotation
					JOINT RightToeBase
					{
						OFFSET -0.25804 -0.70896 2.12109
						CHANNELS 3 Zrotation Yrotation Xrotation
						End Site
						{
							OFFSET -0.00000 -0.00000 1.11821
						}
					}
				}
			}
		}
	}
	JOINT LowerBack
	{
		OFFSET 0.00000 0.00000 0.00000
		CHANNELS 3 Zrotation Yrotation Xrotation
		JOINT Spine
		{
			OFFSET -0.02031 2.24248 -0.18900
			CHANNELS 3 Zrotation Yrotation Xrotation
			JOINT Spine1
			{
				OFFSET 0.08342 2.24689 -0.03799
				CHANNELS 3 Zrotation Yrotation Xrotation
				JOINT Neck
				{
					OFFSET 0.00000 0.00000 0.00000
					CHANNELS 3 Zrotation Yrotation Xrotation
					JOINT Neck1
					{
						OFFSET -0.11607 1.55844 0.24628
						CHANNELS 3 Zrotation Yrotation Xrotation
						JOINT Head
						{
							OFFSET 0.06877 1.60174 -0.17013
							CHANNELS 3 Zrotation Yrotation Xrotation
							End Site
							{
								OFFSET 0.03358 1.61266 -0.08543
							}
						}
					}
				}
				JOINT LeftShoulder
				{
					OFFSET 0.00000 0.00000 0.00000
					CHANNELS 3 Zrotation Yrotation Xrotation
					JOINT LeftArm
					{
						OFFSET 3.47537 0.55866 -0.72348
						CHANNELS 3 Zrotation Yrotation Xrotation
						JOINT LeftForeArm
						{
							OFFSET 5.38154 -0.00000 0.00000
							CHANNELS 3 Zrotation Yrotation Xrotation
							JOINT LeftHand
							{
								OFFSET 3.33312 -0.00000 0.00000
								CHANNELS 3 Zrotation Yrotation Xrotation
								End Site
								{
									OFFSET 0.00000 0.60000 0.00000
								}
							}
						}
					}
				}
				JOINT RightShoulder
				{
					OFFSET 0.00000 0.00000 0.00000
					CHANNELS 3 Zrotation Yrotation Xrotation
					JOINT RightArm
					{
						OFFSET -3.27844 0.90739 -0.35708
						CHANNELS 3 Zrotation Yrotation Xrotation
						JOINT RightForeArm
						{
							OFFSET -5.16954 -0.00000 0.00000
							CHANNELS 3 Zrotation Yrotation Xrotation
							JOINT RightHand
							{
								OFFSET -3.38287 -0.00000 0.00000
								CHANNELS 3 Zrotation Yrotation Xrotation
								End Site
								{
									OFFSET 0.00000 0.60000 0.00000
								}
							}
						}
					}
				}
			}
		}
	}
}
MOTION
Frames: 56
Frame Time: 0.0333333
0.0000 17.8049 0.0000 -4.5106 0.0000 9.4500 0.0000 0.0000 0.0000 -8.4218 -8.5075 -39.3918 2.6351 10.0795 29.2347 0.3029 -2.1207 -9.8763 1.7264 -8.2712 -23.5410 0.0000 0.0000 0.0000 28.8946 -2.9690 9.0624 0.0000 -0.0000 0.0000 -0.4807 6.5216 -12.4792 -0.0938 -1.9755 5.4379 3.5320 0.5114 3.4786 3.6665 0.6671 0.4895 1.7591 0.2342 -1.4468 -12.7824 -5.0777 -14.2857 4.2363 -4.9231 10.7367 2.9276 -2.6299 6.0185 -0.0000 -0.0000 0.0000 -92.5910 0.1753 17.1169 14.8789 -23.9772 -3.1766 -0.0000 -0.0000 10.1102 -0.0000 -0.0000 0.0000 86.3326 -1.2197 8.2577 -15.7448 25.1734 -3.5367 0.0000 -0.0000 -8.6637
0.0629 17.8174 0.3210 -4.5073 -1.5659 9.8340 0.0000 0.0000 0.0000 -7.2463 -9.6268 -39.5201 2.1251 9.1220 26.1778 0.2958 -0.1637 -10.2160 0.5324 -4.6757 -12.9858 0.0000 0.0000 0.0000 28.2245 -2.1380 10.2086 0.0000 0.0000 0.0000 -0.4650 7.0148 -12.3647 -0.1323 -2.3445 6.4587 3.2090 0.4403 3.4717 3.4825 0.9409 0.7712 1.7345 0.5456 -1.1665 -12.7208 -5.1052 -15.7891 4.4877 -4.6499 11.3577 3.0094 -2.4300 6.4510 0.0000 0.0000 0.0000 -92.6937 -0.2246 15.4361 14.5008 -23.4462 -3.0245 0.0000 0.0000 10.8888 0.0000 0.0000 0.0000 86.5010 -0.5331 7.3815 -15.5809 24.9491 -3.4673 0.0000 0.0000 -7.9600
0.1520 17.8304 0.6919 -4.6784 -2.5278 9.9413 0.0000 0.0000 0.0000 -5.3038 -12.2728 -39.6070 1.7422 8.3070 23.6506 0.2848 3.0838 -11.6985 0.6624 -5.2051 -14.4945 0.0000 0.0000 0.0000 27.5844 -1.9549 11.4782 0.0000 0.0000 0.0000 -0.3518 8.2237 -11.2439 -0.4103 -4.1117 11.3912 3.2020 0.5858 3.6226 3.3699 1.1313 0.8385 1.6125 0.6376 -1.1807 -12.2921 -4.9164 -16.0010 4.3145 -4.4401 11.2394 2.9057 -2.3199 6.4144 0.0000 0.0000 0.0000 -92.6135 0.2533 15.3480 14.4221 -23.3349 -2.9933 0.0000 0.0000 10.8656 0.0000 0.0000 0.0000 86.5718 -0.5868 6.7664 -15.7248 25.1460 -3.5282 0.0000 0.0000 -8.9563
0.2509 17.7769 1.0769 -5.5087 -3.2080 10.6595 0.0000 0.0000 0.0000 -5.8112 -10.2144 -39.9621 1.5999 7.9777 22.6464 0.3201 3.0150 -12.2299 1.0278 -6.4488 -18.0924 0.0000 0.0000 0.0000 27.7530 -1.6960 12.2976 0.0000 0.0000 0.0000 -0.2681 8.7161 -10.3206 -0.4795 -4.4407 12.3199 3.8395 0.5518 3.3267 3.4478 1.1118 0.5897 1.3395 0.6268 -1.2612 -11.9133 -4.7630 -15.9629 4.1616 -4.3050 11.3612 2.8118 -2.2548 6.4234 0.0000 0.0000 0.0000 -92.5676 0.4843 14.2014 13.8378 -22.5024 -2.7657 0.0000 0.0000 11.8870 0.0000 0.0000 0.0000 86.7095 -0.8726 6.1188 -15.9010 25.3863 -3.6034 0.0000 0.0000 -9.4872
0.3887 17.7641 1.5402 -5.2058 -4.2867 10.9765 0.0000 0.0000 0.0000 -6.8979 -10.1780 -39.6501 1.6224 8.0308 22.8077 0.2506 4.4994 -12.1990 0.7832 -5.6499 -15.7719 0.0000 0.0000 0.0000 26.5009 -1.3997 13.5161 0.0000 0.0000 0.0000 -0.1788 8.7582 -9.0948 -0.2031 -2.9020 8.0061 3.2518 0.4099 3.1582 3.5169 0.8909 0.3599 1.7493 0.5113 -1.4130 -12.4186 -4.3013 -16.2116 4.1462 -3.5208 11.9407 2.9722 -1.9074 6.5989 0.0000 0.0000 0.0000 -93.2792 1.4482 12.4273 13.6266 -22.1983 -2.6854 0.0000 0.0000 12.4971 0.0000 0.0000 0.0000 86.2939 -1.2998 4.8933 -15.9922 25.5100 -3.6426 0.0000 0.0000 -9.4354
0.5276 17.7269 2.0315 -5.4122 -5.2440 11.2114 0.0000 0.0000 0.0000 -8.2497 -8.8505 -39.2755 1.7556 8.3372 23.7431 0.2351 3.2646 -10.9609 0.5981 -4.9507 -13.7680 0.0000 0.0000 0.0000 25.6996 -1.2747 15.1832 0.0000 0.0000 0.0000 -0.0701 8.6642 -7.3403 -0.2107 -2.9551 8.1539 3.3072 0.3215 3.0991 3.4306 0.7663 0.2110 1.6346 0.4423 -1.5298 -11.8849 -3.8827 -16.5596 3.5809 -2.9391 11.9834 2.7632 -1.6454 6.6045 0.0000 0.0000 0.0000 -93.3303 1.7965 10.7881 13.2505 -21.6532 -2.5450 0.0000 0.0000 12.9516 0.0000 0.0000 0.0000 86.5726 -1.8192 3.1589 -16.5537 26.2656 -3.8877 0.0000 0.0000 -10.4434
0.6940 17.7804 2.5713 -5.1441 -6.1995 11.5609 0.0000 0.0000 0.0000 -9.4886 -8.9949 -38.3684 1.9898 8.8448 25.3109 0.1423 1.1618 -7.6488 0.4915 -4.4953 -12.4743 0.0000 0.0000 0.0000 24.2942 -1.0572 16.4486 0.0000 0.0000 0.0000 0.0440 7.8645 -4.5179 -0.0019 -0.2781 0.7640 3.0013 0.4329 3.1268 3.2384 0.8995 -0.2748 1.5996 0.4940 -2.0463 -11.5252 -3.6451 -15.9000 3.1808 -2.7218 11.5793 2.6036 -1.5495 6.3365 0.0000 0.0000 0.0000 -93.4943 2.4776 9.3525 12.8895 -21.1251 -2.4133 0.0000 0.0000 13.9651 0.0000 0.0000 0.0000 86.8055 -3.0569 0.6771 -17.2907 27.2395 -4.2196 0.0000 0.0000 -11.8329
0.8742 17.8384 3.1720 -3.8103 -6.2391 11.2798 0.0000 0.0000 0.0000 -11.5924 -10.4200 -36.3962 1.9864 8.8377 25.2890 0.0357 1.5182 -4.4675 0.3322 -3.7044 -10.2464 0.0000 0.0000 0.0000 21.6061 -2.0815 18.0901 0.0000 0.0000 0.0000 0.1360 6.9631 -0.0516 -0.0272 1.0639 -2.9248 1.8173 0.0685 3.2451 2.9200 0.3345 -0.5410 1.9633 0.2051 -2.3851 -11.7249 -3.3359 -16.5734 3.0494 -2.1261 12.8359 2.6572 -1.3072 6.8144 0.0000 0.0000 0.0000 -93.6764 3.0905 8.3058 12.7856 -20.9723 -2.3760 0.0000 0.0000 13.8578 0.0000 0.0000 0.0000 86.9851 -4.0201 -2.7562 -18.1312 28.3248 -4.6113 0.0000 0.0000 -13.5005
1.0832 17.8690 3.8450 -3.0390 -7.2889 10.6474 0.0000 0.0000 0.0000 -13.7990 -9.7653 -33.9092 2.0496 8.9686 25.6971 0.0030 0.5186 -1.3586 0.0271 -1.0625 -2.9209 0.0000 0.0000 0.0000 19.0210 -1.9922 20.1184 0.0000 0.0000 0.0000 -0.0239 4.0987 6.7342 -0.0315 1.1462 -3.1511 1.2246 0.3601 2.5169 2.6050 0.6305 0.0937 1.9617 0.3489 -1.3321 -11.7558 -3.2812 -17.1346 2.9923 -1.9693 12.3670 2.6543 -1.2226 6.7429 0.0000 0.0000 0.0000 -93.7412 2.3643 7.8564 12.7799 -20.9638 -2.3739 0.0000 0.0000 14.6362 0.0000 0.0000 0.0000 87.3880 -3.8083 -8.6358 -19.0399 29.4683 -5.0505 0.0000 0.0000 -14.0875
1.2554 17.9447 4.4306 -2.3129 -7.4817 10.2645 0.0000 0.0000 0.0000 -16.1933 -7.7443 -32.3400 2.0854 9.0418 25.9260 -0.0064 -1.7420 -0.4394 0.0291 1.1018 3.0290 0.0000 0.0000 0.0000 17.6360 0.3565 12.0824 -0.9085 -6.0739 16.9991 -0.1399 5.0260 10.6613 -0.0070 -0.5417 1.4884 0.1920 0.2970 3.1978 2.4500 0.5116 -0.1849 2.3835 0.2913 -2.0039 -10.9182 -3.1422 -17.5474 2.1886 -1.7806 13.1186 2.2790 -1.1777 7.0290 0.0000 0.0000 0.0000 -93.4232 2.7489 8.2822 13.3087 -21.7378 -2.5665 0.0000 0.0000 13.8278 0.0000 0.0000 0.0000 87.6720 -4.7642 -12.8671 -20.8796 31.6876 -5.9866 0.0000 0.0000 -19.3251
1.4235 18.0067 4.9903 -1.2473 -8.0359 10.2700 0.0000 0.0000 0.0000 -18.6337 -7.0477 -30.0774 1.9620 8.7864 25.1295 -0.0081 -2.9444 -1.5633 0.1681 2.6417 7.2826 0.0000 0.0000 0.0000 15.6293 3.6225 5.5517 -2.7110 -10.2118 29.6653 -0.6224 3.0473 16.3188 -0.0006 -0.1536 0.4219 -1.2496 0.3169 3.3237 2.2726 0.4613 -0.4743 3.0153 0.2784 -2.3801 -11.0643 -2.9215 -17.7556 2.1628 -1.4049 13.3795 2.3371 -1.0117 7.1263 0.0000 0.0000 0.0000 -92.9436 3.0465 9.8576 14.4295 -23.3454 -2.9962 0.0000 0.0000 12.0784 0.0000 0.0000 0.0000 87.4378 -5.1549 -17.1962 -22.9097 33.9899 -7.0878 0.0000 0.0000 -23.0835
1.5708 18.0653 5.5369 0.5399 -7.6236 9.2796 0.0000 0.0000 0.0000 -22.1545 -5.6229 -26.4338 1.6603 8.1194 23.0774 -0.0274 -4.5634 -2.0580 0.1252 2.2806 6.2817 0.0000 0.0000 0.0000 13.2001 5.6337 0.2143 -5.0505 -13.4404 41.0403 -1.1141 0.9323 20.3046 -0.0014 -0.2398 0.6588 -3.5729 0.0422 3.9128 2.1807 -0.0388 -0.4200 4.2650 0.0565 -2.6254 -11.3715 -2.7609 -17.4537 1.8764 -1.0728 13.5133 2.3315 -0.8905 7.1014 0.0000 0.0000 0.0000 -92.4262 3.1963 11.2629 15.7580 -25.1915 -3.5423 0.0000 0.0000 10.7718 0.0000 0.0000 0.0000 86.6417 -5.2773 -20.4545 -25.7101 36.9210 -8.7129 0.0000 0.0000 -27.3768
1.7186 18.1055 6.0422 2.0401 -6.8008 8.9672 0.0000 0.0000 0.0000 -24.8789 -5.5885 -23.1201 1.3738 7.4175 20.9583 -0.0303 -5.1185 -2.4835 0.1539 2.5278 6.9667 0.0000 0.0000 0.0000 11.1008 6.9278 -5.5366 -7.5214 -15.7557 50.8198 -0.7578 -0.2639 16.3647 -0.0407 1.3022 -3.5808 -5.2045 -0.4660 3.9432 2.0379 -0.8069 -0.2104 5.0870 -0.3226 -2.3303 -11.3170 -2.3932 -18.0896 1.5871 -0.4483 13.5195 2.2962 -0.6106 7.1683 0.0000 0.0000 0.0000 -91.4294 2.1717 11.9415 16.7511 -26.5285 -3.9755 0.0000 0.0000 10.0501 0.0000 0.0000 0.0000 85.5925 -4.5283 -22.9670 -29.2998 40.2856 -10.9541 0.0000 0.0000 -31.6532
1.8316 18.1042 6.5339 3.2073 -4.7850 8.3025 0.0000 0.0000 0.0000 -27.3323 -4.2857 -19.9579 1.1420 6.7861 19.0832 -0.1012 -7.7089 -2.7987 0.1237 2.2673 6.2450 0.0000 0.0000 0.0000 9.8704 7.1455 -10.3708 -9.6749 -17.2229 58.3960 -0.2401 -2.0302 8.7720 -0.0063 0.5120 -1.4068 -6.0902 -0.8171 4.5759 1.5482 -1.3618 0.0522 5.1186 -0.5984 -2.3355 -11.0412 -2.6315 -19.1435 1.7844 -0.7408 14.2634 2.2867 -0.7470 7.6086 0.0000 0.0000 0.0000 -89.1157 0.7467 14.1751 17.6156 -27.6621 -4.3693 0.0000 0.0000 9.0830 0.0000 0.0000 0.0000 85.1626 -3.9913 -26.8409 -33.5088 43.7175 -13.7725 0.0000 0.0000 -34.9033
1.9135 18.1219 7.0294 2.2861 -2.4530 8.1030 0.0000 0.0000 0.0000 -26.8476 -3.9442 -17.5078 1.1029 6.6729 18.7500 -0.1681 -9.8983 -3.5759 0.1475 2.4746 6.8191 0.0000 0.0000 0.0000 11.5197 8.2542 -14.5749 -10.9905 -17.9305 62.7509 0.0140 -5.2308 3.1956 -0.0006 -0.1531 0.4207 -5.6286 -1.6177 4.7269 2.3115 -2.3986 -0.3711 5.7321 -1.0931 -2.7074 -12.0699 -2.3538 -17.0746 2.0353 -0.4100 13.4887 2.5700 -0.5857 6.9897 0.0000 0.0000 0.0000 -88.1076 0.9977 14.0972 19.0215 -29.4454 -5.0414 0.0000 0.0000 8.7296 0.0000 0.0000 0.0000 82.6146 -4.2887 -29.2165 -38.0017 46.8404 -16.9668 0.0000 0.0000 -37.2012
2.0127 18.0839 7.5086 2.6840 -0.3351 8.2807 0.0000 0.0000 0.0000 -27.6501 -4.0888 -15.8017 1.1308 6.7538 18.9881 -0.2563 -12.1744 -4.3796 0.5371 4.6957 13.0428 0.0000 0.0000 0.0000 11.2880 9.8120 -19.2532 -11.6327 -18.2310 64.8198 0.1065 -5.7940 -1.6445 -0.0215 -0.9460 2.6003 -5.9971 -1.9497 4.8076 2.3045 -2.8966 -0.5828 5.9736 -1.3340 -2.8876 -11.8229 -2.5718 -17.1023 1.7515 -0.7157 13.2590 2.4015 -0.7371 6.9397 0.0000 0.0000 0.0000 -86.8032 0.2604 14.6640 20.7468 -31.5317 -5.9170 0.0000 0.0000 7.4774 0.0000 0.0000 0.0000 80.4348 -3.6737 -33.1289 -43.5436 50.0347 -21.1165 0.0000 0.0000 -38.8238
2.1008 18.0194 7.9763 3.5645 1.3624 8.4627 0.0000 0.0000 0.0000 -28.8366 -4.0112 -14.6811 1.2854 7.1844 20.2628 -0.3746 -14.7086 -5.3193 0.6346 5.0971 14.1858 0.0000 0.0000 0.0000 10.2493 11.9073 -23.3471 -11.6056 -18.2189 64.7332 -0.0295 -3.7584 -6.5112 -0.0160 -0.8179 2.2479 -7.0013 -2.3112 5.0670 2.1467 -3.4603 -0.8256 6.4326 -1.5778 -3.1580 -11.4007 -2.5845 -17.2236 1.0779 -0.7026 12.8624 2.1116 -0.7504 6.8273 0.0000 0.0000 0.0000 -85.6055 -0.4412 14.8959 22.5761 -33.6220 -6.9021 0.0000 0.0000 4.7847 0.0000 0.0000 0.0000 77.5959 -2.3054 -36.9756 -49.9942 52.9931 -26.1695 0.0000 0.0000 -41.0379
2.1633 17.9205 8.4398 4.0646 3.1610 8.5769 0.0000 0.0000 0.0000 -29.4586 -4.6364 -13.4539 1.4922 7.7168 21.8572 -0.3755 -16.3084 -7.1151 0.7579 5.5600 15.5131 0.0000 0.0000 0.0000 9.6399 14.2993 -26.8172 -10.9119 -17.8917 62.4951 -0.1998 -2.1577 -9.5224 -0.0143 -0.7709 2.1185 -8.0508 -2.4625 5.6117 2.2849 -3.7785 -1.1961 7.2442 -1.6731 -3.7315 -12.3166 -2.7817 -17.1860 1.9744 -0.9056 13.0258 2.5300 -0.8240 6.8954 0.0000 0.0000 0.0000 -84.8304 -0.3045 15.3676 25.2162 -36.4241 -8.4179 0.0000 0.0000 3.9928 0.0000 0.0000 0.0000 73.7837 -1.0478 -40.4773 -57.2830 55.5414 -32.0904 0.0000 0.0000 -41.9180
2.2161 17.8383 8.9261 4.3685 5.9173 8.8275 0.0000 0.0000 0.0000 -29.6957 -5.2647 -11.7569 1.6050 7.9897 22.6829 -0.5277 -18.2800 -7.3308 1.0759 6.5932 18.5157 0.0000 0.0000 0.0000 9.3401 15.5117 -29.6325 -9.5927 -17.1744 58.1182 -0.3786 -0.9415 -12.0020 -0.0207 -0.9280 2.5508 -8.3350 -2.6444 6.7061 2.0621 -4.1714 -1.9714 7.3065 -1.7628 -5.0999 -13.6097 -3.2093 -20.7855 4.6744 -1.0666 18.1050 3.7036 -0.8673 9.2555 0.0000 0.0000 0.0000 -83.5471 0.2582 16.5975 27.5160 -38.6668 -9.8198 0.0000 0.0000 3.1803 0.0000 0.0000 0.0000 70.1961 -0.7714 -43.9648 -65.6744 57.6416 -39.1002 0.0000 0.0000 -42.2257
2.2581 17.7703 9.4348 4.1320 8.7960 9.0413 0.0000 0.0000 0.0000 -29.1559 -5.7998 -9.8317 1.6502 8.0959 23.0057 -0.6662 -20.4330 -8.1723 1.1347 6.7652 19.0217 0.0000 0.0000 0.0000 9.8036 16.3600 -31.2551 -7.7460 -15.9292 51.6427 -0.4626 -0.5200 -13.0470 -0.0486 -1.4233 3.9144 -8.3008 -2.8304 6.1094 1.9967 -4.3395 -1.2002 7.1494 -1.9386 -3.9197 -11.5385 -3.9139 -17.5061 1.7732 -2.8682 12.0470 2.1030 -1.8212 6.7454 0.0000 0.0000 0.0000 -82.3212 -1.8824 17.6244 29.1812 -40.1811 -10.8774 0.0000 0.0000 3.0098 0.0000 0.0000 0.0000 66.1604 2.5306 -48.0164 -74.1161 59.0249 -46.2892 0.0000 0.0000 -40.1936
2.3372 17.7581 9.9161 3.8530 10.4092 9.7609 0.0000 0.0000 0.0000 -28.7724 -6.2990 -7.8896 1.5171 7.7780 22.0419 -0.5969 -21.1742 -9.7009 0.8589 5.9100 16.5234 0.0000 0.0000 0.0000 10.0990 16.8939 -33.6747 -5.7103 -14.1416 43.8076 -0.3120 -1.5259 -11.2204 -0.0004 0.1310 -0.3600 -8.3430 -2.8350 6.1326 2.1622 -4.3622 -1.6923 7.3767 -1.9026 -4.4338 -12.1913 -4.3614 -16.9929 2.4793 -3.4827 12.1014 2.3744 -2.0831 6.7440 0.0000 0.0000 0.0000 -82.0782 -1.9235 17.6932 30.5943 -41.3974 -11.8007 0.0000 0.0000 3.0565 0.0000 0.0000 0.0000 60.6015 5.2487 -50.4907 -80.4749 59.6544 -51.7606 0.0000 0.0000 -38.0075
2.3980 17.7364 10.4416 4.1946 12.8354 10.2776 0.0000 0.0000 0.0000 -28.7127 -6.2585 -5.2099 1.2632 7.1244 20.0844 -0.9448 -22.6305 -7.8219 1.2457 7.0766 19.9424 0.0000 0.0000 0.0000 10.5613 15.7032 -34.7562 -3.8686 -11.9835 35.6736 -0.0740 -3.0970 -7.2212 -0.1235 -2.2651 6.2389 -8.6466 -3.0348 6.2085 1.8792 -4.6849 -1.9572 7.2879 -2.0345 -4.6997 -12.3042 -4.7804 -15.4423 2.9277 -4.2942 10.8745 2.4742 -2.4088 6.1614 0.0000 0.0000 0.0000 -81.3872 -1.7540 18.2598 31.4768 -42.1261 -12.3885 0.0000 0.0000 3.0620 0.0000 0.0000 0.0000 54.2774 8.0219 -52.9675 -85.8052 59.9334 -56.3680 0.0000 0.0000 -36.7004
2.4656 17.6883 10.9812 4.7121 15.2770 10.9377 0.0000 0.0000 0.0000 -28.6825 -5.4098 -2.6950 1.0098 6.3939 17.9317 -1.3038 -24.6015 -6.7164 1.2406 7.0628 19.9016 0.0000 0.0000 0.0000 12.0272 12.2932 -36.1838 -2.3789 -9.6143 27.7364 -0.0012 -2.7014 -3.9318 -0.0261 -1.0437 2.8689 -8.9664 -3.2371 6.2804 1.6417 -5.0230 -2.3370 7.2648 -2.1631 -5.0791 -12.9675 -5.4867 -14.8566 3.7483 -5.2975 11.3042 2.7445 -2.8678 6.3209 0.0000 0.0000 0.0000 -80.9033 -1.6269 19.0062 31.6421 -42.2600 -12.4995 0.0000 0.0000 3.3399 0.0000 0.0000 0.0000 46.7988 11.3111 -54.9434 -89.1772 59.9974 -59.2875 0.0000 0.0000 -35.4644
2.5340 17.6749 11.5560 4.9522 17.5750 11.3914 0.0000 0.0000 0.0000 -28.1593 -4.6427 0.3480 0.7504 5.5329 15.4351 -1.7203 -25.6296 -3.7004 1.7176 8.2512 23.4797 0.0000 0.0000 0.0000 13.2568 10.0474 -36.2527 -1.3579 -7.3761 20.8345 -0.0407 -2.0991 -5.1783 -0.0016 -0.2600 0.7143 -9.1435 -3.1688 5.8660 1.5415 -4.9075 -2.2384 7.2104 -2.1246 -4.7554 -13.6957 -6.4880 -14.7352 4.5598 -6.6232 11.3919 2.9737 -3.4714 6.4942 0.0000 0.0000 0.0000 -80.2775 -2.0881 20.4313 31.2264 -41.9217 -12.2208 0.0000 0.0000 3.8061 0.0000 0.0000 0.0000 38.1373 14.1533 -57.2321 -89.3178 59.9982 -59.4092 0.0000 0.0000 -33.2386
2.5773 17.6474 12.1419 5.3074 19.8734 11.9003 0.0000 0.0000 0.0000 -27.4340 -2.8905 2.7863 0.5294 4.6626 12.9486 -2.0595 -26.6210 -1.3772 1.5238 7.7943 22.0911 0.0000 0.0000 0.0000 13.2448 10.1365 -35.8587 -0.8766 -5.9690 16.6944 -0.1055 -4.4735 -9.3738 -0.0061 0.5056 -1.3894 -8.8330 -3.2890 5.9863 1.0233 -5.1118 -2.6261 6.5299 -2.2072 -5.2699 -13.8246 -7.0763 -12.8711 5.3547 -7.7607 10.6141 3.1748 -3.9697 6.0764 0.0000 0.0000 0.0000 -79.3555 -1.4747 20.6517 30.4079 -41.2404 -11.6776 0.0000 0.0000 4.9664 0.0000 0.0000 0.0000 30.0545 16.9821 -57.8715 -87.8146 59.9819 -58.1075 0.0000 0.0000 -32.8188
2.6369 17.6206 12.7535 6.1328 21.9878 12.5071 0.0000 0.0000 0.0000 -27.2213 -2.5276 5.3054 0.4391 4.2518 11.7862 -2.1430 -26.4773 0.2448 1.8079 8.4539 24.1014 0.0000 0.0000 0.0000 13.4708 8.8190 -35.6928 -0.8653 -5.9314 16.5855 -0.0664 -7.7397 -12.3459 -0.0032 0.3647 -1.0021 -9.0247 -3.3338 5.5921 0.7127 -5.1476 -2.2936 6.2612 -2.2673 -4.6987 -14.1906 -7.9291 -13.7143 5.7168 -8.7694 10.9906 3.2018 -4.4338 6.4678 0.0000 0.0000 0.0000 -79.0512 -1.7788 20.3157 29.5255 -40.4832 -11.1003 0.0000 0.0000 5.6207 0.0000 0.0000 0.0000 20.3623 21.5048 -61.1883 -81.8173 59.7455 -52.9197 0.0000 0.0000 -30.0381
2.7154 17.5956 13.3836 5.5349 23.4219 12.3720 0.0000 0.0000 0.0000 -25.7910 -2.3102 8.4396 0.3150 3.6080 9.9763 -2.0245 -25.1903 2.1358 1.1219 6.7284 18.9131 0.0000 0.0000 0.0000 15.5710 7.2345 -35.8368 -1.1009 -6.6671 18.7327 0.4473 -12.0119 -7.0915 -0.1045 -2.0845 5.7393 -7.2547 -3.3606 6.1497 0.4560 -5.1447 -2.9599 5.0856 -2.2565 -5.8869 -14.5216 -8.1274 -12.5386 5.8479 -9.2060 11.3410 3.2755 -4.6810 6.4514 0.0000 0.0000 0.0000 -78.7796 0.5717 19.0183 28.4850 -39.5589 -10.4311 0.0000 0.0000 4.9748 0.0000 0.0000 0.0000 12.0089 25.8072 -61.8008 -73.5328 58.9502 -45.7892 0.0000 0.0000 -27.6543
2.7924 17.6614 14.0622 4.2417 24.1520 11.3487 0.0000 0.0000 0.0000 -23.8831 -3.2541 11.5545 0.3240 3.6585 10.1178 -1.7225 -22.6287 5.7611 0.8849 5.9965 16.7743 0.0000 0.0000 0.0000 17.2502 7.8524 -34.0969 -1.2944 -7.2084 20.3341 0.5854 -13.4571 -3.7626 -1.1237 -6.7335 18.9282 -5.9351 -2.8186 6.1027 0.8129 -4.2368 -2.3743 4.6142 -1.8754 -5.4178 -14.7210 -8.9148 -12.8358 6.0205 -10.2047 11.2470 3.2281 -5.1456 6.5929 0.0000 0.0000 0.0000 -79.5935 0.8514 17.2976 26.6112 -37.8059 -9.2598 0.0000 0.0000 4.7033 0.0000 0.0000 0.0000 2.2702 30.5810 -66.7211 -62.8368 57.0197 -36.7114 0.0000 0.0000 -23.2202
2.8862 17.7132 14.7225 3.0290 23.2422 11.4391 0.0000 0.0000 0.0000 -22.5657 -4.3493 10.0973 0.7273 5.4492 15.1944 -1.3620 -20.2389 10.0389 0.8927 6.0220 16.8484 0.0000 0.0000 0.0000 19.3291 8.0848 -33.3568 -1.5520 -7.8630 22.2987 0.3281 -10.0928 -3.7686 -1.6622 -8.1238 23.0907 -4.4186 -1.9074 4.8867 0.6981 -2.8339 -2.1925 3.4516 -1.2593 -4.7704 -14.0098 -9.4976 -12.1240 5.9344 -11.1767 10.3025 3.0146 -5.5863 6.2243 0.0000 0.0000 0.0000 -80.2078 1.1798 14.1702 23.8069 -34.9594 -7.5956 0.0000 0.0000 4.7978 0.0000 0.0000 0.0000 -5.3527 34.8909 -71.3376 -52.3935 53.9164 -28.0973 0.0000 0.0000 -17.6291
2.9341 17.7527 15.4139 2.3960 22.8713 11.0376 0.0000 0.0000 0.0000 -20.8554 -4.3241 7.8773 1.3391 7.3271 20.6881 -0.3490 -16.1396 19.0625 1.4568 7.6288 21.5921 0.0000 0.0000 0.0000 21.3864 6.6560 -32.1330 -1.8377 -8.5194 24.3031 0.1284 -6.6201 -4.4502 -1.7409 -8.3041 23.6417 -4.0528 -1.1439 5.0613 0.5341 -1.8144 -2.4516 3.0019 -0.7537 -5.2484 -13.4266 -9.9627 -10.7215 6.3159 -12.1552 10.0362 2.9964 -6.0375 5.9920 0.0000 0.0000 0.0000 -80.4403 2.9585 11.1396 21.3016 -32.1787 -6.2098 0.0000 0.0000 5.8871 0.0000 0.0000 0.0000 -11.1864 37.7702 -72.9226 -42.3658 49.4107 -20.2179 0.0000 0.0000 -14.4184
2.9719 17.7921 16.0971 1.5608 23.1821 10.7329 0.0000 0.0000 0.0000 -18.4039 -5.1568 4.0446 2.3771 9.6109 27.7257 1.3384 -11.6031 28.8103 1.2821 7.1753 20.2358 0.0000 0.0000 0.0000 23.3310 5.6700 -30.2707 -1.9564 -8.7747 25.0930 -0.0011 -4.5052 -6.4709 -1.5489 -7.8553 22.2755 -3.5326 -0.8168 5.0030 0.8090 -1.3297 -2.6528 2.9539 -0.5203 -5.4688 -13.9927 -10.3171 -10.2100 6.6323 -12.7086 10.5711 3.1241 -6.3264 6.1902 0.0000 0.0000 0.0000 -80.7893 4.3294 8.8079 18.7573 -29.1159 -4.9122 0.0000 0.0000 5.4258 0.0000 0.0000 0.0000 -16.8455 44.1869 -92.0592 -55.3724 54.9451 -30.5206 0.0000 0.0000 24.1008
2.9844 17.8374 16.7378 -0.1282 24.3687 9.8309 0.0000 0.0000 0.0000 -14.8391 -7.1329 -0.4144 4.0820 12.2687 36.6891 1.7931 -13.8147 33.4628 0.3486 3.7935 10.4966 0.0000 0.0000 0.0000 26.4692 3.6848 -27.7394 -1.8366 -8.5171 24.2961 -0.0609 -3.6400 -7.3750 -1.5302 -7.8100 22.1385 -2.3836 -0.4553 5.8606 1.4798 -0.7558 -3.0270 2.9740 -0.2486 -6.4019 -14.5558 -10.6135 -9.5341 7.0271 -13.2768 11.5285 3.2733 -6.6331 6.5084 0.0000 0.0000 0.0000 -81.0077 5.4604 7.3353 16.4795 -26.1666 -3.8550 0.0000 0.0000 7.7616 0.0000 0.0000 0.0000 -24.9903 45.0302 -101.4106 -72.1824 58.7658 -44.6334 0.0000 0.0000 7.3734
3.0518 17.8511 17.4052 -1.8700 24.8611 8.4031 0.0000 0.0000 0.0000 -11.6735 -8.4016 -3.5223 5.8562 14.2875 44.4019 0.4460 -17.1876 27.9927 0.0028 0.3424 0.9407 0.0000 0.0000 0.0000 29.5350 0.7499 -24.7422 -1.6718 -8.1462 23.1591 -0.1595 -1.6635 -8.3451 -1.4542 -7.6224 21.5728 -1.7888 -0.5680 6.6184 2.5196 -0.8354 -3.7229 3.7772 -0.2762 -7.5724 -14.8181 -10.3120 -8.5607 6.8498 -13.1430 13.1248 3.2921 -6.6666 6.8472 0.0000 0.0000 0.0000 -82.4352 7.9274 2.5737 14.8200 -23.8948 -3.1527 0.0000 0.0000 11.6985 0.0000 0.0000 0.0000 -29.4810 41.8892 -98.0296 -66.6149 57.8293 -39.8955 0.0000 0.0000 10.8815
3.1108 17.8509 18.0191 -2.5056 23.9965 7.4114 0.0000 0.0000 0.0000 -10.0260 -8.7617 -6.3115 7.2731 15.5576 49.8997 -0.2233 -14.6532 18.1625 0.0467 -1.3943 -3.8344 0.0000 0.0000 0.0000 31.0310 -0.8179 -21.9731 -1.5914 -7.9575 22.5850 -0.2566 0.0796 -9.5394 -1.2648 -7.1288 20.0976 -2.0082 -1.0939 6.0013 2.9561 -1.5351 -3.2067 4.4148 -0.6263 -6.5940 -13.9412 -9.8485 -9.0227 6.7854 -12.6751 14.2090 3.1650 -6.4247 7.1595 0.0000 0.0000 0.0000 -83.9209 10.2857 -1.7527 14.7527 -23.8004 -3.1255 0.0000 0.0000 10.7220 0.0000 0.0000 0.0000 -32.0782 40.1495 -91.6096 -59.0049 56.0389 -33.5144 0.0000 0.0000 8.6939
3.1856 17.8348 18.6175 -2.5821 22.6286 6.4511 0.0000 0.0000 0.0000 -9.3544 -8.6103 -9.3275 8.1722 16.2445 53.1806 -0.5726 -14.0256 10.0930 0.4157 -4.1386 -11.4668 0.0000 0.0000 0.0000 31.6513 -1.0648 -17.9560 -1.4941 -7.7216 21.8717 -0.3560 0.4558 -11.1192 -1.1979 -6.9446 19.5512 -2.2160 -1.3656 5.0767 2.7082 -1.9068 -2.6090 4.2547 -0.8343 -5.3991 -12.2835 -9.5862 -8.7971 6.2580 -12.6286 15.0083 2.7554 -6.3944 7.2251 0.0000 0.0000 0.0000 -84.5156 12.0339 -4.5741 14.0900 -22.8632 -2.8630 0.0000 0.0000 9.2437 0.0000 0.0000 0.0000 -31.5701 39.1939 -80.0152 -55.5953 55.0171 -30.7032 0.0000 0.0000 -3.9248
3.2741 17.7904 19.1646 -2.4615 18.6858 5.6043 0.0000 0.0000 0.0000 -9.4112 -7.4878 -11.6636 8.5768 16.5276 54.6148 -0.4689 -12.1738 2.4910 0.6174 -5.0288 -13.9908 0.0000 0.0000 0.0000 31.8126 -1.0193 -14.3600 -1.5127 -7.7672 22.0093 -0.4024 2.5629 -11.3736 -1.2038 -6.9611 19.6003 -2.7049 -0.6829 4.6669 2.4629 -1.0254 -2.4562 4.1790 -0.3898 -5.0797 -12.3049 -9.2512 -8.0376 6.5830 -12.5390 16.1952 2.8902 -6.4025 7.4906 0.0000 0.0000 0.0000 -85.0465 13.1603 -7.0767 12.8142 -21.0144 -2.3863 0.0000 0.0000 10.2552 0.0000 0.0000 0.0000 -30.3048 39.0443 -66.2024 -52.5793 53.9843 -28.2475 0.0000 0.0000 1.2576
3.3620 17.7365 19.6512 -3.2943 15.4487 5.0034 0.0000 0.0000 0.0000 -8.4135 -7.8447 -14.9283 8.6151 16.5536 54.7494 -0.2390 -11.0640 -3.3442 0.7520 -5.5389 -15.4524 0.0000 0.0000 0.0000 32.7914 -1.8520 -12.1102 -1.5194 -7.7837 22.0591 -0.4136 5.0320 -11.4684 -1.2542 -7.0999 20.0116 -1.6633 -0.0764 4.2954 2.4440 -0.1514 -2.4455 3.4881 0.0012 -4.9356 -12.9104 -9.1555 -7.1913 7.1347 -12.6633 16.6268 3.1771 -6.5117 7.5715 0.0000 0.0000 0.0000 -85.5914 12.7006 -10.8905 11.4776 -19.0166 -1.9287 0.0000 0.0000 14.8091 0.0000 0.0000 0.0000 -29.5432 39.4255 -52.0334 -52.0614 53.7938 -27.8290 0.0000 0.0000 -1.4695
3.4671 17.6816 20.1159 -3.5416 11.8262 4.9451 0.0000 0.0000 0.0000 -8.1360 -8.4761 -18.3576 8.2439 16.2958 53.4365 0.0949 -9.3888 -8.1507 0.4935 -4.5039 -12.4987 0.0000 0.0000 0.0000 32.8706 -1.7400 -9.6895 -1.5274 -7.8032 22.1180 -0.3934 7.1233 -11.4955 -1.6066 -7.9934 22.6942 -0.7453 0.7167 3.5827 1.9271 0.9490 -2.2766 2.3422 0.5055 -4.4060 -12.9124 -9.5995 -7.9409 7.3118 -13.4208 17.9606 3.0817 -6.8712 8.2384 0.0000 0.0000 0.0000 -85.2434 11.9270 -11.3604 10.8355 -18.0356 -1.7246 0.0000 0.0000 16.6332 0.0000 0.0000 0.0000 -27.6935 41.4332 -40.1806 -53.2999 54.2427 -28.8313 0.0000 0.0000 -3.1873
3.5763 17.6555 20.5644 -3.8104 7.9885 5.1822 0.0000 0.0000 0.0000 -7.7203 -9.6576 -21.7070 7.5281 15.7610 50.8446 0.3903 -8.1482 -11.7019 0.7237 -5.4359 -15.1561 0.0000 0.0000 0.0000 32.7549 -1.9486 -7.2201 -1.4157 -7.5249 21.2801 -0.2751 9.3299 -10.6447 -1.4724 -7.6678 21.7095 0.2129 1.5130 3.0178 1.4356 2.0386 -2.5123 1.2261 1.0088 -4.3277 -13.5633 -9.1763 -4.5008 9.3617 -13.5221 16.0544 4.0302 -6.9373 7.1994 0.0000 0.0000 0.0000 -85.5290 11.5746 -11.1156 10.9953 -18.2811 -1.7745 0.0000 0.0000 16.8294 0.0000 0.0000 0.0000 -23.5534 45.7732 -28.9601 -55.0478 54.8390 -30.2551 0.0000 0.0000 -6.1881
3.6423 17.6498 20.9744 -4.5730 5.1360 5.7342 0.0000 0.0000 0.0000 -6.1672 -11.7477 -25.0480 6.4108 14.8150 46.6090 0.5062 -6.5077 -12.7849 0.6115 -5.0049 -13.9227 0.0000 0.0000 0.0000 33.3032 -1.2700 -4.7471 -1.1849 -6.9081 19.4433 -0.2340 10.1099 -10.4477 -1.7264 -8.2713 23.5411 1.1295 2.0603 2.9510 1.4837 2.8043 -2.6432 0.7122 1.3551 -4.4007 -13.9205 -9.3131 -4.5787 9.8496 -13.7554 15.9660 4.2115 -7.0339 7.2735 0.0000 0.0000 0.0000 -86.4072 10.5335 -7.9467 11.5735 -19.1619 -1.9600 0.0000 0.0000 13.6914 0.0000 0.0000 0.0000 -17.7375 51.4276 -18.1344 -55.1213 54.8632 -30.3152 0.0000 0.0000 -8.1402
3.7223 17.6700 21.4397 -4.6164 1.9778 5.8905 0.0000 0.0000 0.0000 -5.6487 -13.3439 -26.9289 5.0827 13.4763 41.1787 0.5613 -5.0662 -13.3374 0.7649 -5.5849 -15.5846 0.0000 0.0000 0.0000 32.6617 -2.0037 -0.6398 -0.7361 -5.4810 15.2858 -0.0547 11.0195 -8.5308 -1.5970 -7.9707 22.6251 1.6941 2.7804 2.4655 0.9894 3.7731 -1.8540 -0.1251 1.8376 -3.2442 -13.6914 -10.0774 -6.0863 10.1641 -14.5908 15.7824 4.0966 -7.3083 7.5950 0.0000 0.0000 0.0000 -86.8037 7.5205 -5.4902 12.1164 -19.9790 -2.1419 0.0000 0.0000 12.3177 0.0000 0.0000 0.0000 -8.6692 57.2540 -7.0790 -53.3958 54.2765 -28.9091 0.0000 0.0000 -10.4319
3.8156 17.6523 21.9124 -5.2084 -1.5284 6.0854 0.0000 0.0000 0.0000 -4.5919 -13.8295 -28.5422 3.7229 11.7822 34.9659 0.4941 -3.4771 -12.5449 1.4607 -7.6386 -21.6216 0.0000 0.0000 0.0000 32.2645 -2.7244 3.6890 -0.3661 -3.8865 10.7576 0.1588 12.1126 -6.0922 -1.7707 -8.3711 23.8470 2.5891 3.5461 2.3705 0.9195 4.8962 -1.7132 -0.7341 2.4145 -2.9534 -13.8654 -9.9599 -6.4047 10.6223 -14.4508 15.7819 4.2752 -7.2087 7.6814 0.0000 0.0000 0.0000 -87.3849 6.4751 0.0405 13.3686 -21.8249 -2.5887 0.0000 0.0000 9.1471 0.0000 0.0000 0.0000 8.3993 62.8010 10.3394 -49.2142 52.6736 -25.5480 0.0000 0.0000 -10.6033
3.8626 17.6269 22.3498 -6.3180 -3.7226 7.0445 0.0000 0.0000 0.0000 -2.6905 -13.9852 -31.5499 2.6936 10.1817 29.5673 0.5436 -2.9959 -13.2248 1.5191 -7.7831 -22.0571 0.0000 0.0000 0.0000 32.8367 -2.7841 10.6266 0.0000 0.0000 0.0000 0.2069 9.7546 -2.3347 -1.9205 -8.6986 24.8569 3.6965 4.1860 1.2110 1.0927 5.7257 -1.1165 -1.0718 2.8438 -1.5766 -14.6284 -10.3177 -6.9557 11.7218 -14.7997 14.9140 4.6824 -7.2878 7.6916 0.0000 0.0000 0.0000 -87.9354 3.2455 4.4506 14.1406 -22.9354 -2.8827 0.0000 0.0000 8.9074 0.0000 0.0000 0.0000 31.5579 65.5219 31.1490 -41.7175 49.0551 -19.7269 0.0000 0.0000 -8.2840
3.9230 17.6134 22.8248 -6.9133 -5.4896 8.0667 0.0000 0.0000 0.0000 -1.7675 -14.0656 -34.1831 2.0228 8.9134 25.5248 0.6422 -0.9071 -14.8566 1.3431 -7.3374 -20.7188 0.0000 0.0000 0.0000 32.9214 -1.2850 12.0151 0.0000 0.0000 0.0000 0.1999 9.9668 -2.8408 -1.8259 -8.4936 24.2238 4.1908 4.8211 1.3298 1.0430 6.6130 -1.5045 -1.4359 3.2727 -1.9447 -15.3571 -10.8968 -6.6162 12.4631 -15.5747 14.1061 4.9467 -7.6449 7.6029 0.0000 0.0000 0.0000 -88.0144 1.7893 9.4468 15.3707 -24.6600 -3.3791 0.0000 0.0000 8.5765 0.0000 0.0000 0.0000 58.0908 62.2366 52.3999 -33.5823 43.7729 -13.8233 0.0000 0.0000 -7.3211
4.0047 17.5581 23.3539 -7.1324 -7.1499 8.1969 0.0000 0.0000 0.0000 -2.2936 -13.3789 -35.2924 1.7909 8.4163 23.9859 0.7947 1.1529 -17.2959 0.9996 -6.3625 -17.8399 0.0000 0.0000 0.0000 32.3978 -0.4496 14.3313 0.0000 0.0000 0.0000 0.2042 10.1611 -2.9924 -1.6937 -8.1966 23.3128 4.7574 5.5578 1.0902 0.7843 7.5443 -0.7756 -1.9378 3.7563 -0.9038 -15.3693 -11.5315 -8.5585 12.9081 -16.1706 14.0915 4.8984 -7.7866 8.0742 0.0000 0.0000 0.0000 -88.0710 -0.8048 13.5704 16.9723 -26.8212 -4.0748 0.0000 0.0000 8.6928 0.0000 0.0000 0.0000 75.9301 56.2654 60.9576 -25.4462 36.6566 -8.5549 0.0000 0.0000 -6.4236
4.0944 17.4975 23.9000 -6.8618 -7.6272 8.5924 0.0000 0.0000 0.0000 -4.5982 -11.8010 -35.9233 1.8421 8.5291 24.3330 0.6488 1.5056 -15.8330 0.7348 -5.4765 -15.2728 0.0000 0.0000 0.0000 31.2563 -0.4941 15.9054 0.0000 0.0000 0.0000 0.2550 10.4945 -2.0741 -1.5790 -7.9277 22.4948 4.5774 5.8302 1.4710 0.6124 7.9241 -0.9552 -2.0705 3.9331 -1.2754 -16.3802 -11.7715 -8.5000 14.0142 -16.4113 13.1536 5.3844 -7.8694 7.9864 0.0000 0.0000 0.0000 -88.2621 -1.5121 16.2533 19.1297 -29.5796 -5.0947 0.0000 0.0000 8.7515 0.0000 0.0000 0.0000 85.6337 46.9496 60.4567 -19.9018 30.5239 -5.4814 0.0000 0.0000 -7.4471
4.1800 17.4028 24.5334 -8.1840 -7.6146 8.7302 0.0000 0.0000 0.0000 -5.1357 -10.9073 -34.9899 2.1671 9.2057 26.4411 0.6248 -0.0691 -14.9148 0.4152 -4.1362 -11.4601 0.0000 0.0000 0.0000 31.9443 -1.1309 18.0866 0.0000 0.0000 0.0000 0.2635 9.8973 -0.6339 -0.9884 -6.3278 17.7386 5.6081 6.2726 1.6375 1.1446 8.5758 -0.6739 -2.0832 4.2761 -0.9700 -16.3852 -12.4642 -10.6178 13.4728 -16.8568 13.3597 5.0108 -7.9841 8.4502 0.0000 0.0000 0.0000 -88.9772 -2.9141 18.7820 20.9840 -31.8097 -6.0415 0.0000 0.0000 8.0132 0.0000 0.0000 0.0000 92.1852 37.8049 46.5836 -14.0450 22.7991 -2.8455 0.0000 0.0000 -0.4390
4.2523 17.4360 25.2298 -6.9943 -7.8269 9.1732 0.0000 0.0000 0.0000 -7.1593 -12.0758 -33.7536 2.3078 9.4798 27.3080 0.2329 0.3369 -9.2429 0.5310 -4.6695 -12.9684 0.0000 0.0000 0.0000 29.7499 -1.4069 19.4458 0.0000 0.0000 0.0000 0.2486 8.8040 2.9673 -0.6131 -5.0115 13.9412 3.8317 6.6901 1.8096 0.8418 9.1009 -1.3640 -1.5287 4.5153 -1.9585 -17.2951 -12.5244 -8.8453 14.9217 -17.0726 11.2860 5.6960 -8.1284 7.7215 0.0000 0.0000 0.0000 -88.6863 -1.5535 20.6095 23.6958 -34.8409 -7.5321 0.0000 0.0000 7.1829 0.0000 0.0000 0.0000 93.9509 27.0406 30.3484 -10.9400 18.1962 -1.7571 0.0000 0.0000 6.6028
4.3331 17.4865 26.0399 -4.8252 -5.7782 8.5665 0.0000 0.0000 0.0000 -10.8732 -12.6659 -31.1493 2.2455 9.3598 26.9273 0.0516 -0.0459 -4.2724 0.5033 -4.5479 -12.6234 0.0000 0.0000 0.0000 26.9719 -3.0691 17.0218 -0.1881 -2.7933 7.7039 0.2110 8.4940 5.7929 -0.2072 -2.9307 8.0859 1.1694 5.9964 0.9374 0.8652 8.0488 -0.7186 0.0817 4.0265 -1.2235 -18.1449 -12.6628 -8.8693 15.9144 -17.0213 9.5925 6.1628 -8.0761 7.3507 0.0000 0.0000 0.0000 -89.4057 -1.9344 18.8706 24.5576 -35.7484 -8.0300 0.0000 0.0000 7.4067 0.0000 0.0000 0.0000 93.7338 16.5523 15.1406 -9.3501 15.7167 -1.2933 0.0000 0.0000 17.5917
4.4310 17.5147 26.8426 -2.3398 -3.6662 7.7557 0.0000 0.0000 0.0000 -15.8876 -9.3989 -28.9624 2.2425 9.3539 26.9086 -0.0531 -5.2496 -1.5989 0.4315 -4.2156 -11.6840 0.0000 0.0000 0.0000 23.5674 -4.1654 10.3574 -1.5328 -7.8164 22.1577 -0.0467 7.3633 11.4865 -0.2657 -3.3163 9.1606 -0.8952 5.0971 1.2185 0.4472 6.7904 -0.5081 0.7844 3.4042 -1.3581 -17.9990 -12.7056 -9.2925 15.1972 -16.7476 8.8883 5.9306 -7.9476 7.0664 0.0000 0.0000 0.0000 -89.0526 -0.9894 16.9411 24.5623 -35.7532 -8.0328 0.0000 0.0000 5.8815 0.0000 0.0000 0.0000 93.2088 4.6830 6.1749 -8.9167 15.0275 -1.1784 0.0000 0.0000 20.3008
4.5266 17.5598 27.5260 -0.9155 -2.6666 7.3054 0.0000 0.0000 0.0000 -18.6931 -8.0263 -26.4828 2.2379 9.3449 26.8804 -0.1630 -8.4535 -1.7390 0.1348 -2.3667 -6.5201 0.0000 0.0000 0.0000 21.5385 -1.7872 4.3414 -3.5646 -11.5573 34.1835 -1.0113 3.6994 20.6719 -0.2936 -3.4845 9.6308 -2.1461 4.1659 2.1552 0.5980 5.5077 -0.3699 1.5924 2.7764 -1.8447 -17.7499 -12.0803 -9.6913 14.4213 -15.5663 7.9899 5.8190 -7.3889 6.5581 0.0000 0.0000 0.0000 -88.5187 0.3697 15.1774 23.7826 -34.9335 -7.5817 0.0000 0.0000 3.9897 0.0000 0.0000 0.0000 91.2178 -5.3492 0.1141 -8.3610 14.1364 -1.0385 0.0000 0.0000 20.4639
4.5897 17.6110 28.2261 -1.2834 -1.7834 6.7324 0.0000 0.0000 0.0000 -19.2568 -7.1879 -22.8049 2.0344 8.9374 25.5997 -0.1599 -9.1100 -2.7984 0.0270 -1.0602 -2.9145 0.0000 0.0000 0.0000 21.4803 0.4387 -1.5080 -6.1755 -14.5962 45.6819 -1.9474 -3.2663 25.5701 -0.5037 -4.5496 12.6283 -1.5795 2.8217 2.2181 1.3930 3.7577 0.1396 2.1818 1.8990 -1.2933 -17.0640 -11.0863 -10.2748 12.9388 -13.8800 7.3177 5.4685 -6.6000 5.9997 0.0000 0.0000 0.0000 -87.9581 1.8655 12.4575 22.0581 -33.0427 -6.6175 0.0000 0.0000 4.1302 0.0000 0.0000 0.0000 88.3455 -12.9162 -8.1549 -7.9601 13.4882 -0.9428 0.0000 0.0000 24.2708
4.7188 17.6278 28.8587 0.9510 -0.1872 6.1821 0.0000 0.0000 0.0000 -22.7483 -7.7491 -18.7299 1.8802 8.6120 24.5889 -0.1322 -9.9121 -4.4254 0.0492 -1.4321 -3.9386 0.0000 0.0000 0.0000 17.4574 -0.2260 -8.1312 -9.1646 -16.9125 56.6577 -1.2149 -3.6450 19.9468 -0.0580 1.5546 -4.2763 -2.9843 0.7151 2.8500 1.5418 0.8698 -0.1517 3.2229 0.4659 -1.8232 -15.7005 -9.8213 -10.3026 9.8795 -12.0135 8.1718 4.5230 -5.8163 5.6944 0.0000 0.0000 0.0000 -87.5772 4.5246 9.0254 19.3666 -29.8716 -5.2122 0.0000 0.0000 6.4287 0.0000 0.0000 0.0000 84.0133 -20.4645 -10.7972 -8.7282 14.7263 -1.1300 0.0000 0.0000 20.4297
4.7878 17.6529 29.4955 2.0686 -1.5397 5.2300 0.0000 0.0000 0.0000 -24.7392 -5.9091 -14.4565 1.5763 7.9214 22.4755 -0.0553 -9.6191 -5.7332 0.0000 0.0359 0.0986 0.0000 0.0000 0.0000 14.8378 2.6516 -12.9553 -11.4896 -18.1665 64.3617 -0.2948 -5.0281 9.7516 -0.0202 -0.9187 2.5252 -4.2522 -0.2289 3.1672 1.8898 -0.4041 0.4074 4.3563 -0.1686 -1.3138 -14.8548 -8.3861 -11.2526 8.8385 -9.9277 8.6692 4.2733 -4.8176 5.6393 0.0000 0.0000 0.0000 -86.8134 5.5903 7.0863 16.5569 -26.2699 -3.8892 0.0000 0.0000 8.6142 0.0000 0.0000 0.0000 79.2270 -25.0663 -12.1791 -10.2371 17.1096 -1.5440 0.0000 0.0000 8.8545
4.8202 17.6524 30.1044 2.1034 -3.2813 5.0595 0.0000 0.0000 0.0000 -25.2727 -3.9119 -10.9250 1.1871 6.9142 19.4614 -0.0045 -9.1699 -6.3455 0.0047 -0.4433 -1.2180 0.0000 0.0000 0.0000 13.8104 6.6515 -18.0278 -12.7185 -18.6781 68.2488 0.1024 -7.3668 2.3322 -0.0059 -0.4955 1.3615 -4.5568 -0.8758 3.5982 2.3289 -1.2872 0.1239 5.0353 -0.5884 -1.7365 -13.5449 -7.2384 -12.4422 7.6741 -8.3241 10.1094 3.8353 -4.0546 5.9892 0.0000 0.0000 0.0000 -85.9572 7.5934 5.5585 14.1276 -22.9168 -2.8776 0.0000 0.0000 11.9773 0.0000 0.0000 0.0000 74.4826 -28.6600 -15.3917 -12.0633 19.8994 -2.1238 0.0000 0.0000 -1.3942
4.8529 17.5925 30.7256 3.0133 -3.5741 4.1902 0.0000 0.0000 0.0000 -26.6265 -2.7474 -8.4833 1.3402 7.3298 20.6963 0.1267 -10.1926 -9.0593 0.0442 -1.3570 -3.7317 0.0000 0.0000 0.0000 11.9097 8.1233 -21.8011 -12.9782 -18.7743 69.0576 0.1828 -7.6073 -3.7152 -0.0500 -1.4430 3.9686 -5.4421 -2.0229 3.5444 2.4726 -2.8262 0.8405 5.7282 -1.3986 -0.7280 -12.2478 -6.0340 -13.7098 7.0976 -6.7055 10.3787 3.5954 -3.2374 6.0431 0.0000 0.0000 0.0000 -85.3437 8.1635 3.1819 12.3130 -20.2724 -2.2095 0.0000 0.0000 16.0646 0.0000 0.0000 0.0000 70.2297 -29.6050 -19.0020 -13.9447 22.6556 -2.8068 0.0000 0.0000 -12.4047
