HIERARCHY
ROOT Hips
{
	OFFSET 0.00000 0.00000 0.00000
	CHANNELS 6 Xposition Yposition Zposition Zrotation Yrotation Xrotation
	JOINT LHipJoint
	{
		OFFSET 0.00000 0.00000 0.00000
		CHANNELS 3 Zrotation Yrotation Xrotation
		JOINT LeftUpLeg
		{
			OFFSET 1.36337 -1.57426 1.11036
			CHANNELS 3 Zrotation Yrotation Xrotation
			JOINT LeftLeg
			{
				OFFSET 2.38468 -6.55187 0.00000
				CHANNELS 3 Zrotation Yrotation Xrotation
				JOINT LeftFoot
				{
					OFFSET 2.37166 -6.51609 0.00000
					CHANNELS 3 Zrotation Yrotation Xrotation
					JOINT LeftToeBase
					{
						OFFSET 0.29078 -0.79891 2.01393
						CHANNELS 3 Zrotation Yrotation Xrotation
						End Site
						{
							OFFSET 0.00000 -0.00000 1.07924
						}
					}
				}
			}
		}
	}
	JOINT RHipJoint
	{
		OFFSET 0.00000 0.00000 0.00000
		CHANNELS 3 Zrotation Yrotation Xrotation
		JOINT RightUpLeg
		{
			OFFSET -1.36349 -1.57426 1.11036
			CHANNELS 3 Zrotation Yrotation Xrotation
			JOINT RightLeg
			{
				OFFSET -2.29562 -6.30717 0.00000
				CHANNELS 3 Zrotation Yrotation Xrotation
				JOINT RightFoot
				{
					OFFSET -2.40985 -6.62100 0.00000
					CHANNELS 3 Zrotation Yrotation Xrotation
					JOINT RightToeBase
					{
						OFFSET -0.23197 -0.63733 1.92232
						CHANNELS 3 Zrotation Yrotation Xrotation
						End Site
						{
							OFFSET -0.00000 -0.00000 1.01562
						}
					}
				}
			}
		}
	}
	JOINT LowerBack
	{
		OFFSET 0.00000 0.00000 0.00000
		CHANNELS 3 Zrotation Yrotation Xrotation
		JOINT Spine
		{
			OFFSET -0.08565 2.03602 -0.24562
			CHANNELS 3 Zrotation Yrotation Xrotation
			JOINT Spine1
			{
				OFFSET -0.00036 2.05693 0.00216
				CHANNELS 3 Zrotation Yrotation Xrotation
				JOINT Neck
				{
					OFFSET 0.00000 0.00000 0.00000
					CHANNELS 3 Zrotation Yrotation Xrotation
					JOINT Neck1
					{
						OFFSET -0.03664 1.69515 0.31789
						CHANNELS 3 Zrotation Yrotation Xrotation
						JOINT Head
						{
							OFFSET 0.00932 1.70181 -0.46013
							CHANNELS 3 Zrotation Yrotation Xrotation
							End Site
							{
								OFFSET 0.01243 1.77620 -0.19377
							}
						}
					}
				}
				JOINT LeftShoulder
				{
					OFFSET 0.00000 0.00000 0.00000
					CHANNELS 3 Zrotation Yrotation Xrotation
					JOINT LeftArm
					{
						OFFSET 3.74344 0.81315 -0.36647
						CHANNELS 3 Zrotation Yrotation Xrotation
						JOINT LeftForeArm
						{
							OFFSET 4.97185 -0.00000 -0.00000
							CHANNELS 3 Zrotation Yrotation Xrotation
							JOINT LeftHand
							{
								OFFSET 3.35811 -0.00000 0.00000
								CHANNELS 3 Zrotation Yrotation Xrotation
								End Site
								{
									OFFSET 0.00000 0.60000 0.00000
								}
							}
						}
					}
				}
				JOINT RightShoulder
				{
					OFFSET 0.00000 0.00000 0.00000
					CHANNELS 3 Zrotation Yrotation Xrotation
					JOINT RightArm
					{
						OFFSET -3.75385 0.50666 -0.06525
						CHANNELS 3 Zrotation Yrotation Xrotation
						JOINT RightForeArm
						{
							OFFSET -4.96493 -0.00000 -0.00000
							CHANNELS 3 Zrotation Yrotation Xrotation
							JOINT RightHand
							{
								OFFSET -3.34929 -0.00000 0.00000
								CHANNELS 3 Zrotation Yrotation Xrotation
								End Site
								{
									OFFSET 0.00000 0.60000 0.00000
								}
							}
						}
					}
				}
			}
		}
	}
}
MOTION
Frames: 65
Frame Time: 0.0333333
0.0000 17.0146 0.0000 4.3042 -0.0000 3.7963 0.0000 -0.0000 0.0000 -19.4532 -7.3267 0.7495 0.6421 5.1265 14.2696 0.5657 15.8083 -27.2966 0.1463 2.4648 6.7922 0.0000 -0.0000 0.0000 10.3370 -0.5343 0.0205 -0.1691 -2.6489 7.3028 0.3009 -15.5640 -18.6824 -0.0166 0.8325 -2.2880 -5.7541 -1.0341 -7.3917 -0.1961 -0.8166 1.9244 2.9249 -0.6195 6.2584 -13.2701 -9.6963 -16.8136 6.4847 -12.9214 29.3504 2.4377 -6.4982 14.1814 0.0000 -0.0000 0.0000 -91.7650 -3.6764 23.6973 11.3073 -18.7577 -1.8735 0.0000 -0.0000 -2.1944 0.0000 -0.0000 0.0000 87.4947 2.4128 15.7099 -13.2546 21.6592 -2.5465 0.0000 -0.0000 -4.8709
-0.0154 17.0281 -0.0316 3.8339 0.0247 4.0549 0.0000 0.0000 0.0000 -18.7949 -7.5500 0.1594 0.6746 5.2521 14.6290 0.5860 15.7888 -27.4283 0.1322 2.3433 6.4555 0.0000 0.0000 0.0000 11.0169 -0.5786 0.1080 -0.1317 -2.3392 6.4442 0.3264 -15.6249 -18.4567 -0.0059 0.4967 -1.3647 -5.4689 -1.0477 -6.5118 0.0218 -0.9477 1.2951 2.9924 -0.6345 5.1019 -13.4293 -9.5355 -16.3595 6.3554 -12.7297 29.6608 2.4676 -6.4805 14.1986 0.0000 0.0000 0.0000 -91.8748 -2.9758 23.0673 11.0951 -18.4338 -1.8059 0.0000 0.0000 -0.2552 0.0000 0.0000 0.0000 87.3299 1.2519 16.8901 -13.4989 22.0139 -2.6374 0.0000 0.0000 -5.2214
-0.0124 17.0353 -0.0433 3.7184 0.2769 4.1323 0.0000 0.0000 0.0000 -18.6589 -7.7131 0.0223 0.6816 5.2787 14.7051 0.5941 15.6579 -27.3434 0.1423 2.4309 6.6981 0.0000 0.0000 0.0000 11.0926 -0.7918 0.0150 -0.1267 -2.2948 6.3212 0.3625 -15.7653 -18.2252 -0.0072 0.5472 -1.5036 -5.2264 -1.0955 -6.4943 0.0461 -1.0347 1.2468 2.8724 -0.6681 5.0444 -13.4337 -9.4860 -16.3524 6.2308 -12.6453 29.8620 2.4350 -6.4662 14.2650 0.0000 0.0000 0.0000 -91.8806 -3.1728 22.1490 10.6002 -17.6728 -1.6525 0.0000 0.0000 2.5890 0.0000 0.0000 0.0000 87.2739 1.3421 16.6761 -13.3369 21.7788 -2.5769 0.0000 0.0000 -3.5166
-0.0326 17.0377 -0.0662 3.6340 0.2901 4.1719 0.0000 0.0000 0.0000 -18.4862 -7.9546 -0.0564 0.6789 5.2684 14.6757 0.5495 15.9389 -27.3210 0.1275 2.3013 6.3391 0.0000 0.0000 0.0000 11.3370 -0.7794 0.0089 -0.1183 -2.2171 6.1059 0.3609 -15.6444 -18.0304 0.0000 0.0180 -0.0496 -5.2756 -0.9853 -7.1081 0.0133 -0.8299 1.7540 2.8786 -0.5991 5.9103 -13.0261 -9.5696 -16.7914 5.9870 -12.7053 29.7752 2.2438 -6.4524 14.2728 0.0000 0.0000 0.0000 -91.7707 -4.8458 19.0124 9.7033 -16.2741 -1.3906 0.0000 0.0000 6.0901 0.0000 0.0000 0.0000 87.5457 2.4538 15.5180 -12.8667 21.0916 -2.4051 0.0000 0.0000 0.6561
-0.0434 17.0269 -0.0749 3.7637 0.2838 4.0138 0.0000 0.0000 0.0000 -18.6356 -8.0299 0.2256 0.6709 5.2380 14.5886 0.5786 15.8974 -27.4942 0.1614 2.5881 7.1341 0.0000 0.0000 0.0000 11.2473 -0.7380 0.0200 -0.1294 -2.3183 6.3862 0.3468 -15.5422 -18.0379 -0.0043 -0.4222 1.1600 -5.4425 -0.9324 -6.9689 -0.0491 -0.7490 1.7881 2.9179 -0.5639 5.8618 -13.1323 -9.5734 -16.8099 6.1856 -12.7418 29.7668 2.3319 -6.4536 14.3036 0.0000 0.0000 0.0000 -91.7909 -5.6791 14.1096 8.7397 -14.7446 -1.1329 0.0000 0.0000 10.5253 0.0000 0.0000 0.0000 87.8557 3.2611 13.0946 -11.9343 19.7060 -2.0801 0.0000 0.0000 3.7924
-0.0540 17.0369 -0.0852 3.5985 0.3624 4.0731 0.0000 0.0000 0.0000 -18.3622 -8.1306 -0.0366 0.6851 5.2920 14.7433 0.5305 16.0791 -27.3361 0.1460 2.4622 6.7848 0.0000 0.0000 0.0000 11.5196 -0.8704 0.2285 -0.1071 -2.1099 5.8095 0.3643 -15.4824 -17.6896 -0.0054 -0.4752 1.3058 -5.3292 -0.9076 -6.9903 0.0252 -0.7288 1.7678 2.9347 -0.5502 5.8496 -13.6136 -9.6164 -16.3314 6.7358 -12.8237 29.1098 2.6333 -6.4754 14.0127 0.0000 0.0000 0.0000 -91.6158 -5.9254 13.1650 8.5418 -14.4272 -1.0831 0.0000 0.0000 9.9172 0.0000 0.0000 0.0000 87.8935 3.6569 11.1595 -11.4968 19.0458 -1.9349 0.0000 0.0000 4.2036
-0.0539 17.0402 -0.0778 3.4881 0.4817 4.1377 0.0000 0.0000 0.0000 -18.2309 -8.0823 -0.2488 0.7077 5.3766 14.9859 0.5226 15.9946 -27.1794 0.1129 2.1665 5.9660 0.0000 0.0000 0.0000 11.6130 -1.0556 0.4485 -0.0874 -1.9066 5.2476 0.4051 -15.6434 -17.4114 -0.0030 -0.3534 0.9709 -5.1812 -0.8888 -7.0668 0.1076 -0.7188 1.6761 2.9390 -0.5380 5.7939 -13.7977 -9.5795 -16.1408 6.8823 -12.7433 28.7941 2.7452 -6.4424 13.8537 0.0000 0.0000 0.0000 -91.2945 -5.1693 16.8574 9.1717 -15.4337 -1.2454 0.0000 0.0000 3.0795 0.0000 0.0000 0.0000 87.7288 3.1966 12.0884 -11.6669 19.3032 -1.9908 0.0000 0.0000 2.7452
-0.0548 17.0298 -0.0772 3.9302 0.5711 4.0337 0.0000 0.0000 0.0000 -18.7179 -7.6686 0.0294 0.6685 5.2287 14.5620 0.5219 15.7561 -26.9013 0.1250 2.2792 6.2779 0.0000 0.0000 0.0000 11.1309 -0.9595 -0.0569 -0.1321 -2.3432 6.4550 0.3280 -15.4047 -18.0487 -0.0036 -0.3884 1.0671 -5.6614 -0.8412 -6.5669 -0.0239 -0.6450 1.4803 3.0850 -0.4994 5.3021 -13.6573 -9.6708 -16.4488 6.7591 -12.8678 29.0637 2.6353 -6.4897 14.0296 0.0000 0.0000 0.0000 -91.3026 -3.9911 20.7240 10.0568 -16.8284 -1.4913 0.0000 0.0000 -0.9985 0.0000 0.0000 0.0000 87.8302 2.0481 14.7943 -12.4598 20.4906 -2.2607 0.0000 0.0000 0.3102
-0.0504 17.0307 -0.0743 3.7993 0.6756 4.0770 0.0000 0.0000 0.0000 -18.5566 -7.5870 -0.1103 0.6758 5.2567 14.6422 0.5398 15.5533 -26.8100 0.1211 2.2437 6.1796 0.0000 0.0000 0.0000 11.2507 -1.0739 0.0236 -0.1238 -2.2683 6.2477 0.3386 -15.4220 -17.9360 -0.0063 -0.5127 1.4089 -5.4588 -0.8059 -6.4841 -0.0033 -0.6252 1.3396 2.9963 -0.4754 5.1019 -13.5281 -9.6370 -16.1689 6.5812 -12.8459 29.0469 2.5606 -6.5010 13.9331 0.0000 0.0000 0.0000 -91.8242 -3.0262 22.8668 11.0886 -18.4240 -1.8038 0.0000 0.0000 -1.5268 0.0000 0.0000 0.0000 87.9970 1.2411 16.4439 -13.1947 21.5718 -2.5244 0.0000 0.0000 -3.7237
-0.0448 17.0320 -0.0715 3.8767 0.6655 4.0479 0.0000 0.0000 0.0000 -18.6670 -7.6070 -0.1436 0.6826 5.2825 14.7160 0.5225 15.6938 -26.8358 0.1001 2.0405 5.6175 0.0000 0.0000 0.0000 11.1208 -1.1079 0.2039 -0.1119 -2.1566 5.9386 0.3500 -15.4362 -17.8053 -0.0109 -0.6736 1.8511 -5.4006 -0.8330 -7.0362 -0.0959 -0.6150 1.7396 2.8614 -0.4938 5.8351 -13.3904 -9.7068 -16.6836 6.5570 -12.8874 29.0667 2.4994 -6.4831 14.0429 0.0000 0.0000 0.0000 -92.1007 -3.8575 24.4394 11.0430 -18.3541 -1.7894 0.0000 0.0000 -3.0866 0.0000 0.0000 0.0000 88.3007 1.9919 17.0414 -13.4117 21.8874 -2.6048 0.0000 0.0000 -5.1287
-0.0484 17.0381 -0.0796 3.9147 0.6493 4.1188 0.0000 0.0000 0.0000 -18.6364 -7.2559 -0.3261 0.6705 5.2364 14.5839 0.4832 15.6193 -26.4422 0.0914 1.9495 5.3662 0.0000 0.0000 0.0000 11.1400 -0.9994 -0.0241 -0.1212 -2.2443 6.1812 0.3417 -15.4623 -17.9652 -0.0056 -0.4815 1.3232 -5.5121 -0.7865 -7.0817 -0.1226 -0.5407 1.6723 2.9054 -0.4581 5.7844 -13.4196 -9.5428 -16.5079 6.6654 -12.7046 29.0756 2.5922 -6.4033 13.9974 0.0000 0.0000 0.0000 -92.2106 -3.7411 26.0225 11.4203 -18.9296 -1.9100 0.0000 0.0000 -3.9577 0.0000 0.0000 0.0000 88.3430 2.1085 17.8733 -13.4838 21.9920 -2.6317 0.0000 0.0000 -5.2745
-0.0395 17.0274 -0.0682 3.9022 0.6136 4.0118 0.0000 0.0000 0.0000 -18.7037 -7.2349 -0.0925 0.6731 5.2462 14.6121 0.5381 15.4910 -26.7268 0.1131 2.1686 5.9718 0.0000 0.0000 0.0000 11.0717 -0.9553 0.0679 -0.1272 -2.2993 6.3336 0.3223 -15.3656 -18.0566 -0.0067 -0.5299 1.4562 -5.5342 -0.8143 -7.0547 -0.0670 -0.5829 1.5794 2.9716 -0.4758 5.6759 -13.4439 -9.4753 -16.4049 6.4316 -12.5512 29.1730 2.5375 -6.3767 13.9813 0.0000 0.0000 0.0000 -92.4186 -3.5968 26.1670 11.5794 -19.1710 -1.9620 0.0000 0.0000 -3.6893 0.0000 0.0000 0.0000 88.0894 2.2601 18.4731 -13.2842 21.7021 -2.5574 0.0000 0.0000 -4.8454
-0.0322 17.0387 -0.0584 3.7739 0.4727 4.0020 0.0000 0.0000 0.0000 -18.6234 -7.5188 -0.1049 0.6961 5.3335 14.8623 0.5374 15.7198 -26.9799 0.1160 2.1960 6.0477 0.0000 0.0000 0.0000 11.1598 -0.9631 0.5859 -0.0932 -1.9692 5.4206 0.4086 -15.7390 -17.5413 -0.0045 -0.4316 1.1859 -5.5404 -0.8407 -7.0799 0.0246 -0.6208 1.5602 3.0666 -0.4956 5.6748 -13.4223 -9.3005 -16.4961 6.3570 -12.2269 29.0149 2.5666 -6.2370 13.8842 0.0000 0.0000 0.0000 -92.3647 -3.5931 26.3171 11.8549 -19.5866 -2.0534 0.0000 0.0000 -3.9349 0.0000 0.0000 0.0000 87.8447 2.1977 19.9730 -13.5078 22.0267 -2.6407 0.0000 0.0000 -6.5663
-0.0168 17.0393 -0.0407 3.9213 0.4751 4.1594 0.0000 0.0000 0.0000 -18.8538 -7.5299 -0.2141 0.6993 5.3455 14.8967 0.5276 15.8018 -26.9976 0.0976 2.0146 5.5459 0.0000 0.0000 0.0000 10.8869 -0.9262 0.4334 -0.0959 -1.9975 5.4988 0.4052 -15.7422 -17.5943 -0.0039 -0.4034 1.1085 -5.5733 -0.8479 -7.3455 -0.0966 -0.6086 1.4324 2.9583 -0.4867 5.6891 -13.3101 -9.2206 -16.6092 6.1502 -12.0989 29.3187 2.4867 -6.2001 13.9982 0.0000 0.0000 0.0000 -91.9234 -3.7093 26.5286 11.6000 -19.2020 -1.9687 0.0000 0.0000 -3.6846 0.0000 0.0000 0.0000 87.8359 1.9412 20.5504 -13.5205 22.0450 -2.6454 0.0000 0.0000 -7.4684
-0.0057 17.0324 -0.0206 3.8770 0.5153 4.1425 0.0000 0.0000 0.0000 -18.8687 -7.6014 -0.0533 0.6998 5.3472 14.9016 0.5810 15.7018 -27.2933 0.1054 2.0933 5.7635 0.0000 0.0000 0.0000 10.8546 -0.9678 0.5076 -0.0972 -2.0104 5.5344 0.4115 -15.7499 -17.5203 0.0000 0.0111 -0.0306 -5.4560 -0.8572 -7.5621 -0.1710 -0.6129 1.4787 2.8118 -0.4889 5.8590 -12.9810 -9.3717 -17.7242 5.6995 -12.2175 30.2627 2.1791 -6.2501 14.6065 0.0000 0.0000 0.0000 -91.6562 -3.7796 25.7290 11.3373 -18.8034 -1.8832 0.0000 0.0000 -2.6265 0.0000 0.0000 0.0000 87.9805 2.1471 20.1151 -13.3105 21.7405 -2.5672 0.0000 0.0000 -6.9654
0.0092 17.0208 0.0008 4.0813 0.4438 3.8649 0.0000 0.0000 0.0000 -19.2158 -7.6420 0.4175 0.6992 5.3450 14.8952 0.6351 15.6515 -27.6440 0.1340 2.3597 6.5007 0.0000 0.0000 0.0000 10.5320 -0.9169 0.7234 -0.1098 -2.1367 5.8836 0.4089 -15.7907 -17.6333 -0.0028 0.3442 -0.9457 -5.6102 -0.8104 -7.4714 -0.2535 -0.5368 1.5168 2.8220 -0.4560 5.8420 -13.0216 -9.3637 -17.2959 5.7838 -12.2606 30.0036 2.2299 -6.2738 14.4129 0.0000 0.0000 0.0000 -91.5010 -3.8851 25.0442 10.8482 -18.0552 -1.7286 0.0000 0.0000 -2.0218 0.0000 0.0000 0.0000 88.0005 1.9563 19.6767 -13.1605 21.5219 -2.5119 0.0000 0.0000 -6.6803
0.0121 17.0210 0.0092 4.3358 0.3896 3.9051 0.0000 0.0000 0.0000 -19.5210 -7.6758 0.5059 0.6826 5.2825 14.7160 0.6010 15.8139 -27.5686 0.1368 2.3840 6.5682 0.0000 0.0000 0.0000 10.2805 -0.7660 0.4578 -0.1305 -2.3284 6.4142 0.3384 -15.4522 -17.9917 -0.0018 -0.2763 0.7591 -5.9602 -0.8455 -7.5514 -0.2825 -0.5447 1.4937 2.9868 -0.4721 5.8690 -12.9277 -9.2654 -17.3161 5.6579 -12.1124 30.1016 2.1934 -6.2191 14.4248 0.0000 0.0000 0.0000 -91.5617 -3.9192 23.6953 10.6949 -17.8192 -1.6814 0.0000 0.0000 -1.2109 0.0000 0.0000 0.0000 87.8943 1.8710 18.9426 -13.3512 21.7996 -2.5822 0.0000 0.0000 -5.2494
0.0147 17.0271 0.0089 4.0686 0.4566 3.9923 0.0000 0.0000 0.0000 -19.2147 -7.7893 0.2941 0.6972 5.3374 14.8734 0.5732 15.9626 -27.5268 0.1168 2.2031 6.0672 0.0000 0.0000 0.0000 10.6185 -0.8626 0.6032 -0.1121 -2.1588 5.9447 0.3831 -15.7187 -17.8609 -0.0007 -0.1653 0.4542 -5.7092 -0.8386 -7.5253 -0.1841 -0.5693 1.3858 2.9468 -0.4711 5.7395 -12.4538 -8.7702 -17.3891 5.1642 -11.4303 30.6884 2.0521 -5.9563 14.5447 0.0000 0.0000 0.0000 -91.5866 -3.7997 23.0482 10.5280 -17.5611 -1.6306 0.0000 0.0000 -0.5604 0.0000 0.0000 0.0000 87.8238 1.7684 18.4857 -13.2002 21.5798 -2.5264 0.0000 0.0000 -4.8593
0.0146 17.0226 0.0224 3.9862 0.6118 3.9997 0.0000 0.0000 0.0000 -19.1069 -7.6121 0.3183 0.6945 5.3275 14.8449 0.5899 15.7274 -27.3890 0.1258 2.2867 6.2986 0.0000 0.0000 0.0000 10.7416 -0.9893 0.5793 -0.1181 -2.2151 6.1006 0.3417 -15.5582 -18.1353 -0.0041 -0.4113 1.1300 -5.6465 -0.8565 -7.6200 -0.1602 -0.5959 1.3236 2.9331 -0.4810 5.7296 -11.1697 -7.4312 -18.1373 4.4643 -9.7774 32.6670 1.8551 -5.2416 15.2867 0.0000 0.0000 0.0000 -91.5104 -3.6775 23.3953 10.4721 -17.4745 -1.6138 0.0000 0.0000 -0.8400 0.0000 0.0000 0.0000 87.8551 1.6200 17.9156 -13.0567 21.3702 -2.4739 0.0000 0.0000 -4.2458
0.0125 17.0174 0.0383 4.3093 0.7118 3.8864 0.0000 0.0000 0.0000 -19.5008 -7.5504 0.6824 0.6704 5.2358 14.5822 0.5871 15.7227 -27.3628 0.1226 2.2577 6.2183 0.0000 0.0000 0.0000 10.3693 -1.0369 0.4744 -0.1417 -2.4261 6.6847 0.2982 -15.3691 -18.3842 -0.0014 -0.2435 0.6689 -5.8831 -0.8435 -7.8373 -0.2982 -0.5304 1.4390 2.9274 -0.4638 5.9714 -9.1601 -5.5421 -20.0550 3.8701 -7.5431 35.4912 1.6641 -4.1798 16.7302 0.0000 0.0000 0.0000 -91.4801 -3.8976 23.2880 10.4770 -17.4822 -1.6153 0.0000 0.0000 -0.6759 0.0000 0.0000 0.0000 87.9194 1.7405 17.7521 -12.9933 21.2774 -2.4509 0.0000 0.0000 -4.3232
0.0006 17.0263 0.0477 4.2432 0.7781 3.8934 0.0000 0.0000 0.0000 -19.4248 -7.9440 0.7556 0.6795 5.2705 14.6818 0.5541 16.0876 -27.5241 0.1058 2.0969 5.7736 0.0000 0.0000 0.0000 10.4967 -1.2132 0.8397 -0.1141 -2.1775 5.9964 0.3517 -15.5470 -17.9809 -0.0020 -0.2896 0.7956 -5.8739 -0.8205 -7.9285 -0.2068 -0.4992 1.4209 3.0220 -0.4499 6.0021 -7.0518 -3.3678 -21.1693 3.0508 -4.8841 37.8232 1.4755 -2.9889 17.8820 0.0000 0.0000 0.0000 -91.5325 -3.9532 23.9620 10.6132 -17.6930 -1.6565 0.0000 0.0000 -1.6716 0.0000 0.0000 0.0000 87.7355 1.6978 17.8323 -13.1096 21.4476 -2.4932 0.0000 0.0000 -4.5279
-0.0103 17.0115 0.0617 4.5630 1.0885 3.8472 0.0000 0.0000 0.0000 -19.7121 -7.4322 0.9185 0.6483 5.1506 14.3385 0.5431 15.7025 -27.0045 0.0864 1.8959 5.2181 0.0000 0.0000 0.0000 10.1584 -1.3187 0.2607 -0.1715 -2.6674 7.3541 0.2275 -15.0689 -18.7904 -0.0018 -0.2725 0.7488 -6.0457 -0.7791 -7.4742 -0.2840 -0.4732 0.9949 3.0456 -0.4134 5.2921 -5.7713 -1.7199 -20.8219 2.6876 -2.9123 39.1340 1.5082 -2.1354 18.3359 0.0000 0.0000 0.0000 -91.6506 -3.0149 24.5224 11.0128 -18.3079 -1.7799 0.0000 0.0000 -2.2990 0.0000 0.0000 0.0000 87.7103 0.7874 17.8499 -13.2987 21.7233 -2.5628 0.0000 0.0000 -4.7550
-0.0329 17.0183 0.0754 4.5337 1.4747 3.8898 0.0000 0.0000 0.0000 -19.5418 -7.5985 0.8268 0.6580 5.1881 14.4459 0.5454 15.5493 -26.8491 0.0868 1.9008 5.2315 0.0000 0.0000 0.0000 10.3290 -1.7229 0.3078 -0.1656 -2.6215 7.2267 0.2189 -14.9941 -18.7765 -0.0048 -0.4483 1.2317 -5.9850 -0.8695 -7.8688 -0.2437 -0.5610 1.2955 3.0386 -0.4767 5.8425 -4.6892 -0.5400 -21.4732 2.0534 -1.2155 39.6729 1.3852 -1.3977 18.6911 0.0000 0.0000 0.0000 -91.6161 -3.6559 24.6604 11.0082 -18.3008 -1.7785 0.0000 0.0000 -2.0820 0.0000 0.0000 0.0000 87.6298 1.4219 18.2925 -13.0618 21.3777 -2.4758 0.0000 0.0000 -5.3660
-0.0426 17.0068 0.0975 4.7263 1.7836 3.9070 0.0000 0.0000 0.0000 -19.6962 -7.2874 0.8626 0.6481 5.1497 14.3360 0.5481 15.1779 -26.4528 0.0765 1.7837 4.9082 0.0000 0.0000 0.0000 10.0695 -1.9621 0.0939 -0.1889 -2.7992 7.7201 0.1824 -14.8430 -18.9896 -0.0044 -0.4279 1.1757 -6.0974 -0.7905 -7.6936 -0.2093 -0.4671 1.0849 3.1521 -0.4210 5.5126 -3.9370 0.1276 -21.2718 1.6066 -0.3577 40.1251 1.2236 -1.0322 18.8555 0.0000 0.0000 0.0000 -91.9167 -3.1586 24.5586 11.0900 -18.4260 -1.8043 0.0000 0.0000 -2.0709 0.0000 0.0000 0.0000 87.6190 0.6896 18.0071 -13.2380 21.6349 -2.5403 0.0000 0.0000 -5.6257
-0.0713 17.0059 0.1197 4.6416 2.0514 3.7527 0.0000 0.0000 0.0000 -19.4705 -7.1478 0.9607 0.6588 5.1914 14.4554 0.5563 14.9261 -26.2370 0.0813 1.8392 5.0614 0.0000 0.0000 0.0000 10.3607 -2.3111 0.4366 -0.1813 -2.7426 7.5628 0.1367 -14.6923 -19.3113 -0.0137 -0.7563 2.0784 -5.9669 -0.7539 -8.0128 -0.1939 -0.3974 1.3764 3.1012 -0.4021 5.9943 -2.8889 0.9446 -21.4225 1.0945 0.7037 40.3768 1.0244 -0.5307 19.0091 0.0000 0.0000 0.0000 -91.9381 -3.4143 24.3572 11.0673 -18.3913 -1.7971 0.0000 0.0000 -1.7122 0.0000 0.0000 0.0000 87.5999 1.3005 17.5437 -13.1694 21.5349 -2.5151 0.0000 0.0000 -4.5377
-0.0905 16.9940 0.1336 5.2300 2.4691 3.6844 0.0000 0.0000 0.0000 -20.0178 -7.0395 1.2524 0.6233 5.0520 14.0570 0.5255 14.7762 -25.8237 0.0793 1.8161 4.9978 0.0000 0.0000 0.0000 9.7568 -2.6345 0.1226 -0.2255 -3.0564 8.4358 0.0775 -14.4909 -19.7083 -0.0061 -0.5046 1.3866 -6.3597 -0.7102 -7.8966 -0.4537 -0.3021 1.2593 3.0620 -0.3573 5.7971 -2.2839 1.6696 -20.6278 1.4470 1.3424 40.6529 1.2166 -0.1518 18.9349 0.0000 0.0000 0.0000 -91.7561 -3.0077 24.5338 11.1157 -18.4654 -1.8124 0.0000 0.0000 -2.0264 0.0000 0.0000 0.0000 87.8425 0.9031 17.6232 -13.4487 21.9411 -2.6186 0.0000 0.0000 -4.8699
-0.1227 16.9940 0.1400 4.7393 2.8417 3.6130 0.0000 0.0000 0.0000 -19.3202 -7.1897 1.2062 0.6290 5.0749 14.1223 0.5055 14.7450 -25.6261 0.0752 1.7694 4.8687 0.0000 0.0000 0.0000 10.5076 -2.9743 0.1578 -0.2293 -3.0820 8.5073 0.0270 -14.2257 -19.9041 -0.0193 -0.8976 2.4670 -5.9230 -0.6687 -8.0239 -0.2553 -0.2820 1.4388 3.0269 -0.3458 6.0544 -1.6351 2.5821 -20.7618 1.5460 2.4599 41.0151 1.3983 0.3954 19.1673 0.0000 0.0000 0.0000 -91.6834 -3.3515 24.9566 11.0030 -18.2929 -1.7769 0.0000 0.0000 -2.8006 0.0000 0.0000 0.0000 87.8832 1.2986 17.2457 -13.2554 21.6603 -2.5468 0.0000 0.0000 -4.7280
-0.1817 17.0284 0.0655 3.9619 2.8732 4.0361 0.0000 0.0000 0.0000 -18.0509 -7.5781 0.1617 0.6414 5.1236 14.2613 0.3900 15.1738 -25.1640 0.0492 1.4319 3.9380 0.0000 0.0000 0.0000 11.9689 -2.8984 -0.1377 -0.1805 -2.7368 7.5468 0.0505 -14.2289 -19.6384 -0.0792 -1.8154 4.9957 -5.4848 -0.5100 -7.4220 0.1422 -0.1812 1.1461 3.2121 -0.2626 5.3904 -0.8568 3.3363 -20.6984 1.1632 3.4309 41.6954 1.2922 0.8090 19.5887 0.0000 0.0000 0.0000 -91.8624 -3.3503 24.3918 11.2327 -18.6440 -1.8496 0.0000 0.0000 -2.5116 0.0000 0.0000 0.0000 87.6641 1.5228 17.2659 -13.2452 21.6454 -2.5430 0.0000 0.0000 -4.6898
-0.1717 16.9955 0.1450 4.7488 3.5064 3.7399 0.0000 0.0000 0.0000 -19.0913 -7.5465 1.2156 0.6045 4.9770 13.8429 0.4278 14.8708 -25.1272 0.0517 1.4679 4.0372 0.0000 0.0000 0.0000 10.7977 -3.4949 -0.2683 -0.2579 -3.2670 9.0231 -0.0449 -13.9537 -20.3305 -0.0235 -0.9898 2.7208 -5.7923 -0.4965 -8.3393 -0.0997 -0.0447 1.6212 3.1489 -0.2404 6.4046 -0.2751 4.0367 -20.7276 1.0623 4.3325 42.1037 1.3482 1.2248 19.8704 0.0000 0.0000 0.0000 -91.9103 -3.6623 24.4980 11.1472 -18.5135 -1.8224 0.0000 0.0000 -2.2323 0.0000 0.0000 0.0000 87.6518 1.7831 16.7795 -13.1309 21.4786 -2.5010 0.0000 0.0000 -4.6039
-0.1733 16.9994 0.1598 3.9584 3.8829 3.9761 0.0000 0.0000 0.0000 -18.1906 -7.8301 0.8015 0.6536 5.1711 14.3972 0.5478 14.2735 -25.4470 0.0833 1.8617 5.1237 0.0000 0.0000 0.0000 11.5810 -3.9154 -0.1126 -0.2102 -2.9517 8.1443 0.0277 -14.1644 -19.8091 -0.0232 -0.9838 2.7043 -4.5885 -0.3710 -8.3671 0.1056 -0.0270 1.1468 2.6895 -0.1700 5.9086 0.6770 4.8508 -19.6571 0.6639 5.3245 42.5288 1.1748 1.6828 19.8950 0.0000 0.0000 0.0000 -91.8295 -3.1475 24.6705 10.8415 -18.0449 -1.7265 0.0000 0.0000 -2.0527 0.0000 0.0000 0.0000 87.6168 0.9193 16.8012 -13.2312 21.6251 -2.5379 0.0000 0.0000 -4.4195
-0.2139 17.0207 0.0971 3.5740 4.2616 4.2394 0.0000 0.0000 0.0000 -17.4262 -8.2572 -0.2018 0.7119 5.3922 15.0307 0.5275 14.1405 -25.1326 0.0686 1.6895 4.6483 0.0000 0.0000 0.0000 12.3945 -4.5406 0.5095 -0.1071 -2.1102 5.8103 0.1603 -14.5944 -18.8724 -0.0555 -1.5197 4.1801 -4.3455 -0.3503 -7.6966 0.3084 -0.0717 0.9894 2.7577 -0.1722 5.3646 1.6945 5.7651 -19.4447 0.2460 6.5487 42.7480 1.0600 2.2584 20.0665 0.0000 0.0000 0.0000 -91.8732 -2.9272 24.7323 11.2667 -18.6958 -1.8605 0.0000 0.0000 -2.4290 0.0000 0.0000 0.0000 87.6481 0.9165 17.0203 -13.2565 21.6619 -2.5472 0.0000 0.0000 -4.1630
-0.2932 17.0516 -0.0122 2.2266 4.2077 4.3852 0.0000 0.0000 0.0000 -15.3827 -8.4852 -1.4504 0.7489 5.5276 15.4198 0.4163 14.4739 -24.5693 0.0526 1.4802 4.0712 0.0000 0.0000 0.0000 14.4645 -4.4738 0.7131 -0.0519 -1.4700 4.0432 0.2156 -14.6445 -18.2500 -0.2109 -2.9564 8.1575 -3.6408 0.0050 -6.2725 0.8213 0.2485 0.5590 2.9222 0.0326 4.0820 2.2563 6.3436 -18.9798 0.4252 7.1494 42.9638 1.1739 2.6078 20.1052 0.0000 0.0000 0.0000 -91.8944 -2.7552 24.6391 11.3438 -18.8133 -1.8853 0.0000 0.0000 -2.2285 0.0000 0.0000 0.0000 87.8316 0.7916 16.6499 -13.2996 21.7246 -2.5631 0.0000 0.0000 -4.0407
-0.2245 17.0047 0.1199 4.2334 5.2651 3.8707 0.0000 0.0000 0.0000 -18.1117 -8.1628 0.2656 0.7006 5.3502 14.9102 0.5172 13.6122 -24.4641 0.0523 1.4760 4.0596 0.0000 0.0000 0.0000 11.6365 -5.5422 0.5351 -0.1403 -2.4138 6.6506 0.0860 -14.2877 -19.3072 -0.0435 -1.3456 3.7004 -4.6902 -0.2994 -7.8282 0.1703 0.0546 1.4075 2.8240 -0.1375 5.8711 2.8577 6.9977 -18.8567 0.3689 8.0032 42.9420 1.2326 3.0417 20.1145 0.0000 0.0000 0.0000 -91.9106 -3.4667 24.6874 10.9913 -18.2750 -1.7732 0.0000 0.0000 -2.5864 0.0000 0.0000 0.0000 87.7178 1.2032 16.6474 -13.1284 21.4751 -2.5001 0.0000 0.0000 -4.2824
-0.2185 17.0073 0.1112 4.3360 5.4921 4.0897 0.0000 0.0000 0.0000 -18.2609 -8.5939 0.1918 0.6998 5.3470 14.9011 0.5321 13.6712 -24.6555 0.0646 1.6394 4.5100 0.0000 0.0000 0.0000 11.4691 -5.7015 0.2743 -0.1387 -2.4006 6.6141 0.0999 -14.3668 -19.2598 -0.0268 -1.0565 2.9043 -4.5891 -0.2757 -7.9155 0.1531 0.0781 1.2761 2.7522 -0.1178 5.7797 3.6204 7.7714 -18.4003 0.0256 9.1043 43.0414 1.1641 3.5455 20.1657 0.0000 0.0000 0.0000 -91.9472 -2.9147 24.5185 11.2394 -18.6542 -1.8518 0.0000 0.0000 -2.4815 0.0000 0.0000 0.0000 87.7068 0.9559 16.8872 -13.1416 21.4943 -2.5049 0.0000 0.0000 -4.0374
-0.2197 17.0044 0.0988 4.7701 5.6933 3.9988 0.0000 0.0000 0.0000 -18.6570 -8.1578 0.1097 0.6867 5.2978 14.7599 0.4964 13.4278 -24.0822 0.0507 1.4528 3.9957 0.0000 0.0000 0.0000 11.0016 -5.9063 0.2933 -0.1428 -2.4354 6.7105 0.0639 -14.1427 -19.3562 -0.0492 -1.4321 3.9387 -5.0092 -0.2323 -7.6737 0.0505 0.1686 1.2795 2.8915 -0.0823 5.6391 3.9927 8.3096 -17.8923 0.0799 9.8213 42.8665 1.2614 3.9161 19.9467 0.0000 0.0000 0.0000 -91.9260 -2.7877 24.4460 11.2085 -18.6071 -1.8419 0.0000 0.0000 -2.7924 0.0000 0.0000 0.0000 87.7289 0.8752 16.8256 -13.1812 21.5521 -2.5194 0.0000 0.0000 -4.1078
-0.2316 17.0241 0.0318 4.1148 5.3786 4.0549 0.0000 0.0000 0.0000 -17.7207 -7.7871 -0.6794 0.7006 5.3503 14.9105 0.4369 13.4282 -23.5567 0.0422 1.3261 3.6465 0.0000 0.0000 0.0000 12.0013 -5.5516 0.3443 -0.1121 -2.1589 5.9449 0.0814 -14.1293 -19.1264 -0.1167 -2.2026 6.0660 -4.6695 0.0275 -6.8076 0.3407 0.4196 1.1458 3.0264 0.0673 4.9834 4.4404 8.7435 -17.7445 -0.1608 10.4693 42.8380 1.2094 4.2139 19.9741 0.0000 0.0000 0.0000 -92.0493 -2.8577 24.4489 11.3139 -18.7678 -1.8757 0.0000 0.0000 -2.6997 0.0000 0.0000 0.0000 87.5972 1.0316 16.7545 -13.3090 21.7383 -2.5666 0.0000 0.0000 -4.1184
-0.1473 16.9921 0.1068 4.9767 5.7803 3.8537 0.0000 0.0000 0.0000 -19.1091 -7.3214 -0.1842 0.7253 5.4419 15.1733 0.5369 12.6433 -23.5886 0.0439 1.3524 3.7189 0.0000 0.0000 0.0000 10.3031 -6.1218 0.8347 -0.1203 -2.2362 6.1588 0.1139 -14.3432 -19.0543 -0.0380 -1.2582 3.4596 -4.8584 -0.1610 -8.0339 -0.0173 0.2851 1.6787 2.7533 -0.0411 6.2569 4.8383 9.2610 -17.2496 -0.4197 11.2801 42.5970 1.1670 4.5803 19.7710 0.0000 0.0000 0.0000 -92.0103 -2.8931 24.7368 11.4205 -18.9299 -1.9101 0.0000 0.0000 -3.6257 0.0000 0.0000 0.0000 87.4503 1.1707 17.3448 -13.3724 21.8305 -2.5901 0.0000 0.0000 -4.5614
-0.1135 17.0061 0.0550 4.7246 5.3802 3.7796 0.0000 0.0000 0.0000 -18.9376 -7.1620 -0.3800 0.7345 5.4752 15.2690 0.5289 12.7933 -23.6777 0.0500 1.4430 3.9686 0.0000 0.0000 0.0000 10.6149 -5.5732 0.6018 -0.1318 -2.3400 6.4461 0.0990 -14.2435 -19.0846 -0.0594 -1.5726 4.3260 -4.7560 0.0570 -7.2978 0.0895 0.5176 1.6193 2.8308 0.0890 5.7536 5.2052 9.5444 -16.6298 -0.6772 11.7079 42.5893 1.0421 4.7788 19.6782 0.0000 0.0000 0.0000 -92.1485 -2.9811 24.2527 11.4676 -19.0014 -1.9254 0.0000 0.0000 -3.2846 0.0000 0.0000 0.0000 87.3961 1.1664 17.0907 -13.3128 21.7438 -2.5680 0.0000 0.0000 -4.3786
-0.1311 17.0622 -0.1074 2.8417 4.3930 4.2210 0.0000 0.0000 0.0000 -16.5321 -7.5478 -2.2809 0.8012 5.7128 15.9534 0.4217 13.5931 -23.6071 0.0520 1.4709 4.0456 0.0000 0.0000 0.0000 12.9382 -4.7618 1.3735 -0.0225 -0.9684 2.6620 0.3253 -15.0508 -17.4592 -0.2088 -2.9421 8.1177 -3.6574 0.5255 -5.9017 0.6459 0.9534 1.4436 2.8197 0.3578 4.7424 5.6089 9.8505 -16.5540 -0.8164 12.1005 42.6410 0.9972 4.9755 19.7725 0.0000 0.0000 0.0000 -91.8652 -3.7618 24.7037 11.3600 -18.8379 -1.8905 0.0000 0.0000 -3.5678 0.0000 0.0000 0.0000 87.4074 1.9637 17.0999 -13.2763 21.6907 -2.5545 0.0000 0.0000 -4.2478
-0.0921 17.0730 -0.1794 2.2628 4.0748 4.2319 0.0000 0.0000 0.0000 -15.9496 -7.4791 -3.1100 0.8677 5.9395 16.6089 0.4440 13.5166 -23.7197 0.0619 1.6056 4.4169 0.0000 0.0000 0.0000 13.1659 -4.7548 2.4640 0.0000 0.0000 0.0000 0.5321 -15.9016 -15.9759 -0.2116 -2.9616 8.1717 -3.4589 0.6581 -4.4792 0.7935 1.0526 1.1119 2.8401 0.4397 3.5849 5.7252 10.1542 -15.7430 -0.5706 12.4121 42.9197 1.1201 5.1451 19.7235 0.0000 0.0000 0.0000 -91.8349 -3.1722 24.5767 11.6479 -19.2744 -1.9845 0.0000 0.0000 -3.4931 0.0000 0.0000 0.0000 87.4763 1.4024 17.3319 -13.5000 22.0154 -2.6378 0.0000 0.0000 -4.5998
0.0536 17.0267 -0.0358 4.4135 4.7166 3.9244 0.0000 0.0000 0.0000 -19.0855 -6.7147 -1.7898 0.8477 5.8724 16.4147 0.5884 12.3957 -23.7816 0.0630 1.6194 4.4548 0.0000 0.0000 0.0000 9.9605 -5.8403 3.5576 0.0000 0.0000 0.0000 0.5944 -16.2657 -15.7312 -0.0439 -1.3523 3.7188 -4.8721 0.3046 -6.4234 -0.0588 0.8308 2.1926 2.7699 0.2287 5.8340 5.6464 10.4997 -15.6572 -0.1290 12.7811 43.0878 1.4257 5.3336 19.7589 0.0000 0.0000 0.0000 -91.6626 -4.0008 24.5817 11.3242 -18.7834 -1.8790 0.0000 0.0000 -3.5757 0.0000 0.0000 0.0000 87.5381 1.6707 17.7542 -13.6092 22.1732 -2.6788 0.0000 0.0000 -4.7386
0.1232 17.0385 -0.0814 4.0709 4.3213 4.2916 0.0000 0.0000 0.0000 -18.9191 -7.1016 -2.4600 0.8890 6.0101 16.8137 0.6311 12.5167 -24.2747 0.1141 2.1775 5.9963 0.0000 0.0000 0.0000 10.1273 -5.2378 2.9817 0.0000 0.0000 0.0000 0.6682 -16.6985 -15.4506 -0.0245 -1.0108 2.7786 -4.7160 0.3327 -6.1342 -0.1002 0.8405 2.1991 2.6360 0.2437 5.6765 6.0655 10.8784 -14.9749 -0.3161 13.3051 42.9742 1.3346 5.5945 19.5920 0.0000 0.0000 0.0000 -91.4490 -3.8939 24.4420 11.6333 -19.2525 -1.9797 0.0000 0.0000 -3.4803 0.0000 0.0000 0.0000 87.5743 1.4873 18.4063 -13.7249 22.3401 -2.7227 0.0000 0.0000 -4.7687
0.1944 17.0494 -0.1238 3.9621 3.7743 4.5321 0.0000 0.0000 0.0000 -19.0493 -7.0621 -2.8950 0.8998 6.0456 16.9167 0.6440 12.6368 -24.5066 0.1298 2.3227 6.3983 0.0000 0.0000 0.0000 10.0007 -4.5655 2.6793 0.0000 0.0000 0.0000 0.6711 -16.7209 -15.4531 -0.0323 -1.1594 3.1875 -4.7845 0.4315 -5.7617 -0.2281 0.9635 2.2688 2.5487 0.3061 5.5284 5.9565 10.9752 -14.8101 0.0078 13.3333 42.8946 1.4941 5.6423 19.4370 0.0000 0.0000 0.0000 -91.1634 -4.2801 24.4285 11.3977 -18.8953 -1.9027 0.0000 0.0000 -3.2988 0.0000 0.0000 0.0000 87.6688 1.9296 18.1336 -13.5354 22.0666 -2.6510 0.0000 0.0000 -4.6304
0.2670 17.0564 -0.1460 3.5727 2.9875 4.6446 0.0000 0.0000 0.0000 -18.8799 -6.9352 -3.2565 0.9359 6.1622 17.2558 0.7215 12.7095 -25.2227 0.1902 2.8090 7.7474 0.0000 0.0000 0.0000 10.1714 -3.6439 2.4916 0.0000 0.0000 0.0000 0.6985 -16.9126 -15.4290 -0.0382 -1.2612 3.4678 -4.6023 0.6281 -5.4087 -0.2816 1.1919 2.1848 2.4065 0.4352 5.2241 6.1576 10.9442 -14.4618 -0.0413 13.2333 42.4449 1.3757 5.6612 19.0800 0.0000 0.0000 0.0000 -90.9668 -4.3062 24.2662 11.2203 -18.6251 -1.8457 0.0000 0.0000 -2.5319 0.0000 0.0000 0.0000 87.5507 1.8317 18.6511 -13.4879 21.9979 -2.6332 0.0000 0.0000 -5.0328
0.3466 17.0631 -0.1590 4.0344 2.3640 4.7798 0.0000 0.0000 0.0000 -19.7313 -6.5580 -3.3442 0.9118 6.0847 17.0302 0.7223 12.8829 -25.4034 0.2050 2.9156 8.0437 0.0000 0.0000 0.0000 9.3206 -2.9858 2.3807 0.0000 0.0000 0.0000 0.7289 -17.0996 -15.3406 -0.0475 -1.4073 3.8701 -5.2602 0.5640 -5.2664 -0.4174 1.1509 2.1997 2.6276 0.3953 5.1552 5.8816 10.6885 -14.7433 -0.0116 12.9061 41.9199 1.3609 5.5183 18.7761 0.0000 0.0000 0.0000 -91.0134 -4.3565 24.0487 11.2251 -18.6324 -1.8472 0.0000 0.0000 -2.2744 0.0000 0.0000 0.0000 87.3879 2.1841 18.8794 -13.4264 21.9088 -2.6103 0.0000 0.0000 -5.1114
0.4106 17.0635 -0.1677 4.2537 1.8162 4.8040 0.0000 0.0000 0.0000 -20.2514 -6.6163 -3.1875 0.8981 6.0400 16.9005 0.7479 13.2376 -25.9647 0.2413 3.1612 8.7279 0.0000 0.0000 0.0000 8.8463 -2.4287 2.4269 0.0000 0.0000 0.0000 0.7358 -17.1494 -15.3408 -0.0525 -1.4790 4.0679 -5.6143 0.4872 -5.3685 -0.4729 1.0862 2.3101 2.7645 0.3442 5.3319 4.6571 10.0685 -15.6659 0.4122 12.1642 41.6637 1.6390 5.0927 18.6481 0.0000 0.0000 0.0000 -91.0050 -4.8856 24.2288 10.9651 -18.2347 -1.7650 0.0000 0.0000 -2.2343 0.0000 0.0000 0.0000 87.2101 2.4862 19.4455 -13.5297 22.0584 -2.6489 0.0000 0.0000 -5.3238
0.4729 17.0530 -0.1499 4.3675 1.0146 4.6925 0.0000 0.0000 0.0000 -20.7376 -6.4719 -2.8879 0.8964 6.0342 16.8838 0.8037 13.5487 -26.7104 0.2772 3.3866 9.3570 0.0000 0.0000 0.0000 8.4429 -1.6397 2.6592 0.0000 0.0000 0.0000 0.7548 -17.2821 -15.3300 -0.0337 -1.1856 3.2598 -5.7248 0.5523 -5.2432 -0.5447 1.1687 2.1200 2.7557 0.3943 5.0529 3.0954 8.6881 -16.2455 1.0998 10.2094 41.7383 1.8339 4.1461 18.5807 0.0000 0.0000 0.0000 -90.8813 -4.7520 24.6335 10.8158 -18.0054 -1.7186 0.0000 0.0000 -1.9622 0.0000 0.0000 0.0000 87.4088 2.4722 19.1783 -13.5405 22.0741 -2.6530 0.0000 0.0000 -5.0589
0.5148 17.0529 -0.1458 4.5163 0.3637 4.5450 0.0000 0.0000 0.0000 -21.0253 -5.6061 -3.0032 0.8934 6.0245 16.8556 0.7908 13.4557 -26.5185 0.2755 3.3762 9.3279 0.0000 0.0000 0.0000 8.1231 -0.9944 2.8616 0.0000 0.0000 0.0000 0.7862 -17.3867 -15.0093 -0.0287 -1.0927 3.0040 -6.0047 0.4860 -4.9962 -0.5807 1.0739 1.8704 2.8606 0.3558 4.6560 1.3010 6.8407 -16.8964 1.5196 7.7274 41.8755 1.8557 2.8989 18.6568 0.0000 0.0000 0.0000 -90.7361 -4.6370 24.8073 10.9397 -18.1957 -1.7570 0.0000 0.0000 -2.3904 0.0000 0.0000 0.0000 87.4299 2.3653 19.9647 -13.7241 22.3389 -2.7224 0.0000 0.0000 -6.0712
0.5622 17.0431 -0.1196 4.3342 -0.2360 4.3570 0.0000 0.0000 0.0000 -21.0937 -5.4049 -2.7133 0.9099 6.0783 17.0119 0.8636 13.5728 -27.1865 0.3102 3.5808 9.9003 0.0000 0.0000 0.0000 8.1458 -0.3872 3.1225 0.0000 0.0000 0.0000 0.8248 -17.6037 -14.8463 -0.0068 -0.5344 1.4685 -5.6754 0.4794 -5.2193 -0.5517 1.0572 1.8452 2.7082 0.3551 4.7615 -0.9999 4.8980 -17.3098 2.1675 5.2212 41.8409 2.0658 1.6073 18.6209 0.0000 0.0000 0.0000 -90.7152 -4.7802 24.9496 11.0935 -18.4315 -1.8054 0.0000 0.0000 -2.2026 0.0000 0.0000 0.0000 87.4968 2.2732 20.3853 -14.0270 22.7733 -2.8385 0.0000 0.0000 -6.6177
0.5958 17.0410 -0.1121 4.6637 -0.6672 4.3102 0.0000 0.0000 0.0000 -21.6100 -4.9966 -2.7635 0.9106 6.0805 17.0183 0.8240 13.7694 -27.0844 0.2767 3.3831 9.3473 0.0000 0.0000 0.0000 7.6181 0.0671 3.1212 0.0000 0.0000 0.0000 0.8843 -17.9407 -14.6032 -0.0002 -0.0958 0.2631 -6.0221 0.1725 -5.4265 -0.4912 0.6883 1.9464 2.9350 0.1509 5.0159 -2.6289 3.3633 -17.9061 2.1325 3.4506 41.7027 1.9935 0.6270 18.7099 0.0000 0.0000 0.0000 -90.8782 -5.2110 25.1405 11.2072 -18.6052 -1.8415 0.0000 0.0000 -2.7122 0.0000 0.0000 0.0000 87.1687 2.6594 21.5653 -14.3277 23.2012 -2.9560 0.0000 0.0000 -7.1784
0.6129 17.0449 -0.0897 3.9721 -1.4559 4.2649 0.0000 0.0000 0.0000 -20.9558 -4.7574 -2.8203 0.9502 6.2078 17.3886 0.8971 13.9003 -27.7555 0.2884 3.4536 9.5442 0.0000 0.0000 0.0000 8.3559 0.9246 3.2500 0.0000 0.0000 0.0000 0.9156 -18.0433 -14.2462 -0.0001 0.0546 -0.1501 -5.3070 0.1471 -5.6045 -0.2690 0.6066 1.9502 2.7599 0.1284 5.1299 -3.3815 2.2156 -18.3535 1.9075 1.9851 41.9737 1.7311 -0.1383 19.0652 0.0000 0.0000 0.0000 -90.7311 -5.3093 25.6281 11.2204 -18.6253 -1.8457 0.0000 0.0000 -2.9864 0.0000 0.0000 0.0000 87.2259 2.8468 22.3825 -14.2053 23.0274 -2.9079 0.0000 0.0000 -8.7281
0.6223 17.0508 -0.0784 4.0139 -2.1408 4.2581 0.0000 0.0000 0.0000 -21.1098 -4.7389 -2.6052 0.9270 6.1335 17.1723 0.8762 14.4466 -28.1458 0.3106 3.5827 9.9056 0.0000 0.0000 0.0000 8.2773 1.6254 3.3334 0.0000 0.0000 0.0000 0.9184 -18.0829 -14.3083 -0.0004 0.1270 -0.3490 -5.2880 0.2171 -5.3214 -0.1882 0.6689 1.6488 2.8349 0.1780 4.6465 -4.8407 1.0854 -18.1326 2.5555 0.4179 41.9614 1.9768 -0.9162 19.0618 0.0000 0.0000 0.0000 -90.7356 -4.9074 26.5804 11.3201 -18.7773 -1.8777 0.0000 0.0000 -3.8198 0.0000 0.0000 0.0000 87.1425 2.5669 21.4499 -14.2891 23.1465 -2.9408 0.0000 0.0000 -7.3440
0.6325 17.0446 -0.0635 4.6680 -2.7056 4.1299 0.0000 0.0000 0.0000 -21.9515 -4.4070 -2.1332 0.8653 5.9313 16.5853 0.8164 14.9093 -28.1844 0.2996 3.5193 9.7281 0.0000 0.0000 0.0000 7.4909 2.1471 3.4986 0.0000 0.0000 0.0000 0.9488 -18.2409 -14.1365 -0.0038 0.4001 -1.0993 -5.7981 -0.0283 -5.7073 -0.3441 0.4173 1.8996 2.9391 0.0197 5.1519 -5.3890 0.4098 -18.0475 2.6375 -0.4761 41.5718 1.9224 -1.3338 18.8582 0.0000 0.0000 0.0000 -90.6560 -5.3378 26.3461 11.2354 -18.6481 -1.8505 0.0000 0.0000 -4.1508 0.0000 0.0000 0.0000 87.1393 2.9805 21.1581 -13.8624 22.5377 -2.7752 0.0000 0.0000 -7.0196
0.6266 17.0452 -0.0408 4.8874 -3.0709 4.0605 0.0000 0.0000 0.0000 -22.2329 -4.4102 -1.7072 0.8200 5.7779 16.1413 0.7676 15.4257 -28.3704 0.3001 3.5222 9.7362 0.0000 0.0000 0.0000 7.2718 2.4910 3.6496 0.0000 0.0000 0.0000 0.9681 -18.3737 -14.1337 -0.0097 0.6363 -1.7486 -5.9040 -0.1160 -5.7774 -0.4021 0.3149 1.8906 2.9280 -0.0348 5.1924 -5.7770 -0.3572 -17.8986 2.4060 -1.4715 41.4038 1.6699 -1.8238 18.7897 0.0000 0.0000 0.0000 -90.5787 -5.1342 26.5906 11.3261 -18.7864 -1.8796 0.0000 0.0000 -4.1891 0.0000 0.0000 0.0000 87.3103 2.9428 20.0427 -13.5627 22.1061 -2.6613 0.0000 0.0000 -6.0827
0.6022 17.0344 -0.0237 4.6929 -3.2881 4.3284 0.0000 0.0000 0.0000 -21.9028 -3.6812 -1.9649 0.7917 5.6796 15.8577 0.8005 14.9168 -28.0775 0.3035 3.5422 9.7922 0.0000 0.0000 0.0000 7.6015 3.1535 2.3022 -0.0147 -0.7831 2.1522 0.8166 -17.6372 -15.1020 -0.0055 0.4809 -1.3214 -5.8126 -0.2498 -5.9145 -0.2790 0.1273 1.6682 2.9868 -0.1170 5.0539 -6.4112 -1.0667 -17.5213 2.4590 -2.3628 40.8468 1.6225 -2.2526 18.4267 0.0000 0.0000 0.0000 -90.6425 -4.7744 26.5451 11.3722 -18.8565 -1.8945 0.0000 0.0000 -4.3265 0.0000 0.0000 0.0000 87.3291 2.2049 19.4015 -13.6231 22.1933 -2.6841 0.0000 0.0000 -5.4918
0.5825 17.0332 -0.0007 4.7709 -3.2974 4.3314 0.0000 0.0000 0.0000 -21.9667 -3.6729 -1.7397 0.7780 5.6315 15.7189 0.8008 14.9947 -28.1601 0.2922 3.4760 9.6069 0.0000 0.0000 0.0000 7.5731 3.3019 1.9362 -0.0287 -1.0927 3.0040 0.7701 -17.4745 -15.5458 -0.0063 0.5138 -1.4119 -5.7091 -0.3246 -6.1669 -0.3082 0.0434 1.8314 2.8900 -0.1672 5.3770 -7.0716 -1.9267 -17.8807 2.5897 -3.3438 40.0299 1.6019 -2.6709 18.1390 0.0000 0.0000 0.0000 -90.6584 -5.2114 26.5364 11.1508 -18.5190 -1.8235 0.0000 0.0000 -3.9733 0.0000 0.0000 0.0000 87.1678 2.0863 19.2088 -13.6243 22.1950 -2.6845 0.0000 0.0000 -5.6358
0.5464 17.0321 0.0136 5.4580 -3.4187 4.2251 0.0000 0.0000 0.0000 -22.6423 -3.8758 -1.3745 0.7571 5.5570 15.5044 0.8087 15.2772 -28.5099 0.2934 3.4833 9.6272 0.0000 0.0000 0.0000 6.9332 3.5014 1.6688 -0.0452 -1.3723 3.7738 0.6815 -17.0822 -16.1381 -0.0019 0.2801 -0.7697 -6.3872 -0.3718 -6.1387 -0.4881 0.0380 1.8021 3.0816 -0.1891 5.3344 -7.5002 -2.6793 -17.6037 2.3456 -4.1300 38.9702 1.4114 -3.0344 17.5331 0.0000 0.0000 0.0000 -90.6597 -5.0140 27.0612 11.1999 -18.5941 -1.8392 0.0000 0.0000 -4.7332 0.0000 0.0000 0.0000 87.4062 2.1536 17.9256 -13.0910 21.4204 -2.4864 0.0000 0.0000 -4.4976
0.5004 17.0449 0.0489 4.2286 -3.1963 4.5031 0.0000 0.0000 0.0000 -21.1051 -4.6274 -1.5488 0.8197 5.7769 16.1384 0.9373 15.0713 -29.2024 0.3492 3.7968 10.5057 0.0000 0.0000 0.0000 8.4500 2.7021 3.5650 0.0000 0.0000 0.0000 0.8881 -17.9735 -14.6228 -0.0007 0.1755 -0.4823 -5.2364 -0.5222 -6.5650 -0.0182 -0.2497 1.6771 2.8959 -0.2987 5.4656 -8.4515 -3.2789 -17.0341 2.7688 -4.7094 37.3053 1.6708 -3.2771 16.5874 0.0000 0.0000 0.0000 -91.1058 -4.8529 25.5427 11.0661 -18.3895 -1.7967 0.0000 0.0000 -3.2918 0.0000 0.0000 0.0000 87.1964 1.8199 17.5809 -12.9739 21.2490 -2.4438 0.0000 0.0000 -4.1203
0.4536 17.0443 0.0722 4.1002 -3.0645 4.4789 0.0000 0.0000 0.0000 -20.8134 -4.5466 -1.3353 0.8056 5.7281 15.9977 0.9230 15.0945 -29.1265 0.2951 3.4933 9.6553 0.0000 0.0000 0.0000 8.7801 2.5470 3.7262 0.0000 0.0000 0.0000 0.8739 -17.8767 -14.6315 -0.0001 0.0476 -0.1308 -5.1176 -0.5730 -6.2196 0.0826 -0.3632 1.2892 2.9238 -0.3298 4.8711 -8.9644 -3.7910 -16.6790 2.7429 -5.2462 36.5231 1.6528 -3.5449 16.1661 0.0000 0.0000 0.0000 -91.2277 -4.0512 25.3890 11.2996 -18.7460 -1.8711 0.0000 0.0000 -3.1364 0.0000 0.0000 0.0000 87.0943 1.3483 17.6744 -12.9408 21.2005 -2.4318 0.0000 0.0000 -4.3222
0.4058 17.0376 0.1009 4.3165 -2.8850 4.5112 0.0000 0.0000 0.0000 -20.9194 -4.8373 -0.9158 0.7631 5.5787 15.5668 0.9221 15.2676 -29.2947 0.3514 3.8087 10.5392 0.0000 0.0000 0.0000 8.7367 2.7183 2.6768 -0.0155 -0.8032 2.2073 0.6992 -17.1135 -15.9084 -0.0002 -0.0963 0.2646 -5.2054 -0.5513 -6.7160 -0.0211 -0.2917 1.3387 2.8712 -0.3050 5.1987 -8.8100 -4.1552 -17.0530 2.5073 -5.6307 36.0739 1.4469 -3.6785 16.0476 0.0000 0.0000 0.0000 -91.1938 -4.1366 25.5710 11.2843 -18.7227 -1.8662 0.0000 0.0000 -2.7920 0.0000 0.0000 0.0000 87.1918 1.5177 17.1598 -12.9204 21.1704 -2.4245 0.0000 0.0000 -4.1565
0.3465 17.0328 0.1190 4.4757 -2.2245 4.3742 0.0000 0.0000 0.0000 -20.7688 -5.5400 -0.2531 0.7124 5.3941 15.0362 0.8020 15.7818 -28.9804 0.2673 3.3259 9.1874 0.0000 0.0000 0.0000 8.9939 2.3251 1.3811 -0.0731 -1.7441 4.7990 0.5250 -16.3872 -17.1204 0.0000 0.0327 -0.0899 -5.4945 -0.7438 -7.2766 -0.0967 -0.4733 1.6961 2.9294 -0.4287 5.9149 -9.7798 -5.3369 -17.6047 3.4983 -7.1209 34.3059 1.7579 -4.1821 15.5718 0.0000 0.0000 0.0000 -91.3222 -4.5688 24.7965 11.2622 -18.6891 -1.8591 0.0000 0.0000 -2.4851 0.0000 0.0000 0.0000 87.3495 2.4305 17.5112 -12.8982 21.1379 -2.4165 0.0000 0.0000 -4.8378
0.2892 17.0259 0.1499 4.6854 -1.5999 4.2129 0.0000 0.0000 0.0000 -20.6681 -5.7793 0.1151 0.6874 5.3004 14.7675 0.7156 15.8387 -28.4250 0.2008 2.8855 7.9603 0.0000 0.0000 0.0000 9.0915 1.6603 0.9633 -0.1075 -2.1146 5.8226 0.4439 -16.0864 -17.7076 -0.0021 0.2981 -0.8191 -5.7588 -0.8340 -7.1704 -0.1299 -0.5813 1.5063 3.0308 -0.4803 5.6678 -10.5551 -6.2774 -17.2832 3.9761 -8.3060 32.9457 1.8730 -4.6602 15.0525 0.0000 0.0000 0.0000 -91.4239 -3.9713 25.2495 11.3141 -18.7681 -1.8757 0.0000 0.0000 -3.9025 0.0000 0.0000 0.0000 87.2411 2.0245 17.8058 -13.3414 21.7854 -2.5786 0.0000 0.0000 -5.1333
0.2158 17.0225 0.1540 4.3318 -1.0515 4.1340 0.0000 0.0000 0.0000 -19.9620 -6.1953 0.3681 0.6634 5.2092 14.5061 0.6499 15.9301 -28.0467 0.1619 2.5927 7.1469 0.0000 0.0000 0.0000 9.8816 1.1189 0.4788 -0.1441 -2.4466 6.7416 0.3382 -15.6703 -18.3807 -0.0013 0.2292 -0.6298 -5.5068 -0.8097 -7.2372 -0.0914 -0.5668 1.5669 2.9298 -0.4690 5.7658 -11.0107 -7.1958 -17.2606 4.4177 -9.5256 31.8344 1.8977 -5.1236 14.7194 0.0000 0.0000 0.0000 -91.5218 -3.9063 24.6939 11.2592 -18.6845 -1.8581 0.0000 0.0000 -2.9477 0.0000 0.0000 0.0000 87.4312 2.0692 17.4660 -13.4157 21.8933 -2.6063 0.0000 0.0000 -5.6192
0.1484 17.0225 0.1719 4.4042 -0.4970 4.0513 0.0000 0.0000 0.0000 -19.8016 -6.5710 0.5145 0.6540 5.1728 14.4020 0.5921 15.9235 -27.6187 0.1365 2.3814 6.5611 0.0000 0.0000 0.0000 10.0149 0.4356 0.2826 -0.1581 -2.5620 7.0615 0.3066 -15.5338 -18.5552 -0.0035 0.3848 -1.0574 -5.6931 -0.9417 -7.3685 -0.0765 -0.7149 1.6666 3.0310 -0.5559 5.9628 -11.8203 -7.9511 -17.2760 5.0761 -10.4867 31.0191 2.1134 -5.5110 14.5503 0.0000 0.0000 0.0000 -91.6940 -3.8508 24.3044 11.3161 -18.7711 -1.8764 0.0000 0.0000 -2.7989 0.0000 0.0000 0.0000 87.3824 2.3171 17.0467 -13.3741 21.8330 -2.5908 0.0000 0.0000 -5.2228
0.0807 17.0145 0.2054 4.3388 -0.2027 3.9598 0.0000 0.0000 0.0000 -19.6076 -7.0104 0.7303 0.6504 5.1590 14.3625 0.6122 15.8458 -27.6777 0.1536 2.5251 6.9592 0.0000 0.0000 0.0000 10.2298 -0.0108 0.1958 -0.1655 -2.6209 7.2251 0.2948 -15.5201 -18.6866 -0.0062 0.5089 -1.3983 -5.6772 -0.9572 -7.4825 -0.1036 -0.7257 1.7431 2.9911 -0.5657 6.1093 -12.3745 -8.6060 -17.1024 5.6315 -11.3974 30.3272 2.2524 -5.8730 14.3761 0.0000 0.0000 0.0000 -91.7368 -3.6968 24.1685 11.3244 -18.7838 -1.8790 0.0000 0.0000 -2.5797 0.0000 0.0000 0.0000 87.4273 2.2969 16.5549 -13.3408 21.7846 -2.5784 0.0000 0.0000 -5.0307
