HIERARCHY
ROOT Hips
{
	OFFSET 0.00000 0.00000 0.00000
	CHANNELS 6 Xposition Yposition Zposition Zrotation Yrotation Xrotation
	JOINT LHipJoint
	{
		OFFSET 0.00000 0.00000 0.00000
		CHANNELS 3 Zrotation Yrotation Xrotation
		JOINT LeftUpLeg
		{
			OFFSET 1.43652 -1.81092 0.91346
			CHANNELS 3 Zrotation Yrotation Xrotation
			JOINT LeftLeg
			{
				OFFSET 2.45984 -6.75837 0.00000
				CHANNELS 3 Zrotation Yrotation Xrotation
				JOINT LeftFoot
				{
					OFFSET 2.63718 -7.24559 0.00000
					CHANNELS 3 Zrotation Yrotation Xrotation
					JOINT LeftToeBase
					{
						OFFSET 0.19690 -0.54098 2.12239
						CHANNELS 3 Zrotation Yrotation Xrotation
						End Site
						{
							OFFSET 0.00000 -0.00000 1.10116
						}
					}
				}
			}
		}
	}
	JOINT RHipJoint
	{
		OFFSET 0.00000 0.00000 0.00000
		CHANNELS 3 Zrotation Yrotation Xrotation
		JOINT RightUpLeg
		{
			OFFSET -1.35116 -1.81092 0.91345
			CHANNELS 3 Zrotation Yrotation Xrotation
			JOINT RightLeg
			{
				OFFSET -2.55576 -7.02189 0.00000
				CHANNELS 3 Zrotation Yrotation Xrotation
				JOINT RightFoot
				{
					OFFSET -2.61938 -7.19669 0.00000
					CHANNELS 3 Zrotation Yrotation Xrotation
					JOINT RightToeBase
					{
						OFFSET -0.32509 -0.89318 2.23646
						CHANNELS 3 Zrotation Yrotation Xrotation
						End Site
						{
							OFFSET -0.00000 -0.00000 1.19625
						}
					}
				}
			}
		}
	}
	JOINT LowerBack
	{
		OFFSET 0.00000 0.00000 0.00000
		CHANNELS 3 Zrotation Yrotation Xrotation
		JOINT Spine
		{
			OFFSET 0.05193 2.08077 -0.11958
			CHANNELS 3 Zrotation Yrotation Xrotation
			JOINT Spine1
			{
				OFFSET 0.04960 2.08447 0.01967
				CHANNELS 3 Zrotation Yrotation Xrotation
				JOINT Neck
				{
					OFFSET 0.00000 0.00000 0.00000
					CHANNELS 3 Zrotation Yrotation Xrotation
					JOINT Neck1
					{
						OFFSET -0.10699 1.82066 0.27584
						CHANNELS 3 Zrotation Yrotation Xrotation
						JOINT Head
						{
							OFFSET 0.14949 1.84747 -0.32279
							CHANNELS 3 Zrotation Yrotation Xrotation
							End Site
							{
								OFFSET 0.04969 1.88916 -0.14562
							}
						}
					}
				}
				JOINT LeftShoulder
				{
					OFFSET 0.00000 0.00000 0.00000
					CHANNELS 3 Zrotation Yrotation Xrotation
					JOINT LeftArm
					{
						OFFSET 3.73629 1.27211 -0.12847
						CHANNELS 3 Zrotation Yrotation Xrotation
						JOINT LeftForeArm
						{
							OFFSET 5.10995 -0.00000 0.00000
							CHANNELS 3 Zrotation Yrotation Xrotation
							JOINT LeftHand
							{
								OFFSET 3.21207 -0.00000 0.00000
								CHANNELS 3 Zrotation Yrotation Xrotation
								End Site
								{
									OFFSET 0.00000 0.60000 0.00000
								}
							}
						}
					}
				}
				JOINT RightShoulder
				{
					OFFSET 0.00000 0.00000 0.00000
					CHANNELS 3 Zrotation Yrotation Xrotation
					JOINT RightArm
					{
						OFFSET -3.70251 1.29541 -0.35354
						CHANNELS 3 Zrotation Yrotation Xrotation
						JOINT RightForeArm
						{
							OFFSET -5.25109 -0.00000 0.00000
							CHANNELS 3 Zrotation Yrotation Xrotation
							JOINT RightHand
							{
								OFFSET -3.28364 -0.00000 0.00000
								CHANNELS 3 Zrotation Yrotation Xrotation
								End Site
								{
									OFFSET 0.00000 0.60000 0.00000
								}
							}
						}
					}
				}
			}
		}
	}
}
MOTION
Frames: 64
Frame Time: 0.0333333
0.0000 15.5856 0.0000 -5.7907 0.0002 16.3123 0.0000 0.0000 0.0000 -19.3213 1.8942 -16.7530 8.5891 16.5359 54.6580 2.5247 -8.8137 -28.6144 1.6608 -8.1206 -23.0809 0.0000 0.0000 0.0000 23.5330 12.9589 -68.4804 -4.4308 -12.7127 38.3021 -0.0281 -7.5302 -11.3325 -0.0062 -0.5087 1.3979 2.0625 1.0578 22.1094 5.4854 2.1204 6.5549 4.2102 0.9737 -5.3105 -12.3360 -9.0059 -13.7790 16.7252 -13.1887 17.2432 6.0792 -5.4561 9.7360 0.0000 0.0000 0.0000 -84.6192 -7.1010 42.1587 47.4088 -51.8954 -24.1197 -0.0000 -0.0000 13.2129 0.0000 0.0000 0.0000 87.0358 25.3867 26.6794 -78.5485 59.4986 -50.0994 0.0000 0.0000 23.2677
-0.0165 15.3820 0.6843 -5.1926 1.2336 17.4399 0.0000 0.0000 0.0000 -19.0519 2.0741 -15.7628 8.7262 16.6283 55.1384 2.2843 -11.1449 -27.2091 2.0334 -8.9353 -25.5932 0.0000 0.0000 0.0000 23.7538 13.0815 -71.0721 -3.5649 -11.5578 34.1849 -0.0322 -7.1010 -10.8429 -0.0002 -0.0794 0.2180 1.9998 0.6839 23.7724 5.5146 1.6655 7.2236 4.4052 0.7427 -5.3972 -11.8421 -8.7078 -13.7281 17.4793 -12.5738 14.0849 6.2891 -5.1765 8.5854 0.0000 0.0000 0.0000 -81.9759 -6.4416 39.5711 50.0813 -53.0282 -26.2391 0.0000 0.0000 11.1646 0.0000 0.0000 0.0000 85.3735 25.5459 24.1464 -101.2235 59.5186 -69.7041 0.0000 0.0000 21.3705
-0.0222 15.1774 1.4494 -4.8064 2.2812 18.9869 0.0000 0.0000 0.0000 -18.5925 1.8353 -14.3844 8.5971 16.5413 54.6859 1.8687 -13.8269 -24.9569 2.2835 -9.4332 -27.1602 0.0000 0.0000 0.0000 23.1280 13.9182 -73.4354 -2.9183 -10.5617 30.8154 -0.0271 -6.5427 -9.9890 -0.0010 0.1994 -0.5477 2.1215 0.2036 25.1120 5.6703 1.1137 7.9033 4.6753 0.4638 -5.2797 -11.3261 -8.3004 -14.1717 17.6673 -11.6963 11.2221 6.3332 -4.7978 7.5758 0.0000 0.0000 0.0000 -79.4701 -5.7317 37.2416 53.3667 -54.2663 -28.8855 0.0000 0.0000 8.3327 0.0000 0.0000 0.0000 82.8475 27.5276 23.2594 -111.2567 58.2219 -78.2990 0.0000 0.0000 15.6259
-0.0080 14.9698 2.3228 -4.4791 2.4625 20.9855 0.0000 0.0000 0.0000 -18.5552 2.1015 -11.8252 7.7404 15.9250 51.6222 1.4319 -16.1325 -22.6921 2.3277 -9.5177 -27.4287 0.0000 0.0000 0.0000 22.0444 15.2938 -75.8772 -2.7110 -10.2118 29.6653 -0.0976 -4.8680 -9.6025 -0.0125 0.7224 -1.9853 2.0977 0.0410 25.6749 5.7822 0.8932 8.5263 4.8811 0.3438 -4.8531 -10.9944 -7.8791 -14.1401 17.9929 -10.8015 8.1267 6.4732 -4.4480 6.4604 0.0000 0.0000 0.0000 -77.1474 -5.8742 36.2831 54.6701 -54.7138 -29.9465 0.0000 0.0000 7.1454 0.0000 0.0000 0.0000 80.4614 30.9091 22.2144 -107.5488 58.8038 -75.1367 0.0000 0.0000 17.3162
0.0455 14.7757 3.3284 -4.0694 2.3823 23.3981 0.0000 0.0000 0.0000 -19.1776 2.8788 -7.8475 6.1393 14.5620 45.5383 0.9959 -16.7933 -19.9685 2.2969 -9.4589 -27.2417 0.0000 0.0000 0.0000 20.3436 16.3700 -79.0947 -3.3605 -11.2569 33.1513 -0.2351 -2.0792 -10.1661 -0.0451 1.3711 -3.7706 2.2112 0.0232 25.7934 6.1057 0.9046 8.7963 5.1725 0.3393 -4.6139 -11.0325 -7.6439 -14.2990 18.0623 -10.1194 5.5496 6.5672 -4.2015 5.5969 0.0000 0.0000 0.0000 -75.5045 -7.2210 37.4566 53.6149 -54.3533 -29.0871 0.0000 0.0000 7.4779 0.0000 0.0000 0.0000 78.2459 35.1023 21.4651 -92.3135 59.9798 -62.0034 0.0000 0.0000 19.8407
0.1527 14.6484 4.4664 -3.6762 2.9556 26.0393 0.0000 0.0000 0.0000 -19.8401 2.7996 -3.1902 4.3771 12.6459 38.0571 0.1702 -16.4170 -13.1885 2.1950 -9.2610 -26.6152 0.0000 0.0000 0.0000 18.6898 16.1622 -83.1687 -5.0913 -13.4859 41.2158 -0.2159 -1.2761 -9.3384 -0.1002 2.0412 -5.6195 3.4371 -0.4760 26.0495 6.6594 0.6227 8.7850 5.1726 0.2043 -4.7157 -11.1593 -7.3891 -14.9289 17.6056 -9.3260 3.0277 6.5145 -3.8997 4.7924 0.0000 0.0000 0.0000 -74.2904 -9.3282 39.9033 52.1506 -53.8269 -27.9010 0.0000 0.0000 7.3345 0.0000 0.0000 0.0000 75.3700 41.4376 20.8836 -62.4980 56.9397 -36.4273 0.0000 0.0000 18.8618
0.3159 14.6407 5.6936 -4.4742 2.4905 29.6717 0.0000 0.0000 0.0000 -20.3613 0.6903 -0.5916 3.0867 10.8341 31.7223 -0.5120 -13.2798 0.2800 1.7581 -8.3430 -23.7607 0.0000 0.0000 0.0000 17.1721 17.0222 -88.1661 -7.3060 -15.5842 50.0222 -0.1599 -2.3920 -8.8302 -0.0561 1.5286 -4.2045 5.5294 -0.5887 26.3214 7.3381 1.0811 8.4026 4.6062 0.4193 -5.2654 -11.3398 -7.0646 -15.6513 16.8933 -8.3844 0.0457 6.4143 -3.5342 3.8370 0.0000 0.0000 0.0000 -73.9726 -11.5628 41.6301 50.2045 -53.0776 -26.3375 0.0000 0.0000 6.2036 0.0000 0.0000 0.0000 70.6664 50.6488 16.6862 -32.8765 43.2349 -13.3374 0.0000 0.0000 14.5695
0.4887 14.6554 7.0193 -5.9005 -0.2295 33.7639 0.0000 0.0000 0.0000 -21.7218 -2.7791 -0.6460 2.4712 9.7854 28.2847 0.5064 -6.9635 17.7639 0.7567 -5.5558 -15.5009 0.0000 0.0000 0.0000 17.4805 18.9579 -91.4943 -9.2509 -16.9665 56.9537 -0.2259 -0.6493 -9.2378 -0.0215 0.9466 -2.6019 6.4147 0.5271 26.7147 7.6498 2.8051 7.7883 3.9295 1.2114 -6.1847 -11.2041 -6.7207 -15.9455 15.7423 -7.5364 -3.0510 6.1301 -3.2310 2.7639 0.0000 0.0000 0.0000 -74.0857 -13.6561 41.1121 46.1250 -51.3079 -23.1135 0.0000 0.0000 4.9136 0.0000 0.0000 0.0000 64.3943 59.4438 4.6885 -16.7030 26.4645 -3.9540 0.0000 0.0000 4.7034
0.6175 14.6870 8.4033 -7.7119 -3.4144 36.8068 0.0000 0.0000 0.0000 -22.4147 -3.7766 -4.4287 3.2197 11.0425 32.4234 1.7546 -3.1570 26.3224 0.0124 -0.7202 -1.9794 0.0000 0.0000 0.0000 19.9196 20.0656 -92.0668 -11.0601 -17.9644 62.9767 -0.5439 3.4765 -13.1787 -0.0328 1.1684 -3.2123 6.1627 2.1477 28.0715 7.9614 4.9872 7.1992 3.7026 2.1940 -7.6257 -11.2703 -6.3147 -16.2503 14.4907 -6.6767 -5.7291 5.8541 -2.8849 1.8292 0.0000 0.0000 0.0000 -74.5174 -13.3811 35.6106 41.4374 -48.8988 -19.5156 0.0000 0.0000 6.2073 0.0000 0.0000 0.0000 63.1267 60.4769 -8.2592 -15.1807 24.3973 -3.3002 0.0000 0.0000 -13.0458
0.7279 14.7015 9.8118 -10.1767 -5.6772 38.5812 0.0000 0.0000 0.0000 -21.4396 -1.9882 -11.7049 5.9119 14.3424 44.6270 1.0863 -1.0837 20.1146 0.0347 1.2018 3.3044 0.0000 0.0000 0.0000 23.2616 20.1053 -90.0019 -12.7134 -18.6762 68.2329 -1.1063 7.0657 -18.7826 -0.0939 1.9764 -5.4405 6.5070 3.0858 29.5354 8.0606 6.4223 6.9230 3.0799 2.8033 -8.6728 -11.3704 -5.5946 -16.1164 13.9920 -5.4588 -8.8426 5.8663 -2.3409 0.7115 0.0000 0.0000 0.0000 -73.4342 -9.5595 25.1534 35.4371 -45.1218 -15.1223 0.0000 0.0000 6.4040 0.0000 0.0000 0.0000 68.4768 52.7914 -1.7526 -28.6345 39.6938 -10.5265 0.0000 0.0000 -35.5004
0.8196 14.6888 11.2325 -13.0347 -6.9661 39.5156 0.0000 0.0000 0.0000 -18.4137 -0.1136 -21.4075 10.6014 17.7344 61.4801 0.2367 -2.4599 10.4344 0.0351 1.2097 3.3259 0.0000 0.0000 0.0000 26.5180 20.2051 -85.8184 -13.9956 -19.1127 72.1910 -1.8165 7.8700 -24.1665 -0.1341 2.3603 -6.5026 7.8073 3.0542 30.5817 7.5605 6.7874 6.8702 1.6133 2.8992 -9.0204 -11.0815 -4.5181 -15.8989 14.0588 -3.7715 -12.8570 6.0350 -1.5745 -0.7151 0.0000 0.0000 0.0000 -70.1427 -2.9023 12.3655 28.6581 -39.7151 -10.5416 0.0000 0.0000 -1.1012 0.0000 0.0000 0.0000 73.4176 43.3880 6.1939 -50.2249 53.0858 -26.3538 0.0000 0.0000 -33.6942
0.8928 14.6289 12.6397 -15.5033 -7.4362 39.7486 0.0000 0.0000 0.0000 -13.7810 1.5979 -33.4907 16.8406 19.7590 80.7268 -0.0275 -2.9862 1.6409 0.0236 0.9917 2.7260 0.0000 0.0000 0.0000 28.7546 20.5874 -80.3306 -14.9883 -19.3868 75.2015 -2.5987 6.1259 -29.2494 -0.1271 2.2977 -6.3292 9.0127 2.5710 31.6018 7.0120 6.6313 6.2459 0.3086 2.7285 -9.2367 -11.1259 -3.2668 -15.1286 14.5478 -1.7060 -17.9324 6.4364 -0.6472 -2.5767 0.0000 0.0000 0.0000 -66.9832 5.9904 0.0571 22.6605 -33.7155 -6.9490 0.0000 0.0000 -13.7736 0.0000 0.0000 0.0000 77.4530 33.1116 8.7033 -87.1060 59.9683 -57.4940 0.0000 0.0000 -43.7564
0.9439 14.5218 14.0450 -16.9117 -6.5720 39.2689 0.0000 0.0000 0.0000 -7.8415 3.2226 -47.2939 22.9390 19.7916 98.6219 0.1785 -1.6164 -7.5782 0.0673 1.6738 4.6049 0.0000 0.0000 0.0000 30.3125 20.2127 -74.1874 -15.8070 -19.5731 77.6560 -3.5614 2.2999 -35.2327 -0.2936 3.4844 -9.6304 9.9624 2.1356 31.0821 6.6439 6.3387 5.8790 -0.4518 2.5749 -9.2706 -11.1391 -2.5409 -14.6137 15.3182 -0.3103 -22.0874 6.8817 -0.0580 -4.0807 0.0000 0.0000 0.0000 -64.9525 15.1495 -9.5621 18.5999 -28.9185 -4.8359 0.0000 0.0000 -21.9170 0.0000 0.0000 0.0000 77.7285 24.4015 8.3593 -113.3703 57.8322 -80.0920 0.0000 0.0000 -55.7943
1.0066 14.3806 15.4827 -17.0946 -5.1149 38.1223 0.0000 0.0000 0.0000 -2.2460 4.6412 -62.2905 27.0592 18.7607 111.0586 0.5489 -2.7303 -13.3269 0.0382 1.2611 3.4674 0.0000 0.0000 0.0000 31.0528 18.6063 -67.4716 -16.5099 -19.7054 79.7473 -4.5118 -2.1966 -41.0798 -0.8400 5.8464 -16.3394 10.8748 2.0216 29.0365 6.1793 6.2482 5.5891 -1.4088 2.5628 -9.2167 -11.2577 -2.5310 -14.3916 15.9521 0.0415 -24.6200 7.2352 0.0619 -4.9413 0.0000 0.0000 0.0000 -63.7227 22.9407 -15.7708 16.6926 -26.4507 -3.9494 0.0000 0.0000 -19.0926 0.0000 0.0000 0.0000 75.6784 17.2235 7.0944 -122.9614 55.4677 -88.1110 0.0000 0.0000 -50.9414
1.1062 14.2642 17.0088 -16.1872 -4.3662 36.0605 0.0000 0.0000 0.0000 1.2780 4.9400 -76.6751 28.5041 18.1693 115.6182 0.7857 -3.7011 -15.9067 0.0006 0.1626 0.4467 0.0000 0.0000 0.0000 30.9990 15.3448 -59.4306 -16.8817 -19.7653 80.8484 -5.0374 -5.5985 -44.5642 -1.5286 7.8060 -22.1265 10.9341 2.6704 27.1365 5.5221 6.9497 4.4655 -2.3337 2.8833 -9.3942 -11.7572 -3.2490 -13.9835 16.3750 -0.7349 -25.7464 7.5111 -0.3035 -5.2323 0.0000 0.0000 0.0000 -62.6066 29.3338 -16.4806 17.6816 -27.7475 -4.4000 0.0000 0.0000 -17.9920 0.0000 0.0000 0.0000 72.4577 9.7672 3.4844 -127.2090 54.0610 -91.5812 0.0000 0.0000 -55.8735
1.2283 14.3369 18.7516 -14.6395 -3.9343 33.0821 0.0000 0.0000 0.0000 3.5098 3.4103 -86.5681 26.9479 18.8009 110.7126 0.8777 -3.1463 -16.9221 0.0428 -1.3352 -3.6717 0.0000 0.0000 0.0000 30.7438 9.2821 -48.5114 -15.8478 -19.5815 77.7780 -5.0028 -7.1153 -45.0167 -2.1332 9.1382 -26.2286 10.0346 3.9317 24.8074 4.9793 8.1491 3.3234 -2.6823 3.4818 -9.4087 -12.0835 -4.4412 -12.9383 16.6023 -2.3567 -26.1148 7.6350 -1.1005 -5.2501 0.0000 0.0000 0.0000 -61.4408 35.7504 -10.0185 24.2219 -35.3980 -7.8347 0.0000 0.0000 -30.2241 0.0000 0.0000 0.0000 69.3491 2.3773 -0.3250 -127.5621 53.9326 -91.8669 0.0000 0.0000 -67.2010
1.3567 14.5520 20.7386 -12.6677 -2.4807 28.8269 0.0000 0.0000 0.0000 4.8335 0.4905 -89.7811 22.7796 19.8137 98.1513 0.8403 -2.8326 -16.5953 0.2276 -3.0707 -8.4757 0.0000 0.0000 0.0000 29.3549 0.7793 -34.5588 -13.1215 -18.8256 69.5026 -4.1374 -5.9761 -40.7881 -2.8402 10.4318 -30.3865 8.8792 5.0122 22.1715 4.7434 9.0881 2.2943 -2.3851 3.9991 -9.2138 -12.3621 -5.8025 -10.9855 17.0088 -4.3826 -25.4146 7.7559 -2.1344 -4.9867 0.0000 0.0000 0.0000 -59.0414 43.0147 1.3030 39.2594 -47.6250 -17.8902 0.0000 0.0000 -45.2156 0.0000 0.0000 0.0000 67.4822 -4.7270 -0.7327 -122.6182 55.5709 -87.8281 0.0000 0.0000 -69.2726
1.5040 14.7726 22.9214 -11.5994 0.6584 23.0721 0.0000 0.0000 0.0000 5.1775 -2.9511 -87.1021 16.8857 19.7659 80.8601 0.6252 -3.1554 -14.1960 0.4741 -4.4157 -12.2493 0.0000 0.0000 0.0000 27.2077 -5.9056 -17.4995 -9.5700 -17.1609 58.0413 -1.9320 -2.4969 -27.2574 -3.3795 11.2854 -33.2486 8.6449 5.5126 19.5673 5.1270 9.5183 1.8026 -1.7090 4.2947 -8.4229 -12.7798 -6.9768 -8.3555 17.7459 -6.2066 -24.3736 8.0253 -3.1037 -4.7264 0.0000 0.0000 0.0000 -55.7295 49.1305 14.5797 61.7744 -56.7645 -35.8214 0.0000 0.0000 -39.5996 0.0000 0.0000 0.0000 66.4471 -11.3127 2.5668 -116.1334 57.2552 -82.4236 0.0000 0.0000 -70.5173
1.6706 15.0042 25.1470 -13.0526 5.6215 16.9811 0.0000 0.0000 0.0000 4.4070 -5.8716 -81.0584 10.2539 17.5502 60.3335 0.1052 -1.7022 -5.7691 0.6887 -5.3055 -14.7819 0.0000 0.0000 0.0000 28.8470 -5.9612 -1.2693 -6.6190 -15.0025 47.4181 0.0452 -3.7694 -1.2217 -2.7626 10.3004 -29.9550 10.3708 5.1004 17.9577 6.2180 9.2831 1.5259 -1.2492 4.1932 -7.7947 -13.5385 -8.0289 -6.7468 19.0952 -7.6649 -23.5159 8.5510 -3.8751 -4.3498 0.0000 0.0000 0.0000 -54.2612 53.8149 25.8332 87.2095 -59.9706 -57.5836 0.0000 0.0000 -22.1421 0.0000 0.0000 0.0000 65.9521 -15.8654 7.8473 -110.0363 58.4274 -77.2603 0.0000 0.0000 -70.2635
1.8474 15.1576 27.2831 -15.7781 10.7732 12.7139 0.0000 0.0000 0.0000 0.6281 -6.8262 -75.6433 5.0740 13.4667 41.1415 0.1752 0.3920 7.7759 1.0902 -6.6357 -18.6404 0.0000 0.0000 0.0000 33.8922 -3.1319 4.5082 -7.1385 -15.4474 49.3962 -0.2343 -1.0966 8.8220 -2.0656 9.0014 -25.7998 12.5338 4.3173 16.4489 7.0701 8.6116 0.8981 -1.2192 3.8294 -7.5486 -14.0590 -9.1281 -6.3667 20.2713 -9.0107 -23.6782 8.9817 -4.5654 -4.1069 0.0000 0.0000 0.0000 -56.3537 56.2207 33.9926 109.8209 -58.4622 -77.0767 0.0000 0.0000 -15.1896 0.0000 0.0000 0.0000 67.1054 -18.7211 14.0954 -106.7818 58.9086 -74.4802 0.0000 0.0000 -66.1047
2.0305 15.2142 29.2351 -16.1466 13.8385 9.8615 0.0000 0.0000 0.0000 -8.5277 -5.2067 -71.5025 2.8934 10.5205 30.6791 1.0257 4.7168 18.1467 0.7956 -5.6933 -15.8970 0.0000 0.0000 0.0000 34.5016 -2.0156 -1.5748 -12.5945 -18.6308 67.8612 -0.0297 -1.3257 3.0658 -1.5367 7.8257 -22.1860 12.3599 3.9548 16.3734 6.7580 8.1124 0.6819 -1.3697 3.5802 -7.7705 -14.5329 -9.9382 -6.4468 21.1581 -9.7796 -25.3976 9.4224 -4.9440 -4.3758 0.0000 0.0000 0.0000 -63.1635 53.9221 39.2124 123.9619 -55.1583 -88.9337 0.0000 0.0000 -22.8708 0.0000 0.0000 0.0000 70.1135 -20.1263 21.2913 -107.6937 58.7834 -75.2606 0.0000 0.0000 -64.7251
2.2493 15.1109 31.0338 -15.4301 14.8404 6.9111 0.0000 0.0000 0.0000 -14.8428 -3.3784 -68.1875 3.5067 11.4733 33.8933 1.3095 2.4504 20.9672 0.1611 2.5862 7.1287 0.0000 0.0000 0.0000 31.0340 -0.8219 -13.0027 -20.0096 -20.0000 90.0281 -0.0129 -2.7718 -4.6546 -0.6145 5.0172 -13.9576 11.5777 3.8211 18.5358 6.0558 8.0807 0.7503 -1.8944 3.5044 -8.8985 -14.6407 -10.2312 -6.8208 21.4429 -9.9011 -26.8460 9.6165 -4.9753 -4.7082 0.0000 0.0000 0.0000 -71.7947 47.1942 43.9598 127.9259 -53.7985 -92.1607 0.0000 0.0000 -31.8463 0.0000 0.0000 0.0000 73.5859 -19.4317 30.4454 -106.6946 58.9202 -74.4055 0.0000 0.0000 -62.1363
2.4336 14.8050 32.7313 -14.1221 17.2148 6.4017 0.0000 0.0000 0.0000 -17.7847 -4.2311 -68.9450 6.4555 14.8557 46.7836 0.1658 -1.3091 8.2876 1.9810 8.8263 25.2534 0.0000 0.0000 0.0000 25.6529 2.1600 -30.4866 -25.4821 -19.2636 106.2201 -0.3103 -6.3854 -14.7751 -0.0369 1.2395 -3.4080 10.5514 3.3359 19.4532 5.2256 7.4152 -0.2301 -2.2000 3.0876 -10.5961 -14.4142 -10.1894 -7.4173 21.5719 -9.5778 -27.9144 9.6971 -4.7919 -5.0067 0.0000 0.0000 0.0000 -79.3772 37.5937 49.8749 122.6432 -55.5634 -87.8488 0.0000 0.0000 -31.2605 0.0000 0.0000 0.0000 77.8649 -16.3235 41.2662 -100.1742 59.6052 -68.7994 0.0000 0.0000 -60.7260
2.4309 14.4264 34.3680 -10.9003 22.1968 7.6005 0.0000 0.0000 0.0000 -18.7277 -6.6822 -72.2195 10.9019 17.8867 62.4625 0.0036 -3.1873 -2.4159 1.5491 7.8560 22.2775 0.0000 0.0000 0.0000 16.7414 8.8679 -50.0157 -26.5586 -18.9358 109.5089 -0.6705 -10.3886 -22.5253 -0.0297 -1.1130 3.0597 7.5312 2.4565 19.3844 4.0523 5.5210 -1.0996 -1.3532 2.2604 -11.8716 -14.6673 -10.3300 -7.4513 22.8172 -9.1487 -30.8743 10.4717 -4.6106 -5.8939 0.0000 0.0000 0.0000 -83.5905 23.6814 57.3993 112.3398 -58.0276 -79.2187 0.0000 0.0000 -30.7853 0.0000 0.0000 0.0000 83.0743 -8.5637 52.9825 -88.6252 59.9929 -58.8094 0.0000 0.0000 -61.9621
2.3398 14.1170 35.9910 -10.1316 27.4690 6.3113 0.0000 0.0000 0.0000 -18.2192 -4.6714 -72.3434 14.7952 19.3377 74.6192 0.3557 -8.8055 -11.4695 1.3582 7.3769 20.8370 0.0000 0.0000 0.0000 5.9541 18.9833 -61.7598 -21.9399 -19.9095 95.6801 -0.7200 -10.3120 -22.8998 -0.0056 0.4815 -1.3230 6.9480 1.7201 20.2354 3.2543 4.4373 -1.5420 -1.6535 1.7106 -12.9155 -14.9066 -11.0570 -6.0353 23.9309 -9.7567 -33.7834 11.2610 -4.9825 -6.8429 0.0000 0.0000 0.0000 -85.0150 6.5624 57.3287 100.7106 -59.5621 -69.2620 0.0000 0.0000 -38.2754 0.0000 0.0000 0.0000 88.0873 2.8131 58.3992 -78.2803 59.4746 -49.8683 0.0000 0.0000 -65.7446
2.2865 14.0011 37.6483 -11.1074 33.9795 0.8241 0.0000 0.0000 0.0000 -15.4413 -2.5310 -64.5824 17.0757 19.7937 81.4215 1.2232 -13.7467 -20.6420 1.1857 6.9103 19.4500 0.0000 0.0000 0.0000 -4.0168 28.8859 -59.0647 -13.7208 -19.0272 71.3501 -0.2925 -7.7440 -15.8479 -0.2431 3.1727 -8.7600 7.3166 0.9228 21.5947 3.1242 3.5743 -1.1677 -1.7916 1.2730 -13.2968 -15.0710 -12.0334 -3.8053 23.9309 -11.3150 -34.7861 11.4295 -5.7669 -7.2219 0.0000 0.0000 0.0000 -83.2351 -9.8906 52.7728 97.0168 -59.8131 -66.0729 0.0000 0.0000 -49.8926 0.0000 0.0000 0.0000 87.9264 15.1208 55.8190 -81.5014 59.7253 -52.6468 0.0000 0.0000 -69.9939
2.2410 13.9479 39.4315 -14.7963 44.0142 -7.8905 0.0000 0.0000 0.0000 -9.3837 -4.3922 -53.5773 18.3955 19.9382 85.3042 2.0156 -19.6152 -27.1462 0.7164 5.4090 15.0789 0.0000 0.0000 0.0000 -6.0830 36.4817 -47.0321 -9.7396 -17.2608 58.6146 0.1437 -10.9125 -13.1469 -0.9025 6.0543 -16.9421 6.6322 -0.4898 20.7608 4.0440 1.5639 -0.7752 0.2681 0.4807 -12.5600 -15.5974 -12.3626 -1.4093 22.6916 -12.6673 -32.2622 10.8596 -6.3558 -6.6071 0.0000 0.0000 0.0000 -76.2820 -29.3133 55.2342 101.3657 -59.5062 -69.8266 0.0000 0.0000 -52.0569 0.0000 0.0000 0.0000 81.0383 31.0289 51.4830 -88.6742 59.9934 -58.8518 0.0000 0.0000 -59.3259
2.2805 14.2136 41.1645 -22.2463 53.0662 -17.8807 0.0000 0.0000 0.0000 -2.0616 -8.0042 -43.5381 17.8313 19.8869 83.6476 2.2592 -24.1491 -29.8616 0.2249 3.0528 8.4257 0.0000 0.0000 0.0000 5.7778 30.5406 -37.2890 -10.7292 -17.8000 61.8989 -0.1144 -12.3538 -18.9844 -1.3019 7.2286 -20.3945 6.6418 -1.6028 18.4918 4.2001 -0.0690 -1.3888 0.9105 -0.2641 -12.0252 -15.9426 -12.7840 0.9583 21.7155 -14.1813 -28.6478 10.2868 -7.1059 -5.6384 0.0000 0.0000 0.0000 -65.0507 -50.9632 50.1836 103.5407 -59.2957 -71.6988 0.0000 0.0000 -43.7725 0.0000 0.0000 0.0000 70.2992 48.5609 37.5260 -94.3135 59.9296 -63.7347 0.0000 0.0000 -49.6908
2.5330 15.0922 42.6577 -23.2070 57.0452 -21.1365 0.0000 0.0000 0.0000 -0.7890 -9.1315 -31.3547 14.4308 19.2395 73.5159 1.7813 -22.9874 -27.0146 0.0388 -1.2708 -3.4941 0.0000 0.0000 0.0000 13.8852 22.1296 -28.7268 -9.7423 -17.2624 58.6237 -0.4593 -10.8186 -20.9337 -1.0976 6.6575 -18.7044 4.8139 -0.9774 16.3139 2.8412 0.0103 -1.6743 0.3769 -0.1692 -11.0569 -16.0863 -13.1056 1.6241 21.4098 -14.8371 -27.7310 10.1219 -7.3898 -5.3644 0.0000 0.0000 0.0000 -38.5732 -67.1982 25.5847 102.3454 -59.4162 -70.6705 0.0000 0.0000 -42.7772 0.0000 0.0000 0.0000 48.4638 63.5140 11.3967 -102.8500 59.3668 -71.1047 0.0000 0.0000 -53.5892
2.9333 16.4056 43.9870 -21.6051 58.3640 -20.2252 0.0000 0.0000 0.0000 -1.2457 -8.4369 -18.8145 9.3543 17.0304 57.3074 0.1577 -20.2044 -15.4837 0.4557 -4.3307 -12.0091 0.0000 0.0000 0.0000 18.7283 16.5988 -18.8002 -6.4477 -14.8486 46.7530 -0.1602 -8.3950 -14.6854 -1.1129 6.7021 -18.8358 2.6028 -0.0125 13.4940 1.8045 0.6365 -2.8328 0.3405 0.2120 -10.6801 -16.0417 -13.3818 0.1276 20.6704 -15.2970 -25.1206 9.4751 -7.5181 -4.3220 0.0000 0.0000 0.0000 4.4354 -68.5668 -16.9613 95.0178 -59.9046 -64.3441 0.0000 0.0000 -50.6637 0.0000 0.0000 0.0000 12.6897 70.3533 -27.5873 -102.4323 59.4078 -70.7453 0.0000 0.0000 -56.9971
3.4546 18.0320 45.2281 -21.3411 60.0778 -18.7997 0.0000 0.0000 0.0000 -2.1511 -10.1117 -7.5383 4.5567 12.8665 38.8707 -0.2206 -8.9691 6.9302 0.3978 -4.0493 -11.2155 0.0000 0.0000 0.0000 21.5807 10.4628 -13.2979 -3.6571 -11.6896 34.6426 0.2231 -10.7669 3.3292 -0.6775 5.2629 -14.6600 1.0079 0.0466 8.8375 0.5836 0.2778 -5.1532 0.0084 0.0972 -10.4956 -15.8137 -13.5415 -0.3530 20.3833 -15.8846 -20.9965 8.9455 -7.8395 -2.9625 0.0000 0.0000 0.0000 31.7175 -62.1943 -40.8228 80.4674 -59.6538 -51.7541 0.0000 0.0000 -57.7249 0.0000 0.0000 0.0000 -15.1028 67.7162 -56.9791 -90.0794 60.0000 -60.0688 0.0000 0.0000 -56.5356
3.9320 19.6013 46.3077 -21.4718 61.6768 -17.2538 0.0000 0.0000 0.0000 -4.6097 -13.9611 -1.9221 3.0845 10.8306 31.7105 0.3744 18.8634 16.3509 0.7085 5.3796 14.9945 0.0000 0.0000 0.0000 22.2002 2.4919 -15.4530 -3.2986 -11.1635 32.8331 -0.7939 -13.2436 17.2053 -0.0001 0.0651 -0.1790 -0.7879 -0.2738 4.8330 0.4204 -0.3217 -7.5347 0.9300 -0.0333 -10.7419 -16.5098 -13.8339 -2.2035 18.8942 -16.6556 -16.3256 8.0861 -8.0639 -1.3001 0.0000 0.0000 0.0000 48.5604 -55.1853 -54.1199 60.1594 -56.3523 -34.4738 0.0000 0.0000 -57.9588 0.0000 0.0000 0.0000 -33.7498 60.4384 -74.4280 -70.5458 58.5205 -43.2359 0.0000 0.0000 -56.3588
4.1064 21.0999 47.1366 -24.6484 62.5992 -20.7765 0.0000 0.0000 0.0000 -4.5184 -5.1364 -1.5183 3.7099 11.7641 34.9024 1.2183 20.9468 23.0469 2.2073 9.2851 26.6914 0.0000 0.0000 0.0000 24.0488 0.3451 -13.9417 -4.0270 -12.1962 36.4296 -2.2051 -10.7714 26.7125 -0.1439 -2.4450 6.7372 -0.2510 -0.5332 6.1503 1.3798 -0.4891 -8.4196 1.7156 -0.0789 -12.5583 -18.0616 -13.7109 -2.3083 18.8635 -16.4776 -16.3084 8.3085 -7.8814 -1.1872 0.0000 0.0000 0.0000 62.1256 -49.4933 -68.2812 41.3566 -48.8534 -19.4547 0.0000 0.0000 -50.8583 0.0000 0.0000 0.0000 -47.2719 51.8431 -88.3729 -54.6102 54.6937 -29.8976 0.0000 0.0000 -53.9708
4.1870 22.4045 47.9801 -29.3673 64.6772 -27.9866 0.0000 0.0000 0.0000 -4.4012 1.7144 1.6231 5.1065 13.5027 41.2807 3.1144 11.8248 31.8810 2.3418 9.5445 27.5139 0.0000 0.0000 0.0000 26.7631 0.8160 -10.3284 -5.2046 -13.6105 41.6991 -2.4365 -5.5560 28.3465 -0.1423 -2.4308 6.6978 0.4391 -1.3407 8.7522 1.7778 -1.4395 -8.1128 2.0018 -0.5632 -13.8056 -18.3364 -13.6786 -2.3254 18.1686 -16.6247 -14.9527 8.0508 -7.9385 -0.8305 0.0000 0.0000 0.0000 73.7408 -50.1399 -85.0571 33.8779 -43.9941 -14.0282 0.0000 0.0000 -37.2017 0.0000 0.0000 0.0000 -52.4087 44.5645 -96.4370 -46.8462 51.6415 -23.6778 0.0000 0.0000 -48.4999
4.3957 23.6523 48.8896 -32.0011 68.5850 -30.6292 0.0000 0.0000 0.0000 -6.5328 4.3272 3.8409 5.9178 14.3482 44.6510 3.3581 11.4644 33.1399 2.7274 10.2401 29.7576 0.0000 0.0000 0.0000 27.8218 -1.2198 -12.2267 -6.8118 -15.1713 48.1589 -2.1372 -3.2730 26.8356 -0.0966 -2.0041 5.5170 -0.9934 -1.9597 6.3079 1.0177 -2.5444 -8.4880 2.0873 -1.0063 -12.6514 -18.3417 -14.0935 -1.9221 18.1591 -17.4213 -13.4549 7.9099 -8.3749 -0.3274 0.0000 0.0000 0.0000 87.4151 -58.3660 -102.9363 37.5596 -46.5557 -16.6451 0.0000 0.0000 -31.7767 0.0000 0.0000 0.0000 -52.2676 38.2073 -97.7268 -43.7786 50.1559 -21.2968 0.0000 0.0000 -39.5060
4.6210 24.8227 49.8724 -43.2408 73.1456 -40.3209 0.0000 0.0000 0.0000 -5.2670 5.5410 5.0429 5.4254 13.8474 42.6296 2.2646 13.8673 27.3402 2.9537 10.6197 31.0076 0.0000 0.0000 0.0000 31.3175 -2.9253 -15.6974 -7.4560 -15.7042 50.5787 -2.6620 -4.6991 29.8213 -0.1864 -2.7805 7.6682 -1.3880 -3.0572 2.6891 -0.1572 -4.0770 -8.9435 1.0791 -1.7864 -10.9540 -18.3437 -14.7947 -1.2607 18.9049 -18.5227 -12.9123 8.0177 -8.9725 0.0055 0.0000 0.0000 0.0000 107.4994 -70.8671 -119.0205 48.9021 -52.5430 -25.3000 0.0000 0.0000 -40.0083 0.0000 0.0000 0.0000 -51.0608 31.8737 -95.0415 -40.7450 48.5051 -18.9954 0.0000 0.0000 -24.7626
4.7750 25.8082 50.9291 -71.3376 78.0060 -69.0355 0.0000 0.0000 0.0000 -2.6654 3.9216 6.9090 4.6004 12.9192 39.0666 1.2803 13.9806 21.1046 2.8624 10.4690 30.5091 0.0000 0.0000 0.0000 34.9721 -2.7891 -16.2416 -6.6220 -15.0051 47.4297 -2.6776 -4.1166 30.0133 -0.2574 -3.2640 9.0146 -2.9791 -4.5110 2.7975 -1.6251 -6.2637 -8.4204 0.6264 -2.7924 -10.3907 -18.7935 -15.4930 -0.1133 19.7260 -19.5974 -13.4872 8.3021 -9.5442 -0.0063 0.0000 0.0000 0.0000 184.4914 -79.7820 -187.6442 55.8080 -55.0853 -30.8775 0.0000 0.0000 -40.7519 0.0000 0.0000 0.0000 -51.1349 25.4667 -90.9649 -36.5346 45.8773 -15.9051 0.0000 0.0000 -9.6848
4.8822 26.6219 51.9834 -120.3523 78.9613 -119.8900 0.0000 0.0000 0.0000 -1.3069 1.2925 7.2564 4.0242 12.1925 36.4164 0.9188 14.3531 18.5561 2.4118 9.6757 27.9328 0.0000 0.0000 0.0000 35.9218 -0.1261 -15.6910 -5.3986 -13.8191 42.5176 -1.8033 -2.7623 24.6717 -0.1463 -2.4648 6.7921 -5.3184 -5.9979 5.9985 -4.0517 -8.8403 -7.2963 -0.1006 -3.9219 -11.0763 -18.1976 -16.1133 1.1478 20.5372 -20.4484 -14.8462 8.5331 -10.0461 -0.3924 0.0000 0.0000 0.0000 243.5048 -63.5271 -239.3788 48.0712 -52.1873 -24.6420 0.0000 0.0000 -28.0379 0.0000 0.0000 0.0000 -53.2462 20.5412 -87.9540 -29.8284 40.7459 -11.2975 0.0000 0.0000 2.3557
4.9788 27.2524 52.9917 -144.8743 74.2683 -146.0847 0.0000 0.0000 0.0000 0.8767 -0.2154 5.8589 3.6722 11.7109 34.7168 0.6472 16.2813 17.1802 1.6607 8.1205 23.0806 0.0000 0.0000 0.0000 36.6975 3.7632 -15.7209 -4.4658 -12.7557 38.4609 -1.3679 -3.5964 21.2234 -0.1059 -2.0980 5.7765 -5.6604 -7.0280 9.3479 -5.7842 -10.6296 -5.8938 -1.1476 -4.7883 -11.7801 -17.8141 -16.8138 1.3650 21.6866 -21.2318 -15.8392 8.7797 -10.4771 -0.4470 0.0000 0.0000 0.0000 259.2530 -44.1870 -254.9266 34.7482 -44.6315 -14.6362 0.0000 0.0000 -12.3785 0.0000 0.0000 0.0000 -57.3148 18.4520 -87.2494 -23.2914 34.4059 -7.3023 0.0000 0.0000 14.2087
5.0991 27.6850 53.9410 -148.3965 72.3312 -150.2335 0.0000 0.0000 0.0000 2.0414 -0.9094 4.5367 3.4230 11.3502 33.4702 -0.1553 18.3871 11.4792 1.1452 6.7954 19.1105 0.0000 0.0000 0.0000 37.2137 7.3101 -16.9152 -3.9112 -12.0412 35.8780 -1.2837 -2.0764 20.8368 -0.3293 -3.6880 10.2005 -4.8577 -6.8162 10.6549 -6.8813 -10.4031 -5.3166 -2.6690 -4.7713 -12.2947 -18.1700 -17.1581 1.6885 23.3487 -21.6180 -16.3807 9.2971 -10.7221 -0.2940 0.0000 0.0000 0.0000 271.2200 -27.5724 -271.7743 26.5844 -37.7800 -9.2434 0.0000 0.0000 -7.4011 0.0000 0.0000 0.0000 -61.7285 19.7876 -87.2756 -15.4888 24.8227 -3.4285 0.0000 0.0000 32.6973
5.2298 27.9133 54.8579 -147.2072 73.1508 -148.9545 0.0000 0.0000 0.0000 1.1386 -3.5666 4.3542 3.3507 11.2422 33.1012 -0.6934 17.6571 4.1973 0.6456 5.1400 14.3083 0.0000 0.0000 0.0000 37.4500 6.7324 -19.2212 -3.5460 -11.5305 34.0906 -0.8616 -0.5445 17.3690 -0.4797 -4.4417 12.3228 -4.6689 -5.8247 10.5466 -7.7301 -9.0784 -5.3029 -4.0011 -4.1923 -12.3644 -18.3348 -17.3020 1.7963 24.9657 -21.5689 -17.5145 9.8636 -10.7424 -0.3727 0.0000 0.0000 0.0000 281.5294 -13.1903 -293.8359 21.9415 -32.9108 -6.5540 0.0000 0.0000 -8.2441 0.0000 0.0000 0.0000 -61.5466 22.6466 -77.2806 -10.7041 17.8333 -1.6842 0.0000 0.0000 44.0174
5.3609 27.9179 55.7595 -142.2946 74.1805 -144.1197 0.0000 0.0000 0.0000 1.1233 -5.4140 3.4720 3.5710 11.5665 34.2152 -0.6028 14.7918 0.7629 0.6279 5.0704 14.1093 0.0000 0.0000 0.0000 38.3869 4.1108 -20.5440 -3.2412 -11.0756 32.5354 -0.3193 1.1752 11.1667 -0.2004 -2.8825 7.9518 -4.1863 -4.3715 9.8771 -8.2584 -7.0112 -5.3048 -5.3434 -3.2845 -11.9796 -19.0670 -17.5018 2.5035 26.5621 -21.6599 -19.0985 10.5751 -10.8396 -0.5772 0.0000 0.0000 0.0000 289.1309 -1.8787 -322.9533 19.4883 -30.0209 -5.2729 0.0000 0.0000 -1.2888 0.0000 0.0000 0.0000 -56.5473 21.6002 -39.0896 -10.1799 17.0204 -1.5272 0.0000 0.0000 23.5453
5.4906 27.6915 56.6426 -135.0162 75.0770 -137.1527 0.0000 0.0000 0.0000 2.0201 -4.8810 1.6679 3.8755 11.9929 35.7068 -0.3804 12.3000 1.6652 0.7515 5.5371 15.4471 0.0000 0.0000 0.0000 38.6541 4.6505 -19.5803 -3.0947 -10.8468 31.7649 -0.1196 2.6373 8.0598 -0.1240 -2.2700 6.2524 -3.0485 -2.0552 8.8217 -8.6296 -3.6592 -5.3234 -7.1068 -1.7982 -11.1938 -21.4448 -18.3023 4.8789 28.2805 -22.9566 -21.6054 11.5669 -11.5359 -0.8174 0.0000 0.0000 0.0000 296.6156 6.0411 -347.1930 21.5261 -32.4373 -6.3298 0.0000 0.0000 -3.2299 0.0000 0.0000 0.0000 -52.5878 19.0311 -1.0704 -12.0876 19.9358 -2.1321 0.0000 0.0000 -3.1026
5.6237 27.2561 57.4962 -131.0414 74.8768 -133.4630 0.0000 0.0000 0.0000 2.6581 -4.7476 -0.6438 4.1137 12.3102 36.8383 -0.1607 11.0873 5.0488 0.8162 5.7648 16.1035 0.0000 0.0000 0.0000 37.7407 6.8530 -17.8993 -3.1047 -10.8626 31.8179 -0.1577 1.9374 8.4753 -0.1709 -2.6633 7.3428 -2.3774 -0.8023 7.7251 -8.6856 -1.7957 -5.3238 -7.8769 -0.9442 -10.3483 -21.7378 -18.6555 5.3468 28.3505 -23.3257 -22.9828 11.7063 -11.6758 -1.1516 0.0000 0.0000 0.0000 305.3195 12.6032 -363.5808 26.1016 -37.3088 -8.9491 0.0000 0.0000 -24.0695 0.0000 0.0000 0.0000 -44.5440 23.0249 -3.2896 -11.9608 19.7459 -2.0890 0.0000 0.0000 3.7524
5.7468 26.6121 58.3275 -132.3574 72.7566 -135.2132 0.0000 0.0000 0.0000 3.3963 -5.7470 -3.4396 4.3160 12.5695 37.7776 -0.0155 9.9810 6.7357 0.8458 5.8658 16.3955 0.0000 0.0000 0.0000 36.6255 8.2331 -16.4456 -3.1827 -10.9851 32.2297 -0.2378 -0.6060 9.0160 -0.1933 -2.8314 7.8098 -1.2958 -0.3724 7.4932 -8.4340 -1.0654 -5.2803 -8.3292 -0.6597 -10.0817 -21.1681 -18.6145 4.5105 27.5844 -22.8699 -23.8671 11.4767 -11.3165 -1.5761 0.0000 0.0000 0.0000 314.8597 16.8805 -373.8693 27.6670 -38.8079 -9.9143 0.0000 0.0000 -34.4311 0.0000 0.0000 0.0000 -35.1812 24.3978 5.6318 -11.8722 19.6127 -2.0592 0.0000 0.0000 4.1406
5.8686 25.7816 59.1467 -135.9205 68.8692 -139.1271 0.0000 0.0000 0.0000 4.5000 -6.6859 -6.8714 4.4708 12.7618 38.4833 0.0245 7.7148 5.9218 0.6031 4.9713 13.8268 0.0000 0.0000 0.0000 35.8589 8.6633 -15.3996 -3.2588 -11.1027 32.6270 -0.2565 -3.7281 9.0093 -0.3017 -3.5315 9.7621 -0.2837 -0.3460 7.9524 -7.5649 -0.9183 -5.4715 -7.9788 -0.6546 -10.5385 -20.9571 -18.1939 3.6912 26.7645 -21.9238 -24.7400 11.3658 -10.6839 -2.0666 0.0000 0.0000 0.0000 323.2049 19.9648 -376.9655 28.6381 -39.6971 -10.5288 0.0000 0.0000 -29.4833 0.0000 0.0000 0.0000 -22.1002 23.7248 5.4356 -11.2487 18.6685 -1.8548 0.0000 0.0000 11.2789
6.0091 24.7908 59.9437 -140.7335 64.0193 -143.8378 0.0000 0.0000 0.0000 4.9082 -6.8167 -10.6168 4.5124 12.8127 38.6713 0.0601 5.1570 5.3033 0.2097 2.9480 8.1340 0.0000 0.0000 0.0000 34.6686 8.2279 -14.9299 -3.3284 -11.2086 32.9866 -0.1719 -6.8861 8.2253 -0.4069 -4.0950 11.3442 0.1435 -0.4967 8.3553 -6.3654 -1.0324 -5.4995 -6.8603 -0.7112 -10.7891 -21.0349 -18.3085 1.9691 25.8960 -21.4730 -25.9384 11.1023 -10.1732 -2.3776 0.0000 0.0000 0.0000 329.6463 22.7155 -374.4429 32.2741 -42.7646 -12.9266 0.0000 0.0000 -27.8869 0.0000 0.0000 0.0000 -12.1302 18.8144 10.5642 -10.8690 18.0871 -1.7350 0.0000 0.0000 7.4583
6.1585 23.6348 60.7100 -145.2909 58.6703 -147.9749 0.0000 0.0000 0.0000 4.3392 -6.3910 -13.9556 4.5053 12.8040 38.6393 0.1532 3.5775 7.0173 0.0449 1.3680 3.7620 0.0000 0.0000 0.0000 33.1185 7.5262 -14.4309 -3.3754 -11.2792 33.2275 -0.0063 -9.3025 6.6333 -0.4614 -4.3573 12.0840 0.5951 -0.7603 8.5884 -5.3476 -1.2804 -5.5420 -5.9429 -0.8348 -10.9775 -21.1806 -18.6266 1.0131 25.2910 -21.3377 -27.7942 11.0153 -9.8353 -2.8910 0.0000 0.0000 0.0000 334.1365 25.1991 -370.7050 37.9008 -46.7758 -16.8933 0.0000 0.0000 -27.2181 0.0000 0.0000 0.0000 -4.2582 10.0500 26.3630 -11.2614 18.6879 -1.8588 0.0000 0.0000 0.8662
6.3089 22.3129 61.4532 -148.7597 53.1612 -151.0497 0.0000 0.0000 0.0000 3.1851 -5.5636 -16.4882 4.6233 12.9467 39.1691 0.3072 1.6897 10.0169 0.0062 0.5075 1.3945 0.0000 0.0000 0.0000 31.7023 7.3482 -13.0887 -3.3256 -11.2044 32.9723 0.1099 -11.3186 6.1938 -0.6194 -5.0368 14.0136 1.3612 -1.1338 8.5729 -4.5382 -1.6318 -5.6027 -5.4214 -1.0356 -11.0661 -21.0152 -18.8361 0.9649 24.8417 -21.2491 -29.6458 11.0373 -9.6104 -3.5510 0.0000 0.0000 0.0000 335.2813 26.8975 -370.7174 45.1940 -50.8631 -22.3891 0.0000 0.0000 -20.7881 0.0000 0.0000 0.0000 7.1945 -0.5892 19.9719 -12.6223 20.7313 -2.3179 0.0000 0.0000 7.2530
6.4529 20.8280 62.2054 -151.5393 47.8661 -153.5809 0.0000 0.0000 0.0000 1.7033 -3.6751 -18.2886 4.9430 13.3194 40.5760 0.5176 0.3334 13.4817 0.0036 0.3876 1.0650 0.0000 0.0000 0.0000 30.5997 7.9850 -11.0977 -3.3382 -11.2233 33.0368 0.1550 -13.7941 7.6778 -0.9392 -6.1728 17.2865 1.8349 -1.6368 8.3812 -3.5685 -2.1798 -5.4786 -4.5206 -1.2939 -10.8390 -21.0535 -18.9022 0.6542 24.5932 -20.9637 -31.0414 11.1093 -9.2946 -4.0230 0.0000 0.0000 0.0000 333.0989 27.7125 -373.8429 55.1402 -54.8694 -30.3306 0.0000 0.0000 -14.1349 0.0000 0.0000 0.0000 19.7479 -11.3906 4.5191 -18.5539 28.8606 -4.8136 0.0000 0.0000 3.0476
6.5576 19.1456 62.9856 -154.0042 42.7821 -156.0086 0.0000 0.0000 0.0000 0.1550 -2.1727 -19.3496 5.6556 14.0860 43.5832 0.6355 -0.7886 15.3660 0.0191 -0.8913 -2.4499 0.0000 0.0000 0.0000 29.7271 8.1895 -9.4888 -3.6783 -11.7196 34.7470 -0.0149 -14.8200 10.5738 -1.1137 -6.7045 18.8429 2.2510 -2.5576 8.1874 -2.1949 -3.2716 -5.1479 -3.0683 -1.7920 -10.3878 -21.5608 -18.5375 0.3273 24.1256 -20.2430 -32.0669 11.2179 -8.7380 -4.4652 0.0000 0.0000 0.0000 326.8595 27.6560 -379.6713 69.8040 -58.4013 -42.6037 0.0000 0.0000 -12.3663 0.0000 0.0000 0.0000 33.9190 -18.3699 -11.5076 -32.1803 42.6904 -12.8629 0.0000 0.0000 -14.9298
6.6043 17.3097 63.8433 -155.7334 37.6346 -158.1358 0.0000 0.0000 0.0000 -0.4600 -0.1853 -20.9727 7.1961 15.4948 49.6120 0.0907 -5.5015 -6.1621 1.5626 -7.8885 -22.3760 0.0000 0.0000 0.0000 29.5085 7.3033 -8.7573 -4.7531 -13.1002 39.7449 0.1138 -7.6830 2.3491 -0.1719 2.6706 -7.3630 3.0447 -3.7852 7.8960 -0.6717 -4.7319 -4.3196 -1.6620 -2.4870 -9.3403 -20.8339 -17.6969 0.3176 23.2609 -19.0076 -32.9022 11.1454 -8.0667 -5.2007 0.0000 0.0000 0.0000 317.0225 24.2972 -387.0565 90.5002 -59.9991 -60.4332 0.0000 0.0000 -13.3969 0.0000 0.0000 0.0000 46.9760 -20.2201 -21.2352 -54.4115 54.6268 -29.7355 0.0000 0.0000 -22.1671
6.6351 15.7861 64.7459 -159.3292 32.9328 -160.9498 0.0000 0.0000 0.0000 -1.3680 -1.3272 -26.0559 9.7253 17.2524 58.5661 3.1195 -0.8479 -33.2694 0.3562 -3.8345 -10.6115 0.0000 0.0000 0.0000 28.2203 4.8585 -10.9427 -6.8226 -15.1807 48.2003 -1.4823 3.0637 -22.2267 -2.4511 9.7485 -28.1661 0.3755 -5.2624 9.1195 0.7850 -6.9183 -3.7148 1.7773 -3.3401 -8.9994 -18.5050 -16.2077 0.5359 22.5857 -16.4744 -35.1271 11.2135 -6.8559 -6.8123 0.0000 0.0000 0.0000 304.5694 16.6799 -391.1162 113.0682 -57.8906 -79.8361 0.0000 0.0000 -12.1654 0.0000 0.0000 0.0000 56.0835 -17.0965 -22.4830 -81.6884 59.7373 -52.8083 0.0000 0.0000 -10.8119
6.6100 14.7524 65.5586 -159.7536 29.1317 -162.7929 0.0000 0.0000 0.0000 2.3894 -5.2657 -34.8788 14.3206 19.2084 73.1812 3.2354 4.4928 -35.7747 3.0254 -10.7360 -31.3946 0.0000 0.0000 0.0000 30.6540 1.3099 -15.8922 -9.2062 -16.9386 56.8006 -4.1105 -0.0529 -38.5625 -2.0162 8.8997 -25.4820 -0.1512 -5.7776 11.3163 1.5604 -7.6102 -2.9766 3.1928 -3.6121 -9.2792 -16.7282 -15.6554 0.4166 23.9256 -14.6766 -36.8653 11.7877 -6.1455 -7.7221 0.0000 0.0000 0.0000 293.3627 5.1266 -383.5591 122.5932 -55.5784 -87.8075 0.0000 0.0000 -7.4772 0.0000 0.0000 0.0000 64.7126 -12.3340 -18.0857 -103.5422 59.2956 -71.7001 0.0000 0.0000 -9.1608
6.5269 14.2147 66.1135 -157.1871 32.0474 -165.0555 0.0000 0.0000 0.0000 6.3300 -2.9568 -37.1365 17.4639 19.8451 82.5665 3.1411 4.6181 -35.3355 6.5650 -14.9543 -47.2091 0.0000 0.0000 0.0000 33.8926 1.4562 -15.3703 -10.7492 -17.8101 61.9643 -5.2934 -5.4444 -45.5658 -1.3737 7.4173 -20.9577 1.3542 -4.0256 12.8826 1.4220 -5.0110 -1.3243 1.7621 -2.4401 -8.6330 -16.3325 -15.7170 -0.2732 25.6740 -13.6728 -37.9973 12.5140 -5.6882 -7.9931 0.0000 0.0000 0.0000 282.5998 -2.1585 -367.6070 123.8039 -55.2080 -88.8040 0.0000 0.0000 -11.1348 0.0000 0.0000 0.0000 71.0067 -7.0619 -8.3788 -115.2054 57.4578 -81.6422 0.0000 0.0000 -13.2970
6.4400 14.1224 66.4777 -157.0761 36.5097 -166.3776 0.0000 0.0000 0.0000 6.4780 -1.6235 -37.4540 18.6121 19.9538 85.9389 2.2612 6.0087 -31.0425 7.7561 -15.9369 -51.6792 0.0000 0.0000 0.0000 33.5452 4.4578 -14.9571 -11.5862 -18.2102 64.6711 -5.3179 -6.1267 -45.9195 -1.0760 6.5937 -18.5171 1.8818 -2.5785 11.6684 0.6697 -3.1032 -0.9796 0.2107 -1.5664 -7.6573 -16.1214 -15.4570 -1.5560 25.3263 -12.9116 -38.0043 12.3003 -5.1845 -8.0126 0.0000 0.0000 0.0000 275.5136 -3.2826 -350.6270 125.0402 -54.8100 -89.8168 0.0000 0.0000 -23.3172 0.0000 0.0000 0.0000 71.4004 -0.0174 5.2802 -120.9265 56.0580 -86.4287 0.0000 0.0000 -12.2443
6.3481 14.3210 66.8033 -158.7760 36.6656 -168.8141 0.0000 0.0000 0.0000 5.6486 -4.0488 -37.7967 18.6587 19.9568 86.0756 1.0021 6.9428 -22.6363 8.3946 -16.4020 -53.9720 0.0000 0.0000 0.0000 32.7816 3.6771 -14.6547 -11.2649 -18.0623 63.6390 -5.0118 -6.1305 -44.6612 -0.7221 5.4299 -15.1389 2.3614 -2.4941 11.4373 0.1466 -2.9746 -1.2913 -0.6349 -1.5428 -7.9130 -16.2744 -15.2664 -2.4903 24.8599 -12.5760 -37.4258 12.0216 -4.9225 -7.7701 0.0000 0.0000 0.0000 272.6394 -4.3208 -333.8804 125.2986 -54.7242 -90.0279 0.0000 0.0000 -19.3679 0.0000 0.0000 0.0000 68.9387 9.5189 15.1796 -127.0506 54.1179 -91.4529 0.0000 0.0000 -8.6477
6.2661 14.7116 67.1158 -160.4723 36.3105 -170.4206 0.0000 0.0000 0.0000 5.0208 -3.8257 -38.4092 17.7211 19.8750 83.3237 0.7053 2.0401 -16.7306 8.7117 -16.6186 -55.0877 0.0000 0.0000 0.0000 32.3246 4.0014 -13.3410 -9.9952 -17.4071 59.4722 -4.4120 -6.1103 -42.0779 -0.3951 4.0361 -11.1782 2.8244 -2.1967 10.5973 -0.1993 -2.5684 -1.7293 -1.3555 -1.3829 -7.9275 -16.6122 -15.0919 -3.1118 24.3773 -12.4773 -36.4280 11.7312 -4.8069 -7.3708 0.0000 0.0000 0.0000 273.4792 -8.8411 -319.8013 126.3522 -54.3648 -90.8861 0.0000 0.0000 -8.6961 0.0000 0.0000 0.0000 66.9927 19.4482 19.6802 -134.8510 50.8413 -97.6457 0.0000 0.0000 -1.9650
6.1915 15.1893 67.4191 -162.6732 35.6702 -172.0210 0.0000 0.0000 0.0000 4.1107 -1.3236 -38.3653 15.9553 19.6032 78.0986 0.5634 -6.2400 -13.4251 8.5350 -16.4990 -54.4677 0.0000 0.0000 0.0000 31.5074 4.3198 -11.5510 -8.3803 -16.3920 53.9212 -3.6588 -6.6294 -38.8356 -0.1462 2.4640 -6.7898 2.6380 -1.8716 9.8505 -0.4877 -2.1999 -2.3056 -1.6327 -1.2119 -8.1035 -17.2789 -14.7186 -3.5492 23.3185 -12.5120 -34.6788 11.2304 -4.7490 -6.7805 0.0000 0.0000 0.0000 274.9463 -16.5844 -311.8161 130.6591 -52.7262 -94.3513 0.0000 0.0000 -5.8674 0.0000 0.0000 0.0000 65.2567 29.6716 21.5988 -141.6555 47.0579 -102.7827 0.0000 0.0000 3.5524
6.0988 15.6195 67.7044 -164.9640 33.8171 -173.8568 0.0000 0.0000 0.0000 3.4000 0.8813 -37.1211 13.9600 19.1019 72.0822 0.3343 -14.5057 -13.6583 7.2448 -15.5346 -49.7943 0.0000 0.0000 0.0000 30.5069 3.7046 -9.8128 -6.8823 -15.2319 48.4276 -2.9611 -7.6080 -35.8191 -0.0274 1.0686 -2.9376 2.7264 -1.9276 9.4424 -0.8411 -2.2949 -2.8370 -2.0442 -1.2811 -8.4665 -18.0090 -14.1942 -3.7567 21.8141 -12.6483 -32.2173 10.5640 -4.7827 -6.0479 0.0000 0.0000 0.0000 275.8423 -26.0029 -308.8703 134.8547 -50.8395 -97.6487 0.0000 0.0000 -6.4554 0.0000 0.0000 0.0000 63.3402 40.0809 22.0568 -145.5255 44.4333 -105.5557 0.0000 0.0000 11.0202
5.9709 15.9706 67.9681 -167.2066 31.6126 -175.5712 0.0000 0.0000 0.0000 2.9921 2.0150 -35.3334 13.0412 18.7970 69.2533 0.8089 -11.3604 -16.7909 6.4251 -14.8280 -46.6649 0.0000 0.0000 0.0000 29.4030 3.5210 -8.2528 -5.7027 -14.1340 43.7767 -2.3250 -9.4532 -33.4041 -0.0014 -0.2428 0.6670 3.1199 -2.1862 8.9565 -1.2568 -2.6275 -3.2932 -2.6591 -1.4830 -8.7421 -18.6216 -13.3675 -3.6927 20.1227 -12.4523 -29.5410 9.8974 -4.7046 -5.4120 0.0000 0.0000 0.0000 275.8765 -36.0946 -309.4661 136.6061 -49.9570 -98.9981 0.0000 0.0000 -11.4276 0.0000 0.0000 0.0000 60.9510 49.7860 22.2588 -147.3314 43.0738 -106.8048 0.0000 0.0000 15.8648
5.8182 16.2607 68.2346 -169.2051 29.5835 -176.8637 0.0000 0.0000 0.0000 3.4144 1.9219 -33.2951 13.5674 18.9776 70.8790 0.5369 -0.2782 -13.7514 7.1731 -15.4759 -49.5259 0.0000 0.0000 0.0000 28.4790 4.4462 -6.8458 -4.7981 -13.1528 39.9432 -1.6747 -12.2621 -31.5209 -0.0348 -1.2044 3.3114 3.1172 -2.2003 8.3791 -1.3841 -2.6604 -3.6842 -2.8002 -1.5059 -8.8396 -19.1413 -12.2937 -3.2684 18.2535 -11.8882 -27.2306 9.2730 -4.4472 -5.0541 0.0000 0.0000 0.0000 272.8402 -45.5778 -309.4656 134.9424 -50.7967 -97.7166 0.0000 0.0000 -20.0027 0.0000 0.0000 0.0000 57.4824 57.0676 22.3323 -148.5891 42.0724 -107.6557 0.0000 0.0000 16.2003
5.6746 16.4807 68.5003 -171.0324 27.7602 -177.7485 0.0000 0.0000 0.0000 4.3215 1.6790 -30.8553 14.4342 19.2405 73.5264 0.1572 0.3927 -7.6420 8.2549 -16.3036 -53.4756 0.0000 0.0000 0.0000 27.4254 5.5920 -6.0213 -4.1672 -12.3796 37.0885 -1.1286 -14.7011 -30.1351 -0.0888 -1.9218 5.2896 2.4270 -1.9810 8.2049 -1.4563 -2.4306 -4.5132 -2.5236 -1.3630 -9.5961 -19.2464 -10.8134 -3.1726 15.8405 -10.9111 -23.5548 8.3472 -4.0871 -4.3686 0.0000 0.0000 0.0000 267.3277 -50.2929 -305.8146 132.1904 -52.0729 -95.5646 0.0000 0.0000 -30.6985 0.0000 0.0000 0.0000 58.7367 58.4971 27.1223 -149.4320 41.3753 -108.2167 0.0000 0.0000 18.3181
5.5359 16.6343 68.7110 -172.8432 26.2188 -178.3163 0.0000 0.0000 0.0000 4.6854 2.0130 -27.1652 14.4171 19.2357 73.4744 0.0381 -4.3346 -4.3278 8.3675 -16.3830 -53.8757 0.0000 0.0000 0.0000 25.6731 5.7228 -6.1723 -3.7807 -11.8627 35.2480 -0.8784 -15.4142 -29.1416 -0.1411 -2.4206 6.6696 1.5457 -1.7351 7.5188 -1.6481 -2.1797 -5.5358 -2.2877 -1.1828 -10.2712 -19.2654 -8.8595 -6.3063 13.0149 -8.8547 -16.1862 7.0683 -3.3012 -2.2582 0.0000 0.0000 0.0000 263.4438 -48.5754 -299.5398 133.1045 -51.6640 -96.2836 0.0000 0.0000 -42.9818 0.0000 0.0000 0.0000 65.7520 53.1079 37.4423 -150.1490 40.7653 -108.6878 0.0000 0.0000 21.8330
