HIERARCHY
ROOT Hips
{
	OFFSET 0.00000 0.00000 0.00000
	CHANNELS 6 Xposition Yposition Zposition Zrotation Yrotation Xrotation
	JOINT LHipJoint
	{
		OFFSET 0.00000 0.00000 0.00000
		CHANNELS 3 Zrotation Yrotation Xrotation
		JOINT LeftUpLeg
		{
			OFFSET 1.43652 -1.81092 0.91346
			CHANNELS 3 Zrotation Yrotation Xrotation
			JOINT LeftLeg
			{
				OFFSET 2.45984 -6.75837 0.00000
				CHANNELS 3 Zrotation Yrotation Xrotation
				JOINT LeftFoot
				{
					OFFSET 2.63718 -7.24559 0.00000
					CHANNELS 3 Zrotation Yrotation Xrotation
					JOINT LeftToeBase
					{
						OFFSET 0.19690 -0.54098 2.12239
						CHANNELS 3 Zrotation Yrotation Xrotation
						End Site
						{
							OFFSET 0.00000 -0.00000 1.10116
						}
					}
				}
			}
		}
	}
	JOINT RHipJoint
	{
		OFFSET 0.00000 0.00000 0.00000
		CHANNELS 3 Zrotation Yrotation Xrotation
		JOINT RightUpLeg
		{
			OFFSET -1.35116 -1.81092 0.91345
			CHANNELS 3 Zrotation Yrotation Xrotation
			JOINT RightLeg
			{
				OFFSET -2.55576 -7.02189 0.00000
				CHANNELS 3 Zrotation Yrotation Xrotation
				JOINT RightFoot
				{
					OFFSET -2.61938 -7.19669 0.00000
					CHANNELS 3 Zrotation Yrotation Xrotation
					JOINT RightToeBase
					{
						OFFSET -0.32509 -0.89318 2.23646
						CHANNELS 3 Zrotation Yrotation Xrotation
						End Site
						{
							OFFSET -0.00000 -0.00000 1.19625
						}
					}
				}
			}
		}
	}
	JOINT LowerBack
	{
		OFFSET 0.00000 0.00000 0.00000
		CHANNELS 3 Zrotation Yrotation Xrotation
		JOINT Spine
		{
			OFFSET 0.05193 2.08077 -0.11958
			CHANNELS 3 Zrotation Yrotation Xrotation
			JOINT Spine1
			{
				OFFSET 0.04960 2.08447 0.01967
				CHANNELS 3 Zrotation Yrotation Xrotation
				JOINT Neck
				{
					OFFSET 0.00000 0.00000 0.00000
					CHANNELS 3 Zrotation Yrotation Xrotation
					JOINT Neck1
					{
						OFFSET -0.10699 1.82066 0.27584
						CHANNELS 3 Zrotation Yrotation Xrotation
						JOINT Head
						{
							OFFSET 0.14949 1.84747 -0.32279
							CHANNELS 3 Zrotation Yrotation Xrotation
							End Site
							{
								OFFSET 0.04969 1.88916 -0.14562
							}
						}
					}
				}
				JOINT LeftShoulder
				{
					OFFSET 0.00000 0.00000 0.00000
					CHANNELS 3 Zrotation Yrotation Xrotation
					JOINT LeftArm
					{
						OFFSET 3.73629 1.27211 -0.12847
						CHANNELS 3 Zrotation Yrotation Xrotation
						JOINT LeftForeArm
						{
							OFFSET 5.10995 -0.00000 0.00000
							CHANNELS 3 Zrotation Yrotation Xrotation
							JOINT LeftHand
							{
								OFFSET 3.21207 -0.00000 0.00000
								CHANNELS 3 Zrotation Yrotation Xrotation
								End Site
								{
									OFFSET 0.00000 0.60000 0.00000
								}
							}
						}
					}
				}
				JOINT RightShoulder
				{
					OFFSET 0.00000 0.00000 0.00000
					CHANNELS 3 Zrotation Yrotation Xrotation
					JOINT RightArm
					{
						OFFSET -3.70251 1.29541 -0.35354
						CHANNELS 3 Zrotation Yrotation Xrotation
						JOINT RightForeArm
						{
							OFFSET -5.25109 -0.00000 0.00000
							CHANNELS 3 Zrotation Yrotation Xrotation
							JOINT RightHand
							{
								OFFSET -3.28364 -0.00000 0.00000
								CHANNELS 3 Zrotation Yrotation Xrotation
								End Site
								{
									OFFSET 0.00000 0.60000 0.00000
								}
							}
						}
					}
				}
			}
		}
	}
}
MOTION
Frames: 51
Frame Time: 0.0333333
0.0000 16.8780 0.0000 -0.2332 0.0002 18.0914 0.0000 0.0000 0.0000 -14.9224 -2.9820 -55.8876 3.0133 10.7165 31.3297 -0.0248 3.5259 -3.5727 0.1796 -2.7298 -7.5273 0.0000 0.0000 0.0000 19.4390 4.7643 -39.5551 -7.6341 -15.8434 51.2338 -2.3972 -6.8620 -32.3071 -0.0453 1.3741 -3.7787 13.1143 0.0855 30.7286 9.8334 4.7348 8.7843 1.9487 2.0782 -5.9933 -9.5574 -8.4657 -16.5472 7.5613 -9.9265 1.1110 3.0006 -4.6587 3.7906 -0.0000 -0.0000 0.0000 -83.0855 -5.2169 28.8765 33.5716 -43.7648 -13.8159 -0.0000 0.0000 -9.1757 -0.0000 -0.0000 0.0000 70.6401 32.4051 -11.2460 -29.1902 40.1891 -10.8832 0.0000 -0.0000 -25.9706
-0.0191 16.7380 0.3024 -1.2478 1.3660 17.5176 0.0000 0.0000 0.0000 -13.7887 -2.6379 -57.1174 2.9267 10.5754 30.8610 -0.0554 4.2721 -2.5435 0.1767 -2.7079 -7.4666 0.0000 0.0000 0.0000 21.2541 2.7926 -38.8906 -8.0150 -16.1303 52.6166 -2.6987 -7.1469 -34.1675 -0.0629 1.6182 -4.4515 13.1061 0.0626 30.8752 9.7047 4.7245 8.8576 1.8196 2.0834 -5.9604 -10.1327 -7.7849 -15.7905 9.0241 -8.8370 -3.9654 3.7630 -4.0946 2.1489 0.0000 0.0000 0.0000 -81.4490 -1.3590 24.2786 33.5710 -43.7644 -13.8155 0.0000 0.0000 -11.8742 0.0000 0.0000 0.0000 73.8804 24.8408 -8.7787 -41.9503 49.1839 -19.9029 0.0000 0.0000 -33.2833
-0.0438 16.6122 0.6561 -2.6547 3.2668 17.1789 0.0000 0.0000 0.0000 -12.2295 -2.5446 -58.8588 3.1817 10.9835 32.2244 -0.0710 4.7241 -1.9564 0.1466 -2.4675 -6.7995 0.0000 0.0000 0.0000 23.5383 1.1659 -37.7648 -8.1692 -16.2423 53.1700 -2.9520 -7.9498 -35.9522 -0.0912 1.9483 -5.3627 13.2658 -0.0029 30.5777 9.6673 4.6961 8.6159 1.7076 2.0698 -6.0865 -10.5167 -7.0835 -14.6417 10.0611 -7.7024 -9.2660 4.3760 -3.5383 0.3633 0.0000 0.0000 0.0000 -80.0708 3.4695 21.3572 35.9854 -45.5031 -15.5121 0.0000 0.0000 -13.6971 0.0000 0.0000 0.0000 77.1506 17.4067 -8.3103 -58.5348 55.9067 -33.1248 0.0000 0.0000 -41.1468
-0.0634 16.5271 1.0749 -4.0966 5.7484 17.0321 0.0000 0.0000 0.0000 -11.1666 -2.3869 -60.9131 3.7640 11.8396 35.1668 -0.0598 4.3597 -2.0866 0.0883 -1.9165 -5.2750 0.0000 0.0000 0.0000 25.9861 -0.5090 -36.1119 -8.0101 -16.1267 52.5991 -3.1602 -8.9489 -37.5543 -0.1222 2.2534 -6.2066 13.4484 -0.0859 29.4232 9.4657 4.5130 8.4094 1.5020 2.0184 -6.3657 -10.4383 -6.6382 -13.8110 10.9976 -6.9356 -13.4117 4.8257 -3.1818 -1.0130 0.0000 0.0000 0.0000 -79.0524 8.9099 20.3172 42.1800 -49.3097 -20.0769 0.0000 0.0000 -13.6995 0.0000 0.0000 0.0000 80.0820 10.5315 -8.1242 -74.0067 59.0111 -46.1954 0.0000 0.0000 -44.5578
-0.0628 16.5030 1.5655 -5.1370 8.6076 16.8947 0.0000 0.0000 0.0000 -10.3304 -2.8172 -61.8493 4.4752 12.7672 38.5031 -0.0250 3.1740 -2.7351 0.0359 -1.2227 -3.3617 0.0000 0.0000 0.0000 28.1019 -2.4574 -33.7826 -7.5118 -15.7482 50.7846 -3.2711 -10.1000 -38.7380 -0.1665 2.6289 -7.2473 13.5380 -0.1388 28.0191 9.1628 4.3342 7.6413 1.1798 1.9317 -6.5521 -10.4418 -6.6518 -13.4167 12.0181 -6.7517 -15.9710 5.2368 -3.1147 -1.7910 0.0000 0.0000 0.0000 -78.8281 13.5868 21.3796 52.5010 -53.9557 -28.1841 0.0000 0.0000 -13.9583 0.0000 0.0000 0.0000 81.9758 4.5463 -7.0612 -85.0184 59.9060 -55.6872 0.0000 0.0000 -48.6862
-0.0288 16.5373 2.1187 -5.6406 11.5694 16.7372 0.0000 0.0000 0.0000 -9.4841 -3.9936 -60.9907 5.0834 13.4771 41.1817 0.0203 2.4470 -4.6334 0.0042 -0.4207 -1.1560 0.0000 0.0000 0.0000 29.5240 -4.1128 -31.0082 -6.9644 -15.3019 48.7397 -3.1794 -11.4726 -39.0974 -0.2452 3.1863 -8.7979 13.2283 0.0321 26.0984 8.8182 4.2370 6.7917 1.0109 1.8930 -6.5812 -10.5186 -6.9773 -12.9808 12.8168 -7.0277 -17.5732 5.5480 -3.2741 -2.2523 0.0000 0.0000 0.0000 -79.1335 16.4505 25.4642 66.2509 -57.7577 -39.5875 0.0000 0.0000 -15.0013 0.0000 0.0000 0.0000 83.2097 -0.3308 -5.2236 -91.0593 59.9958 -60.9174 0.0000 0.0000 -51.5632
0.0443 16.6463 2.6899 -5.6285 14.4146 16.4699 0.0000 0.0000 0.0000 -9.2615 -5.2711 -58.8870 5.3089 13.7234 42.1407 0.0324 3.6206 -6.4492 0.0010 0.2002 0.5502 0.0000 0.0000 0.0000 29.7065 -4.2059 -29.0810 -7.2088 -15.5052 49.6597 -2.4132 -13.1448 -36.3607 -0.5014 4.5395 -12.5997 12.8921 0.2250 24.4327 8.2265 4.1951 5.8939 0.5668 1.8671 -6.7398 -10.7246 -7.5958 -12.5629 13.6916 -7.7044 -18.5673 5.8677 -3.6282 -2.4701 0.0000 0.0000 0.0000 -79.4897 16.9010 32.7055 80.1038 -59.6267 -51.4404 0.0000 0.0000 -15.9147 0.0000 0.0000 0.0000 84.2582 -4.0005 -2.2022 -95.0160 59.9047 -64.3426 0.0000 0.0000 -52.4243
0.1600 16.8027 3.2573 -5.3774 16.7958 16.0747 0.0000 0.0000 0.0000 -9.6182 -6.2569 -55.8664 5.1692 13.5719 41.5488 0.0747 2.6219 -6.8152 0.0071 0.5425 1.4908 0.0000 0.0000 0.0000 28.4500 -2.3805 -30.0373 -9.0963 -16.8693 56.4226 -0.9763 -14.0706 -28.4904 -0.7503 5.5325 -15.4338 12.4945 0.4326 23.2352 7.6335 4.2118 5.2027 0.1399 1.8676 -6.8834 -11.2305 -8.2965 -12.2755 14.5967 -8.4425 -19.5722 6.2430 -3.9935 -2.6421 0.0000 0.0000 0.0000 -81.0060 13.7329 41.8518 88.6012 -59.9926 -58.7886 0.0000 0.0000 -16.9055 0.0000 0.0000 0.0000 84.6752 -5.8845 2.9311 -96.3181 59.8486 -65.4689 0.0000 0.0000 -49.9757
0.2803 16.9163 3.8175 -4.1319 18.8928 15.4883 0.0000 0.0000 0.0000 -11.0844 -7.1625 -52.1027 4.9771 13.3580 40.7238 0.1210 0.0617 -6.5930 0.0259 1.0396 2.8578 0.0000 0.0000 0.0000 25.1054 0.4663 -34.0261 -12.3408 -18.5310 67.0651 0.3043 -14.0085 -15.8859 -0.1009 2.0482 -5.6389 10.8502 0.6513 22.6660 7.1183 4.0670 4.5843 0.5166 1.7998 -7.3763 -11.8258 -8.7429 -11.6874 15.2391 -8.8716 -20.7495 6.5914 -4.1996 -2.9558 0.0000 0.0000 0.0000 -84.1524 7.7763 51.9138 89.6834 -59.9996 -59.7258 0.0000 0.0000 -20.3530 0.0000 0.0000 0.0000 84.3874 -6.2073 10.6376 -96.1841 59.8550 -65.3530 0.0000 0.0000 -48.1394
0.3602 16.9068 4.3640 -2.4093 21.4688 14.6192 0.0000 0.0000 0.0000 -12.7172 -8.0275 -48.9251 5.1588 13.5604 41.5041 0.1533 -1.9033 -6.9773 0.0114 0.6887 1.8927 0.0000 0.0000 0.0000 21.0699 3.7745 -38.8468 -15.4860 -19.5043 76.6963 -0.0138 -9.2552 -13.4293 -0.0007 0.1733 -0.4763 8.8401 0.5389 22.7597 6.5290 3.5110 3.8579 1.1315 1.5358 -8.3616 -12.3304 -9.0097 -11.2836 15.8540 -9.0757 -21.5059 6.9078 -4.2879 -3.1450 0.0000 0.0000 0.0000 -88.1102 0.5846 61.4859 85.3244 -59.9172 -55.9519 0.0000 0.0000 -27.0786 0.0000 0.0000 0.0000 84.4502 -4.7296 20.1356 -94.4817 59.9240 -63.8803 0.0000 0.0000 -45.5080
0.4087 16.7758 4.9079 -1.2492 24.4494 13.6732 0.0000 0.0000 0.0000 -13.4983 -8.5535 -47.3644 5.9181 14.3486 44.6523 0.2498 -4.2848 -8.9342 0.0034 0.3767 1.0352 0.0000 0.0000 0.0000 17.2798 7.8148 -44.0901 -17.2330 -19.8154 81.8858 -0.3389 -8.7818 -17.4984 -0.0028 0.3395 -0.9329 7.7509 0.0233 22.4509 5.8625 2.5500 3.2523 1.2900 1.0840 -8.9243 -12.9264 -9.1728 -11.2342 16.7792 -9.0643 -22.0340 7.3292 -4.2609 -3.2073 0.0000 0.0000 0.0000 -92.2487 -7.0817 69.3213 77.4829 -59.3996 -49.1818 0.0000 0.0000 -34.2816 0.0000 0.0000 0.0000 84.8976 -0.3737 31.2202 -89.4456 59.9988 -59.5199 0.0000 0.0000 -42.2542
0.4625 16.5643 5.4684 0.1103 27.0108 12.8878 0.0000 0.0000 0.0000 -14.2989 -8.8551 -46.3651 7.0154 15.3449 48.9327 0.4446 -6.2156 -11.9921 0.0112 -0.6842 -1.8803 0.0000 0.0000 0.0000 11.8535 12.3041 -48.8177 -16.7708 -19.7481 80.5204 -0.4879 -11.6348 -22.0694 -0.0095 -0.6294 1.7296 6.9109 -0.6371 21.7279 4.7428 1.3425 2.7015 0.8833 0.5088 -9.1693 -13.3202 -9.2313 -11.4166 17.7177 -8.9450 -21.9847 7.6924 -4.1850 -3.0807 0.0000 0.0000 0.0000 -95.2356 -12.7282 67.2171 69.8192 -58.4038 -42.6166 0.0000 0.0000 -38.1806 0.0000 0.0000 0.0000 86.1048 7.0278 39.3022 -81.6069 59.7321 -52.7379 0.0000 0.0000 -41.4637
0.5287 16.3123 6.0706 1.2270 29.2122 11.3170 0.0000 0.0000 0.0000 -14.8763 -8.5223 -44.5590 8.2635 16.3097 53.5063 0.7717 -7.6270 -15.7636 0.0751 -1.7682 -4.8655 0.0000 0.0000 0.0000 5.0833 17.5147 -50.4115 -14.0344 -19.1244 72.3096 -0.5142 -12.5172 -23.2509 -0.0129 -0.7321 2.0118 6.3563 -1.0725 20.7301 3.7834 0.4559 2.5846 0.3847 0.0967 -8.7783 -13.7913 -9.3575 -11.5108 17.6219 -9.0649 -21.8489 7.7198 -4.1797 -2.9942 0.0000 0.0000 0.0000 -94.2686 -18.7260 61.2956 69.0131 -58.2685 -41.9305 0.0000 0.0000 -44.1759 0.0000 0.0000 0.0000 86.7110 15.1697 41.7219 -80.5570 59.6604 -51.8314 0.0000 0.0000 -43.1775
0.5813 16.0160 6.7390 1.4529 31.2427 8.5661 0.0000 0.0000 0.0000 -14.4157 -7.1409 -42.0117 9.6747 17.2228 58.3954 1.2442 -9.1153 -20.0178 0.2027 -2.8989 -7.9975 0.0000 0.0000 0.0000 -1.7734 24.3350 -48.5226 -10.7584 -17.8148 61.9945 -0.4091 -9.3015 -18.8435 -0.0453 1.3734 -3.7768 5.5250 -1.0483 19.6972 3.5536 0.1943 2.5083 0.6611 0.0032 -8.3124 -14.4802 -9.4251 -10.8630 16.8195 -9.3206 -21.2576 7.5531 -4.2306 -2.9142 0.0000 0.0000 0.0000 -91.4188 -29.6440 62.3216 69.2777 -58.3136 -42.1556 0.0000 0.0000 -48.1861 0.0000 0.0000 0.0000 84.0191 24.5859 44.0176 -84.2803 59.8760 -55.0486 0.0000 0.0000 -39.7644
0.6175 15.6304 7.4731 0.7915 33.9627 4.3173 0.0000 0.0000 0.0000 -12.6579 -6.0516 -38.3439 11.3147 18.0857 63.7993 1.8658 -10.3203 -24.5435 0.4730 -4.4110 -12.2359 0.0000 0.0000 0.0000 -6.0524 30.6687 -44.2357 -9.2955 -16.9941 57.1064 -0.3211 -4.9951 -13.7168 -0.4124 4.1224 -11.4214 4.8070 -1.0722 19.0016 3.5465 -0.0279 2.2197 1.1120 -0.0820 -8.2554 -15.1241 -9.4621 -8.9900 16.5436 -9.7822 -19.4077 7.5227 -4.4784 -2.5664 0.0000 0.0000 0.0000 -88.9145 -43.3450 61.9815 68.0600 -58.1006 -41.1205 0.0000 0.0000 -44.9306 0.0000 0.0000 0.0000 80.4233 36.9721 42.7563 -87.8743 59.9829 -58.1592 0.0000 0.0000 -35.9244
0.5995 15.2142 8.2951 -1.2050 39.3735 -0.8136 0.0000 0.0000 0.0000 -9.2211 -7.3520 -34.1382 12.8374 18.7227 68.6196 2.5753 -11.5953 -28.9283 0.8201 -5.7785 -16.1430 0.0000 0.0000 0.0000 -4.0569 31.8410 -39.0897 -10.6320 -17.7502 61.5805 -0.7577 -0.2344 -16.5378 -1.5192 7.7833 -22.0578 4.9164 -1.7743 18.1892 3.4684 -0.9476 1.2353 1.2096 -0.5452 -8.9064 -15.4589 -9.5337 -5.3701 16.2591 -10.6483 -16.9341 7.4756 -5.0315 -2.2738 0.0000 0.0000 0.0000 -86.8662 -58.3969 61.5983 65.7420 -57.6554 -39.1573 0.0000 0.0000 -48.5303 0.0000 0.0000 0.0000 74.6377 50.4502 37.0785 -91.8951 59.9864 -61.6411 0.0000 0.0000 -37.8542
0.5746 14.9704 9.1546 -4.0650 44.5564 -4.4204 0.0000 0.0000 0.0000 -5.0224 -9.3331 -30.9946 13.3468 18.9038 70.1993 3.2463 -12.9716 -32.6061 1.1281 -6.7462 -18.9658 0.0000 0.0000 0.0000 2.5072 27.8735 -36.2621 -12.5376 -18.6088 67.6829 -1.3046 -2.8081 -22.7505 -1.6697 8.1413 -23.1442 4.8006 -2.2497 15.6407 3.6479 -1.7368 0.2202 1.6038 -0.9282 -8.5978 -16.0072 -9.7605 -3.7351 15.5579 -11.4349 -14.7018 7.2724 -5.4436 -1.7932 0.0000 0.0000 0.0000 -84.4589 -74.5480 58.8125 60.3774 -56.4097 -34.6553 0.0000 0.0000 -57.1625 0.0000 0.0000 0.0000 59.6420 63.8308 22.2969 -93.4854 59.9540 -63.0180 0.0000 0.0000 -36.9270
0.5882 15.1374 9.9947 -4.6275 47.0520 -5.5692 0.0000 0.0000 0.0000 -3.2140 -9.2528 -25.8324 11.8789 18.3390 65.6045 3.3434 -14.2118 -33.1703 1.4904 -7.7124 -21.8438 0.0000 0.0000 0.0000 7.8273 24.9436 -31.9209 -12.5548 -18.6155 67.7370 -1.5576 -6.5963 -26.7585 -1.3122 7.2559 -20.4758 3.5973 -1.9768 14.0134 3.1134 -1.7137 -0.9090 1.6749 -0.8982 -8.8811 -16.5044 -9.9525 -4.0617 14.9835 -11.8354 -12.4318 7.0296 -5.6108 -1.0423 0.0000 0.0000 0.0000 -31.3348 -88.0687 5.7528 50.7199 -53.2817 -26.7501 0.0000 0.0000 -56.6650 0.0000 0.0000 0.0000 27.8548 72.0788 -9.0962 -91.4876 59.9916 -61.2882 0.0000 0.0000 -34.1773
0.6430 15.7603 10.7866 -4.1480 49.8747 -6.3372 0.0000 0.0000 0.0000 -3.4259 -9.2563 -17.4289 8.6229 16.5588 54.7766 2.3884 -15.7761 -28.3261 1.7407 -8.3036 -23.6402 0.0000 0.0000 0.0000 11.9013 20.7520 -24.6378 -10.6092 -17.7385 61.5059 -1.3907 -7.6572 -26.2273 -1.0893 6.6330 -18.6324 2.0458 -1.8655 13.2056 2.5307 -1.9000 -1.8495 1.9637 -0.9372 -9.4072 -17.0828 -10.2846 -4.3411 14.4469 -12.4042 -10.2433 6.8092 -5.8767 -0.2906 0.0000 0.0000 0.0000 79.2611 -80.0393 -103.6332 40.7011 -48.4798 -18.9625 0.0000 0.0000 -47.3518 0.0000 0.0000 0.0000 -8.6580 71.9003 -45.0947 -86.6549 59.9577 -57.1034 0.0000 0.0000 -31.3992
0.7262 16.8038 11.5115 -4.5163 54.1795 -7.2261 0.0000 0.0000 0.0000 -3.8351 -10.6819 -8.0044 4.7534 13.1006 39.7461 0.2455 -17.7027 -14.6348 1.8127 -8.4645 -24.1341 0.0000 0.0000 0.0000 15.0034 12.9816 -17.6344 -7.4657 -15.7118 50.6145 -0.6516 -7.1812 -19.5202 -0.9048 6.0619 -16.9640 1.0758 -2.3929 11.4555 2.1003 -2.8394 -2.8128 2.1919 -1.3565 -9.4021 -17.6274 -10.8065 -3.5644 14.4716 -13.3624 -8.4189 6.7909 -6.3944 0.2977 0.0000 0.0000 0.0000 84.5207 -72.6560 -107.4121 33.5706 -43.7641 -13.8152 0.0000 0.0000 -44.9788 0.0000 0.0000 0.0000 -27.1587 68.6188 -63.3701 -83.1349 59.8212 -54.0582 0.0000 0.0000 -27.2168
0.8116 18.1615 12.1706 -4.7905 58.6483 -7.0572 0.0000 0.0000 0.0000 -4.6448 -12.3776 -1.0592 1.9547 8.7711 25.0820 -0.2835 -11.2684 10.7866 1.0820 -6.6115 -18.5695 0.0000 0.0000 0.0000 16.2245 8.1327 -11.3908 -4.2271 -12.4567 37.3673 0.2436 -8.7126 -3.2098 -0.8156 5.7630 -16.0982 -0.4958 -3.0056 8.3008 1.9091 -3.9241 -3.6476 2.8979 -1.8213 -8.3480 -18.4018 -11.4512 -2.4598 14.7615 -14.5102 -7.1242 6.9025 -7.0132 0.7549 0.0000 0.0000 0.0000 88.6190 -67.0458 -111.1001 29.0788 -40.0906 -10.8114 0.0000 0.0000 -50.6602 0.0000 0.0000 0.0000 -35.5436 65.7022 -72.1080 -82.1238 59.7643 -53.1844 0.0000 0.0000 -22.1073
0.8765 19.5423 12.7444 -4.8185 61.9840 -5.7165 0.0000 0.0000 0.0000 -5.9248 -11.2964 -1.3787 1.1617 6.8424 19.2494 2.0706 5.3651 26.0561 0.0130 0.7363 2.0234 0.0000 0.0000 0.0000 16.6993 10.3698 -6.8047 -2.1511 -9.1739 26.3408 -0.2615 -18.1808 15.0533 -0.0158 0.8122 -2.2323 -1.7050 -3.4663 4.7651 1.6850 -4.6500 -4.5113 3.2119 -2.1418 -7.1102 -19.5461 -12.1965 -2.6271 14.9200 -15.6346 -4.9363 6.9074 -7.5818 1.6968 0.0000 0.0000 0.0000 91.0598 -62.2235 -113.3692 26.5024 -37.7005 -9.1932 0.0000 0.0000 -56.5700 0.0000 0.0000 0.0000 -41.5373 62.8442 -78.5014 -80.8409 59.6806 -52.0765 0.0000 0.0000 -16.9229
0.8041 20.7057 13.1965 -6.9815 64.4788 -6.3721 0.0000 0.0000 0.0000 -6.5122 -7.6982 -6.2241 1.5698 7.9057 22.4280 2.0022 10.0229 25.4136 0.4739 4.4152 12.2477 0.0000 0.0000 0.0000 18.2149 12.3125 -7.0015 -1.8828 -8.6177 24.6064 -1.4125 -16.1461 22.5704 -0.0507 -1.4535 3.9976 -1.2522 -3.7494 3.8087 1.6028 -4.9704 -5.5595 2.8872 -2.2973 -7.7049 -20.5358 -12.6701 -2.6037 15.1161 -16.3489 -3.8067 6.9840 -7.9423 2.2370 0.0000 0.0000 0.0000 93.3993 -56.7630 -115.7738 22.8040 -33.8738 -7.0288 0.0000 0.0000 -55.6197 0.0000 0.0000 0.0000 -48.5236 59.0013 -85.4818 -74.4804 59.0701 -46.6016 0.0000 0.0000 -10.7739
0.6047 21.6811 13.5701 -9.2308 66.5518 -9.1974 0.0000 0.0000 0.0000 -7.8937 -6.4249 -7.3696 2.0174 8.9023 25.4902 2.1501 6.2732 26.4728 0.7081 5.3781 14.9903 0.0000 0.0000 0.0000 20.2991 9.5054 -8.8425 -2.3989 -9.6518 27.8563 -1.7842 -14.6916 24.5874 -0.1851 -2.7712 7.6423 -0.8664 -3.6901 6.6380 1.5048 -4.8852 -5.9486 2.8132 -2.2251 -9.8442 -21.3488 -12.9294 -1.6760 16.0068 -16.8182 -4.7245 7.4015 -8.1860 2.0581 0.0000 0.0000 0.0000 96.1535 -51.4737 -119.3508 18.5022 -28.7954 -4.7887 0.0000 0.0000 -47.5681 0.0000 0.0000 0.0000 -55.8892 53.6987 -91.9238 -63.5730 57.1892 -37.3295 0.0000 0.0000 -3.9246
0.4526 22.4748 13.9947 -12.2474 68.3949 -13.2250 0.0000 0.0000 0.0000 -8.8732 -5.2134 -6.8016 2.3164 9.4961 27.3599 1.7526 4.2350 24.0364 0.8331 5.8228 16.2712 0.0000 0.0000 0.0000 22.7110 7.1690 -9.0209 -2.6772 -10.1532 29.4744 -1.1716 -17.5274 21.4301 -0.4028 -4.0745 11.2862 -0.5715 -3.4839 8.2736 1.4738 -4.5851 -5.7906 2.6922 -2.0809 -10.6877 -22.2000 -13.2170 -1.1311 16.8365 -17.3129 -4.9470 7.7520 -8.4417 2.1550 0.0000 0.0000 0.0000 97.5830 -48.7810 -120.1247 16.2788 -25.8973 -3.7669 0.0000 0.0000 -41.6175 0.0000 0.0000 0.0000 -61.7177 48.3664 -95.4239 -49.4567 52.7740 -25.7409 0.0000 0.0000 2.8749
0.3672 23.0795 14.4695 -16.2164 70.6270 -17.2329 0.0000 0.0000 0.0000 -9.0995 -3.8168 -7.0639 2.4626 9.7696 28.2337 1.0602 3.6362 18.5869 0.9949 6.3479 17.7972 0.0000 0.0000 0.0000 24.7981 6.8764 -8.7601 -2.5947 -10.0080 29.0028 -0.5288 -17.9002 17.0252 -0.4693 -4.3937 12.1869 -0.2541 -3.4825 7.4741 1.5312 -4.5302 -5.8623 2.5104 -2.0822 -10.3110 -23.0284 -13.6684 -0.8173 17.1343 -18.0076 -4.8269 7.8771 -8.7885 2.3713 0.0000 0.0000 0.0000 96.8749 -49.2005 -117.8255 16.0452 -25.5818 -3.6654 0.0000 0.0000 -41.1570 0.0000 0.0000 0.0000 -67.4751 43.9080 -98.5805 -33.4247 43.6539 -13.7144 0.0000 0.0000 11.8666
0.2946 23.5058 14.9390 -21.2817 73.3177 -22.0262 0.0000 0.0000 0.0000 -9.1133 -3.5779 -7.4076 2.5309 9.8939 28.6339 0.5039 2.5605 12.7739 0.8229 5.7878 16.1699 0.0000 0.0000 0.0000 26.1310 7.3037 -8.6340 -2.4773 -9.7966 28.3205 -0.2418 -15.8516 13.5189 -0.3389 -3.7410 10.3490 0.7732 -3.5999 6.2319 0.8691 -4.6214 -6.2535 1.1788 -2.2285 -10.1422 -23.0024 -13.9239 -0.5091 17.4850 -18.5070 -4.1334 7.9063 -9.0645 2.6613 0.0000 0.0000 0.0000 95.9616 -51.2943 -115.6138 16.6364 -26.3760 -3.9244 0.0000 0.0000 -43.6011 0.0000 0.0000 0.0000 -72.8588 39.9134 -103.1747 -19.7424 30.3307 -5.4007 0.0000 0.0000 22.1626
0.1974 23.7692 15.3954 -28.6229 76.0207 -29.5912 0.0000 0.0000 0.0000 -8.7735 -3.5058 -7.3524 2.6127 10.0399 29.1061 0.2960 1.5689 9.8488 0.5736 4.8502 13.4819 0.0000 0.0000 0.0000 27.0204 6.9933 -8.1655 -2.4277 -9.7052 28.0273 -0.0910 -14.1657 10.9815 -0.2932 -3.4819 9.6234 1.9390 -3.5600 5.7591 -0.0691 -4.5168 -6.6367 -0.4931 -2.3004 -10.4699 -22.7805 -14.1016 0.9708 17.9261 -19.0533 -4.6211 8.0625 -9.4006 2.4219 0.0000 0.0000 0.0000 94.6830 -54.0151 -112.5841 17.4555 -27.4544 -4.2952 0.0000 0.0000 -44.4954 0.0000 0.0000 0.0000 -76.5944 37.4967 -110.3701 -11.8202 19.5344 -2.0418 0.0000 0.0000 35.5257
0.0708 23.8725 15.8617 -37.0268 78.6854 -38.7028 0.0000 0.0000 0.0000 -8.6171 -3.2505 -6.6447 2.6470 10.1005 29.3027 0.2838 0.8053 9.8112 0.4514 4.3105 11.9519 0.0000 0.0000 0.0000 27.1551 6.9178 -7.1710 -2.4969 -9.8322 28.4352 0.0109 -13.7625 9.5276 -0.3228 -3.6519 10.0993 1.7314 -3.5124 5.7379 -1.0386 -4.5553 -6.6968 -1.4055 -2.3455 -10.5967 -22.0223 -14.3928 2.4613 18.3564 -19.6873 -5.4484 8.1542 -9.7867 2.0486 0.0000 0.0000 0.0000 92.2617 -56.4382 -107.2984 18.3253 -28.5717 -4.7038 0.0000 0.0000 -41.4943 0.0000 0.0000 0.0000 -78.3853 36.6177 -120.1168 -9.0403 15.2246 -1.2107 0.0000 0.0000 47.5989
-0.0730 23.8143 16.3167 -50.6858 80.5782 -52.7851 0.0000 0.0000 0.0000 -7.9410 -3.4572 -5.9356 2.7013 10.1950 29.6106 0.3155 0.2443 10.5256 0.3646 3.8789 10.7363 0.0000 0.0000 0.0000 27.3780 6.8987 -6.4695 -2.6089 -10.0333 29.0846 0.0572 -14.1951 9.2786 -0.4130 -4.1255 11.4300 1.2652 -3.5941 5.6656 -1.4278 -4.7446 -6.5524 -1.5430 -2.4171 -10.3955 -21.5870 -14.6328 3.4237 19.1612 -20.0913 -6.5489 8.4073 -10.0369 1.7145 0.0000 0.0000 0.0000 86.9714 -57.3018 -99.3887 18.8650 -29.2506 -4.9647 0.0000 0.0000 -36.1364 0.0000 0.0000 0.0000 -78.5989 36.1752 -120.2991 -8.8119 14.8602 -1.1514 0.0000 0.0000 38.1525
-0.2144 23.5679 16.7454 -68.2463 80.9431 -70.5439 0.0000 0.0000 0.0000 -6.6006 -3.4791 -5.5682 2.8756 10.4909 30.5816 0.3503 0.0660 11.1581 0.3082 3.5691 9.8676 0.0000 0.0000 0.0000 27.9060 6.2546 -6.0765 -2.6709 -10.1423 29.4388 0.0372 -14.4580 9.7168 -0.4491 -4.2995 11.9209 1.3883 -3.6346 5.4837 -1.2246 -4.7678 -6.3888 -1.4080 -2.4280 -10.0962 -21.6540 -14.9637 4.5224 19.7330 -20.5803 -8.3005 8.6917 -10.3159 1.2089 0.0000 0.0000 0.0000 78.7435 -56.4041 -88.6727 19.7574 -30.3490 -5.4083 0.0000 0.0000 -34.4606 0.0000 0.0000 0.0000 -76.9024 35.9465 -113.8251 -9.4656 15.8994 -1.3248 0.0000 0.0000 31.3330
-0.3486 23.1268 17.1442 -81.5501 80.5279 -84.0251 0.0000 0.0000 0.0000 -5.5835 -3.2114 -5.0925 3.0641 10.7981 31.6019 0.4668 0.8208 12.6464 0.2929 3.4803 9.6188 0.0000 0.0000 0.0000 27.8496 5.3425 -5.8564 -2.6958 -10.1855 29.5796 -0.0471 -14.3514 10.6138 -0.4085 -4.1029 11.3664 1.6062 -3.6277 5.2908 -0.9399 -4.7155 -6.1815 -1.2534 -2.4067 -9.7409 -21.4714 -15.4076 4.9404 19.9392 -21.1160 -9.5480 8.7517 -10.5873 0.8960 0.0000 0.0000 0.0000 70.0907 -53.9403 -77.8308 20.7936 -31.5866 -5.9415 0.0000 0.0000 -34.4016 0.0000 0.0000 0.0000 -73.9958 35.7161 -108.0980 -10.3342 17.2606 -1.5727 0.0000 0.0000 33.5453
-0.4758 22.4922 17.5270 -89.0395 80.0043 -91.6595 0.0000 0.0000 0.0000 -5.0310 -2.7621 -4.2707 3.1204 10.8875 31.9014 0.7220 1.3168 15.6591 0.3273 3.6768 10.1691 0.0000 0.0000 0.0000 27.2571 5.0287 -5.5127 -2.7178 -10.2236 29.7038 -0.0737 -14.4683 10.9862 -0.4410 -4.2611 11.8124 1.6755 -3.4951 5.0917 -0.6317 -4.5111 -5.9372 -1.0155 -2.3005 -9.3214 -21.4880 -15.6587 5.2681 20.5735 -21.3238 -11.1816 9.0240 -10.6953 0.5049 0.0000 0.0000 0.0000 61.6922 -49.5263 -66.6330 21.4018 -32.2943 -6.2632 0.0000 0.0000 -28.1521 0.0000 0.0000 0.0000 -71.6235 34.9752 -103.7980 -10.7413 17.8906 -1.6956 0.0000 0.0000 29.7883
-0.5960 21.6680 17.8996 -93.4936 79.4117 -96.1207 0.0000 0.0000 0.0000 -4.6942 -2.7077 -3.0955 2.9772 10.6581 31.1354 1.0936 1.3899 19.3537 0.4479 4.2937 11.9044 0.0000 0.0000 0.0000 26.4938 5.2202 -5.0528 -2.7307 -10.2458 29.7766 -0.0411 -14.7831 10.8374 -0.5269 -4.6515 12.9173 1.9519 -3.2942 4.6258 -0.3312 -4.2074 -5.5495 -0.9343 -2.1604 -8.6067 -22.2346 -15.7632 5.8549 21.7265 -21.3544 -13.4104 9.6293 -10.7143 0.0224 0.0000 0.0000 0.0000 54.3743 -43.7570 -56.7697 21.6473 -32.5761 -6.3949 0.0000 0.0000 -15.6671 0.0000 0.0000 0.0000 -69.4429 33.8728 -101.8047 -10.7253 17.8660 -1.6907 0.0000 0.0000 30.4161
-0.7185 20.6631 18.2638 -96.7096 78.9810 -99.1765 0.0000 0.0000 0.0000 -4.8610 -3.2143 -1.6439 2.6859 10.1683 29.5234 1.2747 0.8226 21.0962 0.4458 4.2838 11.8764 0.0000 0.0000 0.0000 25.4206 5.8660 -4.6785 -2.7858 -10.3399 30.0846 -0.0430 -15.6084 11.4170 -0.6962 -5.3337 14.8629 2.0011 -3.1434 4.0199 0.0014 -3.9996 -5.0737 -0.6906 -2.0503 -7.7058 -22.1451 -15.8736 6.0021 22.2932 -21.2139 -15.7337 9.9609 -10.6253 -0.6182 0.0000 0.0000 0.0000 47.5375 -36.9611 -48.0947 22.6864 -33.7440 -6.9633 0.0000 0.0000 -6.8649 0.0000 0.0000 0.0000 -66.2898 32.7487 -97.7863 -11.1835 18.5690 -1.8339 0.0000 0.0000 33.0452
-0.8668 19.4736 18.6149 -100.4366 78.5410 -102.6987 0.0000 0.0000 0.0000 -5.3520 -4.2182 -0.4753 2.5347 9.9007 28.6559 0.9035 -0.5546 18.1724 0.0348 1.2046 3.3118 0.0000 0.0000 0.0000 24.2033 6.5153 -4.6436 -2.9778 -10.6590 31.1384 -0.1488 -15.3689 12.3385 -0.6623 -5.2047 14.4935 2.0330 -3.0471 3.6481 0.3946 -3.8669 -4.5057 -0.3549 -1.9749 -6.8502 -21.6317 -15.9619 6.1766 22.5698 -20.9678 -18.4149 10.2130 -10.4774 -1.4746 0.0000 0.0000 0.0000 41.1080 -29.0529 -40.2143 24.8729 -36.0738 -8.2150 0.0000 0.0000 -7.3480 0.0000 0.0000 0.0000 -62.8466 31.5342 -92.3914 -11.9009 19.6558 -2.0688 0.0000 0.0000 33.1419
-1.0949 18.1726 18.9589 -105.9419 77.6718 -108.1338 0.0000 0.0000 0.0000 -4.6762 -2.7464 -1.9023 3.4887 11.4470 33.8027 -0.1572 -7.7452 -0.6760 0.7655 -5.5870 -15.5907 0.0000 0.0000 0.0000 23.2592 6.3613 -4.8249 -3.6503 -11.6799 34.6088 0.0451 -5.3601 2.1103 -0.2859 3.4386 -9.5023 2.4133 -2.9743 4.1229 0.7811 -3.7382 -3.5955 -0.1836 -1.9183 -6.1537 -20.9107 -15.8866 6.8349 23.6504 -20.3187 -22.3382 10.9043 -10.1892 -2.7525 0.0000 0.0000 0.0000 35.2279 -21.9464 -36.1154 26.9389 -38.1208 -9.4614 0.0000 0.0000 -10.6761 0.0000 0.0000 0.0000 -59.8606 29.3483 -88.8780 -12.3502 20.3278 -2.2225 0.0000 0.0000 32.7179
-1.3803 17.0324 19.3705 -114.3890 77.1886 -117.1857 0.0000 0.0000 0.0000 -2.9049 -0.6042 -6.4356 5.4095 13.8306 42.5630 1.0626 -13.6267 -19.4326 0.5498 -4.7503 -13.1977 0.0000 0.0000 0.0000 22.7552 4.8516 -5.5553 -4.9624 -13.3414 40.6602 -0.8721 3.4869 -16.8162 -1.3477 7.3495 -20.7551 0.7661 -3.1942 6.8009 1.2101 -4.1153 -2.4807 1.3346 -2.0263 -6.3667 -19.8392 -15.4401 8.8697 25.4727 -18.9314 -28.2632 12.3146 -9.6405 -4.9713 0.0000 0.0000 0.0000 27.1297 -15.8724 -35.6551 29.6230 -40.5680 -11.1636 0.0000 0.0000 -7.8819 0.0000 0.0000 0.0000 -54.3920 27.8186 -82.2969 -15.8909 25.3725 -3.5991 0.0000 0.0000 26.5551
-1.6269 16.2996 19.7474 -118.5736 77.1486 -121.8694 0.0000 0.0000 0.0000 -1.4975 -0.1884 -10.1033 7.0083 15.3389 48.9057 2.9706 -10.9925 -31.1010 0.6613 -5.2009 -14.4826 0.0000 0.0000 0.0000 23.5080 2.0535 -8.8109 -6.2971 -14.7102 46.1627 -2.5785 2.2233 -29.8253 -0.8518 5.8861 -16.4542 0.0938 -2.7706 8.3684 0.3445 -3.6633 -0.8806 0.7838 -1.8025 -5.5930 -18.1137 -16.0713 8.7622 27.4140 -18.6098 -31.6691 13.1312 -9.6947 -5.9483 0.0000 0.0000 0.0000 14.2023 -11.8810 -37.9620 38.2076 -46.9713 -17.1172 0.0000 0.0000 -0.2033 0.0000 0.0000 0.0000 -39.7076 25.2491 -66.8407 -27.8863 39.0113 -10.0520 0.0000 0.0000 16.2030
-1.8174 15.9795 19.9936 -113.2840 77.7722 -117.6572 0.0000 0.0000 0.0000 -0.8209 -1.1721 -10.9586 8.1288 16.2132 53.0253 3.3868 -4.9189 -33.8025 0.7489 -5.5275 -15.4194 0.0000 0.0000 0.0000 24.6609 3.3213 -10.3132 -7.4868 -15.7285 50.6922 -3.2415 0.3074 -34.0823 -0.7119 5.3922 -15.0307 0.7453 -1.9780 9.3386 -0.3701 -2.5480 0.6699 -0.4690 -1.2684 -4.5874 -18.0003 -16.4466 8.2215 29.1570 -18.3273 -33.7411 13.9304 -9.6383 -6.2910 0.0000 0.0000 0.0000 -6.4068 -7.4333 -37.2557 50.4877 -53.1903 -26.5642 0.0000 0.0000 1.0526 0.0000 0.0000 0.0000 -18.6605 21.7935 -50.4167 -55.2373 54.9011 -30.4101 0.0000 0.0000 14.7563
-1.9258 15.9849 20.1782 -105.4471 78.5384 -110.3875 0.0000 0.0000 0.0000 -1.0010 -1.9555 -9.7148 8.0403 16.1488 52.7078 3.2795 -2.1976 -33.7826 0.7388 -5.4911 -15.3148 0.0000 0.0000 0.0000 25.2850 4.6828 -10.7962 -7.8192 -15.9847 51.9089 -3.1605 0.5094 -33.5880 -0.6317 5.0853 -14.1521 1.0192 -1.2102 9.4991 -0.7275 -1.4974 1.3076 -1.1378 -0.7454 -4.0118 -17.7160 -16.5925 8.0008 29.5906 -18.2071 -34.5367 14.1370 -9.6047 -6.4944 0.0000 0.0000 0.0000 -30.3541 -3.2015 -34.8801 52.7959 -54.0627 -28.4228 0.0000 0.0000 -7.4205 0.0000 0.0000 0.0000 5.6314 17.3563 -33.9942 -90.5974 59.9987 -60.5173 0.0000 0.0000 20.7855
-1.9381 16.2631 20.3491 -103.2334 79.1520 -107.1469 0.0000 0.0000 0.0000 -1.6341 -2.5396 -8.2993 6.8403 15.1959 48.2678 2.7832 -0.4393 -31.5059 0.5712 -4.8401 -13.4530 0.0000 0.0000 0.0000 25.2426 3.9258 -10.7537 -6.8939 -15.2419 48.4717 -2.8788 1.5643 -31.7390 -0.4027 4.0741 -11.2852 0.5965 -0.7146 8.4458 -1.0314 -0.9159 0.6545 -1.2970 -0.4630 -4.0843 -17.5731 -16.6541 8.3836 30.0087 -18.2952 -34.1268 14.2406 -9.7497 -6.3558 0.0000 0.0000 0.0000 -50.8571 1.1023 -32.3651 44.7457 -50.6433 -22.0420 0.0000 0.0000 -24.3849 0.0000 0.0000 0.0000 28.0996 11.9475 -19.5885 -102.8935 59.3624 -71.1422 0.0000 0.0000 20.8552
-1.9380 16.5548 20.5274 -102.6482 79.2248 -104.7901 0.0000 0.0000 0.0000 -1.2971 -2.6107 -7.7693 5.6007 14.0300 43.3575 2.3634 -0.4390 -28.9976 0.4835 -4.4589 -12.3714 0.0000 0.0000 0.0000 25.4487 3.1563 -11.2118 -5.8891 -14.3200 44.5349 -2.6048 3.3088 -29.7394 -0.3210 3.6416 -10.0706 0.4844 -0.3541 6.7979 -0.9320 -0.4634 -0.2038 -1.1891 -0.2461 -4.0360 -18.3335 -17.0347 8.0546 30.9468 -18.8696 -33.2732 14.3852 -10.0823 -5.6217 0.0000 0.0000 0.0000 -66.7106 6.3014 -27.3546 33.6231 -43.8035 -13.8515 0.0000 0.0000 -25.9737 0.0000 0.0000 0.0000 44.6752 8.7023 -10.4749 -97.5690 59.7824 -66.5502 0.0000 0.0000 7.8360
-1.9740 16.7818 20.7064 -103.3457 79.4408 -103.9220 0.0000 0.0000 0.0000 -1.0695 -2.7557 -7.4592 4.6138 12.9352 39.1265 2.0206 -0.4762 -26.7725 0.4117 -4.1190 -11.4118 0.0000 0.0000 0.0000 25.2526 1.6077 -12.2811 -5.2113 -13.6179 41.7277 -2.5098 4.7219 -28.9123 -0.5258 4.6471 -12.9047 0.5599 -0.2377 5.2991 -0.7387 -0.3041 -0.5448 -1.0507 -0.1681 -3.5406 -18.2101 -17.3313 7.4566 30.9610 -19.1149 -33.4287 14.2592 -10.1774 -5.5124 0.0000 0.0000 0.0000 -79.2239 8.9142 -24.4636 24.7418 -35.9389 -8.1379 0.0000 0.0000 -8.4111 0.0000 0.0000 0.0000 54.6448 9.2354 -8.3866 -79.2822 59.5615 -50.7318 0.0000 0.0000 -10.1119
-2.0661 16.9267 20.8855 -104.3565 79.6117 -103.8854 0.0000 0.0000 0.0000 -0.9605 -3.7945 -7.0446 3.9611 12.1085 36.1167 1.7407 0.4784 -25.1394 0.3478 -3.7891 -10.4842 0.0000 0.0000 0.0000 25.1677 -0.0600 -13.4983 -4.8126 -13.1696 40.0067 -2.4479 2.8011 -28.9007 -0.5860 4.9014 -13.6275 1.1496 -0.0767 5.0841 -0.3643 -0.0419 -0.5526 -1.0173 -0.0455 -3.4219 -17.6846 -17.6979 6.6847 31.0782 -19.2305 -34.1200 14.1871 -10.2359 -5.6056 0.0000 0.0000 0.0000 -88.1288 7.8599 -25.9710 18.9348 -29.3376 -4.9989 0.0000 0.0000 1.9242 0.0000 0.0000 0.0000 55.7480 12.2533 -10.5421 -60.2957 56.3882 -34.5873 0.0000 0.0000 -30.4132
-2.1835 17.0078 21.0794 -105.0522 80.1209 -103.8775 0.0000 0.0000 0.0000 -1.0630 -4.6379 -6.8310 3.5445 11.5282 34.0827 1.5356 1.3404 -23.9394 0.2890 -3.4573 -9.5547 0.0000 0.0000 0.0000 24.9704 -1.7071 -14.3403 -4.4331 -12.7154 38.3123 -1.9837 -4.6516 -28.5972 -0.2204 3.0221 -8.3403 1.8181 0.4216 5.9038 0.4075 0.7127 -0.5303 -0.6650 0.3222 -3.8427 -17.2950 -18.0945 6.1803 30.3849 -19.5516 -35.3959 13.9538 -10.2872 -6.0165 0.0000 0.0000 0.0000 -93.7699 5.9270 -24.5956 15.9484 -25.4506 -3.6237 0.0000 0.0000 -2.1524 0.0000 0.0000 0.0000 50.5822 15.2213 -14.8013 -54.8159 54.7623 -30.0656 0.0000 0.0000 -43.0709
-2.2866 17.0713 21.2826 -107.3733 81.1313 -105.4635 0.0000 0.0000 0.0000 -1.6318 -5.2432 -7.0056 3.2220 11.0460 32.4351 1.3500 1.8463 -22.6875 0.2295 -3.0833 -8.5108 0.0000 0.0000 0.0000 24.4085 -3.1303 -15.3137 -4.1787 -12.3945 37.1423 -1.6291 -5.4715 -26.6106 -0.0739 1.7536 -4.8253 3.0852 0.8974 6.9231 0.8877 1.5083 -0.6633 -0.9735 0.6868 -4.5186 -17.1996 -18.4920 5.9723 29.7157 -20.0404 -36.4686 13.7612 -10.4168 -6.3454 0.0000 0.0000 0.0000 -95.8013 5.1395 -19.8894 15.1446 -24.3472 -3.2853 0.0000 0.0000 -5.6017 0.0000 0.0000 0.0000 43.1491 18.5289 -22.2333 -55.5454 55.0011 -30.6623 0.0000 0.0000 -51.8327
-2.3701 17.1340 21.4673 -108.6362 81.6157 -105.9296 0.0000 0.0000 0.0000 -1.6522 -5.8260 -7.5954 3.0418 10.7624 31.4827 1.1846 2.3716 -21.5400 0.1175 -2.2101 -6.0865 0.0000 0.0000 0.0000 24.4995 -2.1112 -15.9269 -4.0520 -12.2292 36.5477 -1.4822 -5.0829 -25.3204 -0.0530 1.4850 -4.0845 5.6662 0.8811 7.7398 1.2675 1.8052 -0.9140 -2.0774 0.7569 -5.1734 -16.8066 -18.3522 5.5184 29.0733 -19.8042 -36.5609 13.5029 -10.2555 -6.5232 0.0000 0.0000 0.0000 -95.0078 5.7710 -15.0722 16.0377 -25.5718 -3.6622 0.0000 0.0000 1.0001 0.0000 0.0000 0.0000 33.8023 23.4738 -31.5677 -55.8573 55.1010 -30.9179 0.0000 0.0000 -61.6640
-2.4028 17.2185 21.6315 -114.8798 82.2281 -111.4443 0.0000 0.0000 0.0000 -2.2441 -6.3193 -8.2597 2.8808 10.4995 30.6098 1.0060 2.6464 -20.0743 0.0262 -1.0456 -2.8743 0.0000 0.0000 0.0000 24.2398 -1.1975 -15.9469 -3.8729 -11.9894 35.6943 -1.4273 -5.5744 -25.1882 -0.0386 1.2687 -3.4884 7.8720 0.5163 8.0567 1.6663 1.6217 -1.2748 -2.8807 0.5861 -5.7143 -16.2433 -17.8934 5.2010 27.9821 -19.3490 -35.8471 13.0229 -10.0006 -6.6089 0.0000 0.0000 0.0000 -92.6317 6.8741 -12.6186 17.4166 -27.4037 -4.2773 0.0000 0.0000 10.8167 0.0000 0.0000 0.0000 22.7301 28.0825 -40.8213 -51.2140 53.4736 -27.1467 0.0000 0.0000 -64.0269
-2.3969 17.3264 21.7826 -128.4627 82.4671 -124.3858 0.0000 0.0000 0.0000 -3.0497 -6.6789 -8.8878 2.6714 10.1430 29.4412 0.7987 2.4664 -17.9476 0.0159 -0.8153 -2.2408 0.0000 0.0000 0.0000 23.6711 -1.2941 -15.7114 -3.5965 -11.6031 34.3421 -1.3865 -6.0264 -25.1485 -0.0152 0.7963 -2.1884 9.4817 -0.0114 7.8998 2.1754 1.1425 -1.6364 -3.1799 0.2910 -6.0580 -15.9338 -17.6516 4.7078 27.1925 -19.2517 -34.4962 12.5039 -9.9543 -6.2813 0.0000 0.0000 0.0000 -89.4206 7.3505 -9.8353 18.6630 -28.9977 -4.8664 0.0000 0.0000 9.7068 0.0000 0.0000 0.0000 11.5496 30.8219 -50.2025 -44.0236 50.2811 -21.4850 0.0000 0.0000 -69.5496
-2.3773 17.4528 21.9057 -138.9008 82.5080 -134.1883 0.0000 0.0000 0.0000 -3.6295 -6.3950 -9.5314 2.4738 9.7901 28.2997 0.5587 2.4735 -15.2347 0.0172 -0.8475 -2.3293 0.0000 0.0000 0.0000 23.1149 -1.8405 -15.3348 -3.2337 -11.0641 32.4964 -1.3370 -5.7450 -24.5971 -0.0008 0.1825 -0.5014 10.8633 -0.1984 7.5300 2.8203 1.0885 -2.0284 -3.2517 0.2186 -6.2817 -16.0070 -17.7148 4.3429 26.8179 -19.6023 -33.0364 12.1147 -10.1463 -5.7319 0.0000 0.0000 0.0000 -86.2565 7.1961 -6.9597 20.0863 -30.7462 -5.5754 0.0000 0.0000 -1.5833 0.0000 0.0000 0.0000 1.8104 31.9605 -59.3678 -36.4715 45.8347 -15.8598 0.0000 0.0000 -72.9550
