HIERARCHY
ROOT Hips
{
	OFFSET 0.00000 0.00000 0.00000
	CHANNELS 6 Xposition Yposition Zposition Zrotation Yrotation Xrotation
	JOINT LHipJoint
	{
		OFFSET 0.00000 0.00000 0.00000
		CHANNELS 3 Zrotation Yrotation Xrotation
		JOINT LeftUpLeg
		{
			OFFSET 1.57358 -1.76629 0.73362
			CHANNELS 3 Zrotation Yrotation Xrotation
			JOINT LeftLeg
			{
				OFFSET 2.40600 -6.61045 0.00000
				CHANNELS 3 Zrotation Yrotation Xrotation
				JOINT LeftFoot
				{
					OFFSET 2.66168 -7.31291 0.00000
					CHANNELS 3 Zrotation Yrotation Xrotation
					JOINT LeftToeBase
					{
						OFFSET 0.20870 -0.57341 2.12506
						CHANNELS 3 Zrotation Yrotation Xrotation
						End Site
						{
							OFFSET 0.00000 -0.00000 1.10557
						}
					}
				}
			}
		}
	}
	JOINT RHipJoint
	{
		OFFSET 0.00000 0.00000 0.00000
		CHANNELS 3 Zrotation Yrotation Xrotation
		JOINT RightUpLeg
		{
			OFFSET -1.49299 -1.76629 0.73362
			CHANNELS 3 Zrotation Yrotation Xrotation
			JOINT RightLeg
			{
				OFFSET -2.43663 -6.69460 0.00000
				CHANNELS 3 Zrotation Yrotation Xrotation
				JOINT RightFoot
				{
					OFFSET -2.62959 -7.22474 0.00000
					CHANNELS 3 Zrotation Yrotation Xrotation
					JOINT RightToeBase
					{
						OFFSET -0.25784 -0.70841 2.21862
						CHANNELS 3 Zrotation Yrotation Xrotation
						End Site
						{
							OFFSET -0.00000 -0.00000 1.16452
						}
					}
				}
			}
		}
	}
	JOINT LowerBack
	{
		OFFSET 0.00000 0.00000 0.00000
		CHANNELS 3 Zrotation Yrotation Xrotation
		JOINT Spine
		{
			OFFSET -0.00034 2.12399 -0.25450
			CHANNELS 3 Zrotation Yrotation Xrotation
			JOINT Spine1
			{
				OFFSET 0.05594 2.14379 -0.03318
				CHANNELS 3 Zrotation Yrotation Xrotation
				JOINT Neck
				{
					OFFSET 0.00000 0.00000 0.00000
					CHANNELS 3 Zrotation Yrotation Xrotation
					JOINT Neck1
					{
						OFFSET -0.09835 1.62725 0.24211
						CHANNELS 3 Zrotation Yrotation Xrotation
						JOINT Head
						{
							OFFSET 0.10849 1.66041 -0.22648
							CHANNELS 3 Zrotation Yrotation Xrotation
							End Site
							{
								OFFSET 0.04385 1.68267 -0.10541
							}
						}
					}
				}
				JOINT LeftShoulder
				{
					OFFSET 0.00000 0.00000 0.00000
					CHANNELS 3 Zrotation Yrotation Xrotation
					JOINT LeftArm
					{
						OFFSET 3.29108 0.79398 -0.68179
						CHANNELS 3 Zrotation Yrotation Xrotation
						JOINT LeftForeArm
						{
							OFFSET 5.15310 -0.00000 -0.00000
							CHANNELS 3 Zrotation Yrotation Xrotation
							JOINT LeftHand
							{
								OFFSET 3.75138 -0.00000 -0.00000
								CHANNELS 3 Zrotation Yrotation Xrotation
								End Site
								{
									OFFSET 0.00000 0.60000 0.00000
								}
							}
						}
					}
				}
				JOINT RightShoulder
				{
					OFFSET 0.00000 0.00000 0.00000
					CHANNELS 3 Zrotation Yrotation Xrotation
					JOINT RightArm
					{
						OFFSET -3.07414 1.06285 -0.44338
						CHANNELS 3 Zrotation Yrotation Xrotation
						JOINT RightForeArm
						{
							OFFSET -5.29613 -0.00000 0.00000
							CHANNELS 3 Zrotation Yrotation Xrotation
							JOINT RightHand
							{
								OFFSET -3.76144 -0.00000 -0.00000
								CHANNELS 3 Zrotation Yrotation Xrotation
								End Site
								{
									OFFSET 0.00000 0.60000 0.00000
								}
							}
						}
					}
				}
			}
		}
	}
}
MOTION
Frames: 58
Frame Time: 0.0333333
0.0000 17.8045 0.0000 0.2843 0.0000 6.2001 0.0000 0.0000 0.0000 -21.2093 -5.4916 -10.4842 1.2775 7.1630 20.1991 0.4688 1.9034 -13.7658 0.0173 0.8494 2.3346 0.0000 0.0000 0.0000 20.7913 9.2228 -8.6266 -1.3096 -7.2490 20.4551 -0.2980 -5.3358 -13.6582 -0.0115 -0.6923 1.9025 -1.7576 -0.5266 5.9350 1.9955 -0.7531 -0.4130 3.1212 -0.3202 -3.7076 -10.4795 -5.5123 -17.3035 7.1957 -6.3261 17.2806 3.3526 -2.9360 8.8289 -0.0000 0.0000 0.0000 -88.2861 1.0139 23.6169 17.4407 -27.4351 -4.2884 -0.0000 -0.0000 7.9216 -0.0000 0.0000 0.0000 86.4295 -1.2591 22.1242 -19.1590 29.6158 -5.1092 0.0000 0.0000 2.8870
-0.0006 17.7964 -0.0096 0.3700 0.1328 6.1599 0.0000 0.0000 0.0000 -21.2879 -5.5377 -10.5314 1.2802 7.1702 20.2207 0.4605 1.9207 -13.6611 0.0136 0.7536 2.0711 0.0000 0.0000 0.0000 20.6849 9.1274 -8.9012 -1.3693 -7.4057 20.9230 -0.3171 -5.2363 -13.8572 -0.0109 -0.6727 1.8485 -1.8155 -0.5759 6.2991 2.0149 -0.8259 -0.3770 3.1868 -0.3530 -3.8694 -10.6300 -5.4824 -17.3591 7.3374 -6.2655 17.2189 3.4335 -2.9015 8.8220 0.0000 0.0000 0.0000 -88.3633 0.9641 23.6385 17.5581 -27.5876 -4.3426 0.0000 0.0000 7.8853 0.0000 0.0000 0.0000 86.3243 -1.2829 22.5581 -19.5406 30.0849 -5.2991 0.0000 0.0000 2.6726
0.0070 17.7894 -0.0224 0.4639 0.2646 6.3234 0.0000 0.0000 0.0000 -21.3844 -5.5631 -11.1317 1.3648 7.3941 20.8884 0.4808 1.5380 -13.7462 0.0196 0.9033 2.4828 0.0000 0.0000 0.0000 20.5084 9.0658 -9.4176 -1.4261 -7.5515 21.3598 -0.3376 -5.1315 -14.0689 -0.0197 -0.9070 2.4931 -1.7729 -0.6017 6.3607 1.9544 -0.8601 -0.3491 3.1037 -0.3717 -3.8743 -10.4118 -5.4081 -17.4548 7.2180 -6.1879 17.2778 3.3665 -2.8611 8.8398 0.0000 0.0000 0.0000 -88.2030 1.2817 24.2392 18.0960 -28.2799 -4.5946 0.0000 0.0000 7.1896 0.0000 0.0000 0.0000 86.2433 -1.3391 23.5952 -20.3469 31.0580 -5.7092 0.0000 0.0000 2.1938
0.0107 17.7606 -0.0849 -0.1943 0.4169 6.4679 0.0000 0.0000 0.0000 -20.5207 -5.8124 -12.6810 1.6174 8.0191 22.7722 0.5489 1.0526 -14.4157 0.0071 0.5449 1.4973 0.0000 0.0000 0.0000 21.1590 9.3107 -10.3265 -1.5500 -7.8582 22.2842 -0.3468 -5.1499 -14.2165 -0.0166 -0.8327 2.2886 -0.9997 -0.5704 7.2809 2.1024 -0.7535 -0.3190 2.8271 -0.3271 -4.3759 -10.4561 -5.5122 -17.3025 7.3750 -6.3248 16.4298 3.4042 -2.9114 8.5446 0.0000 0.0000 0.0000 -88.0237 1.3854 24.6677 18.9094 -29.3059 -4.9864 0.0000 0.0000 7.1364 0.0000 0.0000 0.0000 86.2478 -1.5653 24.2233 -21.7389 32.6807 -6.4443 0.0000 0.0000 2.1519
0.0145 17.7036 -0.1564 -0.1696 0.9349 6.6270 0.0000 0.0000 0.0000 -20.3476 -5.8922 -14.9011 2.0138 8.8948 25.4669 0.6184 -0.2481 -14.7764 0.0200 0.9136 2.5112 0.0000 0.0000 0.0000 21.0179 9.2407 -12.3309 -1.9144 -8.6854 24.8162 -0.4184 -4.9076 -15.0109 -0.0026 -0.3318 0.9117 -1.0123 -0.6840 8.3256 2.2355 -0.8997 -0.2344 3.0098 -0.3921 -4.8661 -10.5523 -5.5926 -17.7489 7.3269 -6.3351 16.1201 3.3927 -2.9156 8.5212 0.0000 0.0000 0.0000 -88.0753 1.4505 25.7483 20.3345 -31.0432 -5.7028 0.0000 0.0000 6.0823 0.0000 0.0000 0.0000 85.8379 -1.5302 25.4060 -23.3420 34.4607 -7.3309 0.0000 0.0000 2.5581
0.0201 17.5796 -0.2747 -0.6998 1.0631 6.5058 0.0000 0.0000 0.0000 -19.5109 -5.4922 -18.1068 2.7419 10.2650 29.8391 0.7764 -1.8185 -16.1304 0.0105 0.6621 1.8195 0.0000 0.0000 0.0000 21.3827 9.3286 -14.9704 -2.5417 -9.9133 28.6964 -0.5776 -3.9956 -16.3689 -0.0160 -0.8164 2.2437 -0.4650 -0.6625 10.2570 2.4517 -0.7945 0.0854 2.9501 -0.3445 -5.6292 -10.7759 -5.5902 -18.4227 7.7932 -6.2381 15.1007 3.5855 -2.8173 8.3093 0.0000 0.0000 0.0000 -87.9089 1.5971 26.9742 22.4959 -33.5330 -6.8578 0.0000 0.0000 5.0833 0.0000 0.0000 0.0000 85.3061 -1.2671 26.7422 -25.5605 36.7714 -8.6232 0.0000 0.0000 1.6096
0.0248 17.3812 -0.4096 -1.0085 1.3866 6.1847 0.0000 0.0000 0.0000 -18.7950 -5.6333 -21.3153 3.7062 11.7588 34.8841 0.9443 -3.6417 -17.5028 0.0235 0.9888 2.7180 0.0000 0.0000 0.0000 21.4887 9.2276 -18.3760 -3.5518 -11.5388 34.1193 -0.7576 -3.3928 -18.0133 -0.0005 0.1426 -0.3917 -0.2135 -0.6658 12.6624 2.6313 -0.7345 0.4587 3.0364 -0.3110 -6.5908 -10.6062 -5.4902 -18.9774 7.8220 -6.0415 14.1544 3.5808 -2.6954 8.0632 0.0000 0.0000 0.0000 -87.4564 1.5805 28.7486 25.3636 -36.5733 -8.5056 0.0000 0.0000 3.3798 0.0000 0.0000 0.0000 84.6042 -1.2653 28.3731 -28.7965 39.8393 -10.6301 0.0000 0.0000 0.4800
0.0349 17.1623 -0.5630 -0.6014 1.6031 6.0837 0.0000 0.0000 0.0000 -18.9629 -5.7900 -24.6466 4.7862 13.1390 39.8909 1.1312 -4.8939 -19.0724 0.0146 0.7812 2.1469 0.0000 0.0000 0.0000 20.6599 9.1809 -22.2591 -4.8084 -13.1648 39.9884 -0.9846 -2.6429 -19.8725 -0.0098 0.6392 -1.7565 -0.4577 -0.5913 15.0387 2.4788 -0.6687 1.0399 3.0447 -0.2687 -7.3010 -10.3087 -5.5904 -19.8523 7.8277 -6.0927 12.7143 3.5078 -2.6794 7.7268 0.0000 0.0000 0.0000 -86.5481 1.3903 30.4698 29.3867 -40.3619 -11.0103 0.0000 0.0000 2.3049 0.0000 0.0000 0.0000 83.9529 -0.6573 29.7039 -32.7356 43.1258 -13.2410 0.0000 0.0000 -0.2440
0.0294 16.8973 -0.7347 0.0115 2.0239 6.4235 0.0000 0.0000 0.0000 -19.1877 -6.4481 -28.7560 5.9907 14.4193 44.9445 1.2947 -5.4900 -20.4011 0.0003 0.1119 0.3074 0.0000 0.0000 0.0000 19.5058 9.3767 -26.8751 -6.3076 -14.7199 46.2040 -1.2129 -2.2218 -21.7135 -0.0210 0.9365 -2.5742 -1.0839 -0.5152 17.9363 2.4120 -0.6731 1.0963 3.4034 -0.2259 -8.8461 -10.2022 -5.5634 -19.9691 7.9407 -6.0037 11.0075 3.5319 -2.6156 7.1751 0.0000 0.0000 0.0000 -86.1240 1.6019 31.3581 34.2332 -44.2567 -14.2755 0.0000 0.0000 1.3999 0.0000 0.0000 0.0000 83.1251 -0.6185 30.8485 -37.7775 46.6966 -16.8035 0.0000 0.0000 -1.1112
0.0220 16.5725 -0.9292 0.2976 2.8667 7.5115 0.0000 0.0000 0.0000 -18.6917 -8.0939 -33.9074 7.5441 15.7735 50.9033 1.4653 -6.6173 -21.6776 0.0042 0.4201 1.1544 0.0000 0.0000 0.0000 18.5059 9.6799 -32.5427 -8.0302 -16.1414 52.6712 -1.4271 -2.1612 -23.4389 -0.0250 1.0208 -2.8060 -0.9941 -0.6049 19.7312 2.3244 -0.7828 1.7450 3.3175 -0.2838 -9.1196 -10.0588 -5.6284 -21.6186 8.2953 -5.9378 9.4098 3.6130 -2.5077 6.9204 0.0000 0.0000 0.0000 -85.3984 -0.1650 32.0081 38.9926 -47.4616 -17.6933 0.0000 0.0000 0.3022 0.0000 0.0000 0.0000 82.7233 0.8897 31.1447 -43.6086 50.0683 -21.1663 0.0000 0.0000 -1.3378
0.0184 16.2318 -1.1307 0.2398 3.5704 9.0495 0.0000 0.0000 0.0000 -17.6787 -9.8089 -39.6716 9.2770 16.9827 57.0433 1.6542 -7.3838 -23.0441 0.0035 0.3843 1.0559 0.0000 0.0000 0.0000 17.5758 10.4056 -38.5192 -9.8146 -17.3043 58.8670 -1.6186 -1.6051 -24.6692 -0.0044 -0.4305 1.1830 -0.5905 -0.6471 21.7803 2.4281 -0.7233 1.8787 3.2379 -0.2532 -10.1013 -9.8872 -5.6708 -22.4135 8.2714 -5.8663 7.6102 3.5761 -2.4520 6.4448 0.0000 0.0000 0.0000 -85.1862 -1.2402 31.9230 44.5840 -50.5631 -21.9170 0.0000 0.0000 0.0281 0.0000 0.0000 0.0000 82.1992 1.9913 31.0997 -49.7149 52.8799 -25.9466 0.0000 0.0000 -1.0188
0.0185 15.8353 -1.3283 -0.1382 3.6718 11.0323 0.0000 0.0000 0.0000 -16.1085 -11.0466 -46.2136 11.1327 17.9994 63.2118 1.8598 -7.7363 -24.4640 0.0013 0.2342 0.6434 0.0000 0.0000 0.0000 16.9822 11.8766 -44.7957 -11.6165 -18.2238 64.7678 -1.6178 -3.5185 -25.5099 -0.2019 2.8933 -7.9818 -0.0694 -0.5228 23.5087 2.6062 -0.3935 2.1039 3.0755 -0.1077 -10.8105 -9.9115 -5.8200 -23.1307 8.5515 -5.9011 5.2243 3.6624 -2.4328 5.7962 0.0000 0.0000 0.0000 -84.8474 -2.9560 31.8716 50.5795 -53.2265 -26.6376 0.0000 0.0000 -0.1097 0.0000 0.0000 0.0000 81.2903 3.0957 31.3836 -57.3124 55.5502 -32.1146 0.0000 0.0000 -1.6229
0.0167 15.4331 -1.5452 -0.3991 3.8381 13.4787 0.0000 0.0000 0.0000 -14.3414 -12.5826 -53.1067 12.9343 18.7583 68.9214 1.9822 -8.0297 -25.2723 0.0030 0.3538 0.9720 0.0000 0.0000 0.0000 15.7601 13.7184 -51.6958 -13.5030 -18.9563 70.6808 -1.8098 -3.5830 -26.9065 -0.0682 1.6851 -4.6361 0.3562 -0.3554 25.3250 2.6734 -0.0240 2.2721 2.8210 0.0539 -11.6195 -9.5080 -5.8844 -24.8257 8.7689 -5.8526 3.0372 3.6668 -2.3496 5.3336 0.0000 0.0000 0.0000 -84.5375 -4.4355 31.7745 57.3361 -55.5573 -32.1342 0.0000 0.0000 -1.1487 0.0000 0.0000 0.0000 80.4871 4.9388 31.4843 -64.6901 57.4354 -38.2697 0.0000 0.0000 -2.3956
-0.0044 15.0072 -1.7542 -0.7123 3.5802 16.2126 0.0000 0.0000 0.0000 -12.2857 -13.4962 -60.6364 14.8459 19.3508 74.7721 2.1296 -8.2299 -26.2188 0.0001 0.0767 0.2106 0.0000 0.0000 0.0000 14.3314 15.8454 -58.8054 -15.3754 -19.4793 76.3650 -1.9274 -3.9619 -27.8870 -0.0523 1.4756 -4.0584 0.3165 -0.0097 26.9083 2.7209 0.4458 2.4020 2.7580 0.2780 -12.3401 -9.0999 -5.8612 -25.8819 9.2995 -5.7325 -0.0202 3.7969 -2.2371 4.5076 0.0000 0.0000 0.0000 -84.2130 -6.2492 31.5779 63.0522 -57.0699 -36.8921 0.0000 0.0000 -2.7100 0.0000 0.0000 0.0000 79.7243 6.7475 31.6623 -71.2822 58.6339 -43.8643 0.0000 0.0000 -2.7314
-0.0382 14.5606 -1.9658 -1.0406 3.1541 18.8807 0.0000 0.0000 0.0000 -10.0660 -14.0959 -67.9675 16.6592 19.7303 80.1899 2.2402 -8.3062 -26.9115 0.0003 -0.1188 -0.3265 0.0000 0.0000 0.0000 12.8962 17.7840 -66.0851 -17.1973 -19.8106 81.7805 -1.9022 -5.0244 -28.2490 -0.0912 1.9473 -5.3600 -0.0209 0.4645 28.2969 2.8244 0.9787 2.8606 2.8831 0.5380 -12.5732 -8.9348 -5.8910 -27.2628 9.9702 -5.5158 -3.9993 4.0345 -2.0806 3.4413 0.0000 0.0000 0.0000 -83.9878 -8.8206 31.3126 68.2501 -58.1348 -41.2820 0.0000 0.0000 -3.7474 0.0000 0.0000 0.0000 78.8615 10.0828 31.5424 -75.1234 59.1470 -47.1534 0.0000 0.0000 -3.1160
-0.0580 14.1758 -2.0769 -0.7622 3.0017 20.4521 0.0000 0.0000 0.0000 -9.0776 -14.6333 -73.0325 18.1164 19.9147 84.4853 2.3117 -8.1025 -27.3615 0.0125 -0.7227 -1.9860 0.0000 0.0000 0.0000 11.2469 18.4748 -71.2647 -18.7785 -19.9642 86.4266 -2.1111 -4.9012 -29.5437 -0.0607 1.5900 -4.3739 -0.2500 0.4853 29.8325 2.5902 0.8984 2.9147 2.5772 0.4713 -12.5089 -8.3571 -5.6154 -28.5316 10.2845 -5.0595 -6.9633 4.1187 -1.8379 2.6338 0.0000 0.0000 0.0000 -83.4549 -11.5616 30.4956 70.7146 -58.5470 -43.3799 0.0000 0.0000 -5.6177 0.0000 0.0000 0.0000 78.5458 13.0620 32.0568 -76.6752 59.3184 -48.4868 0.0000 0.0000 -4.0609
-0.0921 13.8724 -2.1543 -0.6183 2.9311 20.9168 0.0000 0.0000 0.0000 -8.4246 -14.4506 -75.9609 19.3025 19.9883 87.9603 2.4402 -8.8856 -28.1122 0.0112 -0.6838 -1.8790 0.0000 0.0000 0.0000 10.3576 19.0518 -74.3301 -19.9851 -20.0000 89.9565 -2.1304 -5.7068 -30.0777 -0.1245 2.2748 -6.2658 -0.2615 0.6241 31.4381 2.2983 1.0311 3.3761 2.2107 0.5182 -12.6773 -8.0532 -5.6083 -28.8869 10.6860 -4.9405 -9.8256 4.2431 -1.7885 1.7883 0.0000 0.0000 0.0000 -83.3334 -15.7744 30.0760 69.6250 -58.3718 -42.4512 0.0000 0.0000 -5.7783 0.0000 0.0000 0.0000 77.9598 16.7599 32.0702 -74.0505 59.0166 -46.2329 0.0000 0.0000 -6.4778
-0.1260 13.6325 -2.1709 -0.8231 2.3846 21.1868 0.0000 0.0000 0.0000 -7.7460 -13.6524 -78.3767 20.2385 19.9986 90.6974 2.4890 -9.3932 -28.3916 0.0225 -0.9693 -2.6643 0.0000 0.0000 0.0000 9.7836 20.2769 -76.3834 -20.8075 -19.9844 92.3615 -2.1821 -5.9126 -30.5077 -0.0640 1.6318 -4.4893 -0.3026 0.8887 31.6216 1.9431 1.2983 3.4956 1.7452 0.6300 -12.6180 -7.8500 -5.5423 -28.0444 11.4309 -4.8262 -11.9813 4.4924 -1.7624 1.0502 0.0000 0.0000 0.0000 -83.9738 -19.7525 29.2409 70.5291 -58.5179 -43.2216 0.0000 0.0000 -2.4173 0.0000 0.0000 0.0000 77.7855 18.3495 31.7349 -73.1275 58.8965 -45.4421 0.0000 0.0000 -7.4729
-0.1825 13.6074 -2.0428 -0.5856 4.7399 19.4621 0.0000 0.0000 0.0000 -7.6416 -15.1852 -75.8973 20.4277 19.9956 91.2505 2.6190 -9.4490 -29.1478 0.0459 -1.3822 -3.8010 0.0000 0.0000 0.0000 11.1023 18.8275 -73.6383 -21.0464 -19.9737 93.0607 -2.3247 -7.4641 -32.2168 -0.1307 2.3305 -6.4200 0.6638 0.0667 31.9697 1.9414 0.5892 3.8678 1.4937 0.2695 -12.3028 -7.5491 -5.6291 -28.6043 12.0037 -4.9749 -11.9761 4.6115 -1.8065 1.1564 0.0000 0.0000 0.0000 -84.9775 -23.2136 29.6525 80.4257 -59.6508 -51.7181 0.0000 0.0000 -4.2981 0.0000 0.0000 0.0000 76.7636 17.2916 30.2422 -79.7741 59.6012 -51.1560 0.0000 0.0000 -9.5592
-0.2472 13.7023 -1.9552 -0.9645 5.1281 19.0588 0.0000 0.0000 0.0000 -7.2844 -15.1715 -74.6199 20.0925 19.9998 90.2704 2.6248 -9.0407 -29.1908 0.0863 -1.8949 -5.2154 0.0000 0.0000 0.0000 11.7470 19.8050 -71.9193 -20.5869 -19.9917 91.7163 -2.1050 -8.9456 -31.7994 -0.2163 2.9939 -8.2617 0.4359 0.1695 30.4262 2.0909 0.6503 3.4596 1.7559 0.3139 -12.1169 -7.4750 -5.6188 -28.7350 12.1715 -5.0515 -10.8882 4.6305 -1.8128 1.5242 0.0000 0.0000 0.0000 -83.8908 -25.7593 30.6983 97.7863 -59.7697 -66.7379 0.0000 0.0000 -5.6208 0.0000 0.0000 0.0000 74.3311 15.7101 28.5785 -90.6030 59.9986 -60.5222 0.0000 0.0000 -12.9824
-0.3228 14.1075 -1.7825 -1.1845 6.4478 18.0611 0.0000 0.0000 0.0000 -7.6048 -15.4963 -70.2128 18.5586 19.9501 85.7824 2.4091 -9.2371 -27.9199 0.0857 -1.8881 -5.1966 0.0000 0.0000 0.0000 13.5217 18.7636 -67.1836 -19.0261 -19.9772 87.1516 -1.9948 -8.4508 -30.8157 -0.1929 2.8288 -7.8024 0.6302 0.0178 28.1072 2.3017 0.5317 3.1062 2.0660 0.2846 -12.1504 -7.3407 -5.9067 -28.9790 11.8185 -5.6696 -8.0356 4.3918 -2.0737 2.4714 0.0000 0.0000 0.0000 -79.2566 -29.4994 30.4831 113.1973 -57.8658 -79.9455 0.0000 0.0000 -3.6246 0.0000 0.0000 0.0000 70.3716 9.9840 25.5737 -109.8738 58.4537 -77.1219 0.0000 0.0000 -8.7571
-0.3647 14.8425 -1.5286 -1.0947 6.4780 16.0468 0.0000 0.0000 0.0000 -9.6824 -14.5738 -61.4820 15.6804 19.5466 77.2780 2.0866 -9.0187 -25.9336 0.0865 -1.8973 -5.2220 0.0000 0.0000 0.0000 15.2946 17.0227 -58.6625 -16.1959 -19.6494 78.8147 -1.7900 -5.3687 -27.6755 -0.0447 1.3639 -3.7507 0.1858 0.2090 26.4781 2.5076 0.6627 2.3572 2.5050 0.3784 -12.1704 -8.1266 -5.8497 -28.8667 11.6912 -5.5515 -5.2920 4.4669 -1.9557 3.3172 0.0000 0.0000 0.0000 -71.2676 -31.1205 26.8128 124.3635 -55.0304 -89.2631 0.0000 0.0000 -4.0747 0.0000 0.0000 0.0000 64.4347 3.9480 22.6530 -124.2706 55.0602 -89.1869 0.0000 0.0000 -2.6494
-0.3681 15.8983 -1.1863 -0.3990 7.3647 10.8046 0.0000 0.0000 0.0000 -13.5310 -13.4456 -46.1906 11.3672 18.1101 63.9683 1.4280 -8.5176 -21.3922 0.1373 -2.3879 -6.5790 0.0000 0.0000 0.0000 18.1252 11.7012 -44.9061 -12.0762 -18.4227 66.2300 -1.2202 -3.9917 -22.6534 -0.1670 2.6330 -7.2585 0.0272 -0.2997 27.8833 2.4948 -0.0176 2.2966 2.8592 0.0878 -12.9598 -8.5375 -5.7977 -27.6632 11.5127 -5.6372 -2.6790 4.4491 -2.0030 3.9964 0.0000 0.0000 0.0000 -62.5086 -27.7646 21.6183 130.0145 -52.9896 -93.8374 0.0000 0.0000 -5.2610 0.0000 0.0000 0.0000 57.4305 -3.0060 22.9408 -132.2486 52.0473 -95.6105 0.0000 0.0000 -6.3355
-0.3144 17.0080 -0.7574 0.5532 6.1771 7.2932 0.0000 0.0000 0.0000 -17.4336 -10.1206 -31.4513 6.6885 15.0639 47.6862 0.4820 -6.1808 -12.4535 0.2269 -3.0660 -8.4625 0.0000 0.0000 0.0000 19.1933 6.0870 -33.1756 -7.9076 -16.0509 52.2292 -0.5423 -0.7313 -14.1951 -0.1781 2.7182 -7.4951 -0.5028 0.1455 25.6913 2.1575 0.3315 2.2486 2.6149 0.2500 -11.8597 -9.3781 -5.6256 -24.8770 11.3038 -5.5762 0.0808 4.5204 -2.0382 4.4955 0.0000 0.0000 0.0000 -56.1612 -21.8062 21.4555 126.9122 -54.1674 -91.3407 0.0000 0.0000 -6.7015 0.0000 0.0000 0.0000 52.0146 -11.3573 26.4752 -133.0512 51.6882 -96.2418 0.0000 0.0000 -1.0846
-0.2372 18.3908 -0.2422 0.9389 3.7236 6.0598 0.0000 0.0000 0.0000 -19.3711 -6.5818 -19.7796 2.7991 10.3626 30.1589 -0.0005 -2.6200 3.7077 0.6725 -5.2439 -14.6055 0.0000 0.0000 0.0000 18.9195 2.4363 -22.5323 -3.7615 -11.8361 35.1545 -0.0243 -0.4790 2.8161 -0.0483 1.4182 -3.9004 0.0313 0.7821 19.2398 1.7507 1.1980 2.0292 1.5665 0.6051 -8.6233 -10.0958 -4.8150 -19.6692 10.7342 -4.8508 1.8477 4.5556 -1.8646 4.2085 0.0000 0.0000 0.0000 -55.6454 -13.8668 24.3957 117.5631 -56.9251 -83.6239 0.0000 0.0000 -6.9167 0.0000 0.0000 0.0000 51.5556 -19.1817 31.3470 -125.3780 54.6977 -90.0927 0.0000 0.0000 3.9260
-0.2016 19.9029 0.2375 1.5704 0.5590 6.6133 0.0000 0.0000 0.0000 -19.8019 -12.5817 -12.4774 1.2276 7.0271 19.7956 0.8456 22.6137 21.5601 0.1794 2.7282 7.5228 0.0000 0.0000 0.0000 16.5862 7.3498 -13.3407 -1.1499 -6.8089 19.1503 -0.6754 -18.9169 18.6091 -0.5665 -4.8207 13.3978 -0.1923 1.3978 12.1067 1.1467 1.8900 1.4385 0.9983 0.9430 -5.3237 -10.4273 -4.4467 -15.1509 11.0394 -4.8871 4.0234 4.7360 -1.9901 4.1987 0.0000 0.0000 0.0000 -61.0973 -4.1277 26.1315 104.6292 -59.1757 -72.6342 0.0000 0.0000 -4.6886 0.0000 0.0000 0.0000 55.4635 -22.3661 35.8738 -103.5460 59.2952 -71.7034 0.0000 0.0000 -2.9029
-0.2121 21.4972 0.3791 2.4420 -0.4175 8.8254 0.0000 0.0000 0.0000 -22.2690 0.3899 -18.9760 1.3594 7.3801 20.8464 2.6410 14.0515 29.4828 0.5904 4.9196 13.6793 0.0000 0.0000 0.0000 15.5666 7.4739 -14.1743 -0.9063 -6.0666 16.9777 1.2075 -27.2879 11.0363 -1.3077 -7.2440 20.4404 -0.6734 0.7731 7.9440 0.7839 0.9973 0.9814 1.0813 0.5080 -3.4636 -11.4947 -4.6708 -16.7653 10.7999 -5.0460 7.8868 4.8212 -2.0516 5.6874 0.0000 0.0000 0.0000 -70.0483 1.7655 22.2577 88.6042 -59.9926 -58.7912 0.0000 0.0000 -1.1122 0.0000 0.0000 0.0000 61.2711 -17.8608 35.7847 -69.0639 58.2772 -41.9737 0.0000 0.0000 -2.7091
-0.2709 22.9530 0.1727 2.0974 -0.5843 6.0212 0.0000 0.0000 0.0000 -21.2935 -0.8357 -17.9724 2.2624 9.3925 27.0309 4.4912 4.9553 39.2216 0.5400 4.7083 13.0784 0.0000 0.0000 0.0000 17.6876 0.1033 -16.6658 -1.6316 -8.0524 22.8735 -0.9189 -24.5611 22.9924 -1.5554 -7.8711 22.3234 -0.5029 0.9186 12.8747 0.6171 1.1822 1.2031 0.7232 0.5980 -5.9784 -10.9235 -4.8224 -14.0761 10.0068 -5.5315 7.5454 4.4408 -2.3990 5.1534 0.0000 0.0000 0.0000 -78.5441 3.9082 17.8839 68.4804 -58.1758 -41.4776 0.0000 0.0000 -0.0688 0.0000 0.0000 0.0000 70.0969 -12.8527 28.0270 -40.0753 48.1145 -18.4953 0.0000 0.0000 6.0354
-0.2769 24.1841 -0.0136 1.2512 -3.3345 3.9155 0.0000 0.0000 0.0000 -19.7787 -0.7001 -19.4802 3.7488 11.8184 35.0926 4.5002 3.4048 39.5496 0.4598 4.3497 12.0627 0.0000 0.0000 0.0000 19.1428 -0.5459 -18.0603 -2.5870 -9.9945 28.9589 -2.7320 -17.6784 30.4988 -1.9593 -8.7808 25.1121 -0.0818 1.9554 15.9678 0.7851 2.6143 2.1220 0.3210 1.2790 -6.7239 -11.4886 -4.8391 -12.3064 9.8651 -5.5948 7.1183 4.5028 -2.5023 4.7481 0.0000 0.0000 0.0000 -85.9732 2.5605 13.0090 46.8671 -51.6511 -23.6942 0.0000 0.0000 -0.2560 0.0000 0.0000 0.0000 76.4484 -6.2097 16.5488 -22.1415 33.1366 -6.6630 0.0000 0.0000 4.8095
-0.3322 25.1991 -0.0578 1.6492 -5.3807 4.2857 0.0000 0.0000 0.0000 -19.2550 -1.6801 -21.7932 4.5756 12.8893 38.9556 3.9812 0.4292 37.8051 0.3741 3.9283 10.8750 0.0000 0.0000 0.0000 19.5758 -0.4410 -21.4704 -3.5594 -11.5498 34.1572 -2.5113 -17.2263 29.2553 -1.3880 -7.4540 21.0676 -0.8048 2.5949 15.4601 0.2474 3.3015 1.5440 0.0163 1.6262 -7.0780 -11.0368 -4.3761 -9.5784 9.4904 -5.4031 9.1917 4.3695 -2.4889 4.8846 0.0000 0.0000 0.0000 -89.1165 2.8246 10.8631 31.2877 -41.9719 -12.2618 0.0000 0.0000 -9.6413 0.0000 0.0000 0.0000 82.1518 -1.8461 -5.0934 -11.5774 19.1678 -1.9613 0.0000 0.0000 6.0173
-0.3860 25.9200 -0.1268 1.9502 -5.4034 5.0955 0.0000 0.0000 0.0000 -18.5745 -4.1442 -24.1202 5.0344 13.4224 40.9710 3.2336 -0.2169 34.1973 0.3185 3.6275 10.0310 0.0000 0.0000 0.0000 20.1706 -1.0678 -24.8441 -4.1683 -12.3811 37.0939 -1.5662 -20.0292 24.7468 -1.2956 -7.2116 20.3438 -0.9388 2.1002 14.9845 0.0875 2.6186 1.7560 0.0907 1.2971 -6.5783 -12.1842 -4.1868 -11.2168 9.8844 -4.9702 11.4637 4.7199 -2.2632 5.8582 0.0000 0.0000 0.0000 -90.8654 1.2123 9.9913 21.0011 -31.8297 -6.0505 0.0000 0.0000 -14.8247 0.0000 0.0000 0.0000 86.2854 1.4375 -30.8041 -8.0964 13.7089 -0.9748 0.0000 0.0000 25.1590
-0.4416 26.3971 -0.2074 1.6661 -5.2537 5.5633 0.0000 0.0000 0.0000 -17.3809 -5.3128 -26.3203 5.2885 13.7015 42.0547 2.4236 -0.4965 29.6672 0.1559 2.5441 7.0119 0.0000 0.0000 0.0000 21.4126 -2.0328 -27.3384 -4.4053 -12.6810 38.1858 -1.0101 -20.1081 21.4037 -1.1947 -6.9354 19.5242 -0.5882 1.8430 15.9096 -0.0961 2.3140 1.6238 -0.2730 1.1341 -7.2052 -11.6819 -4.3344 -12.1327 10.2619 -5.2445 11.9502 4.7298 -2.3242 6.1960 0.0000 0.0000 0.0000 -92.5040 0.5339 5.6552 15.4728 -24.8006 -3.4218 0.0000 0.0000 0.9761 0.0000 0.0000 0.0000 90.4932 -1.1445 -25.8198 -9.2003 15.4791 -1.2530 0.0000 0.0000 18.4748
-0.4897 26.6803 -0.2775 1.4527 -5.6775 5.9324 0.0000 0.0000 0.0000 -16.3998 -5.2881 -27.9658 5.1410 13.5408 41.4282 1.8624 0.1729 25.7847 0.2707 3.3469 9.2461 0.0000 0.0000 0.0000 22.2226 -2.1152 -28.8392 -4.3668 -12.6331 38.0102 -0.8411 -19.2433 19.9103 -1.3883 -7.4549 21.0703 -1.1820 1.7591 16.1877 0.3457 2.1277 1.9448 0.5718 1.0649 -7.0524 -12.2789 -4.0039 -10.8108 10.0808 -4.7063 10.2148 4.8172 -2.1304 5.3774 0.0000 0.0000 0.0000 -94.8383 1.2018 4.3164 14.0464 -22.8011 -2.8461 0.0000 0.0000 -0.1845 0.0000 0.0000 0.0000 92.0882 -5.1725 -10.0498 -12.3979 20.3987 -2.2391 0.0000 0.0000 4.2245
-0.5192 26.7920 -0.2921 1.3495 -5.6239 6.0810 0.0000 0.0000 0.0000 -15.5995 -5.7214 -28.3244 4.7515 13.0983 39.7376 1.4075 0.4544 22.3000 0.1218 2.2497 6.1964 0.0000 0.0000 0.0000 22.6651 -2.7349 -29.3724 -4.0207 -12.1879 36.4001 -0.9474 -16.7668 19.6166 -0.9557 -6.2253 17.4397 -1.2351 1.1370 16.3827 0.6873 1.3216 2.0380 1.1418 0.6795 -7.0509 -11.7958 -3.7266 -13.7490 9.2089 -4.0792 12.4816 4.5125 -1.8077 6.4860 0.0000 0.0000 0.0000 -97.2748 3.9340 4.2440 15.4769 -24.8062 -3.4235 0.0000 0.0000 -6.6928 0.0000 0.0000 0.0000 92.0927 -9.0123 2.2444 -15.8642 25.3361 -3.5876 0.0000 0.0000 1.3630
-0.5538 26.6794 -0.3267 1.3198 -6.3918 6.4642 0.0000 0.0000 0.0000 -14.7859 -6.1241 -28.3424 4.3125 12.5650 37.7613 1.0298 -0.0416 19.2038 0.0202 0.9176 2.5221 0.0000 0.0000 0.0000 22.6331 -1.9575 -29.6489 -3.7194 -11.7774 34.9489 -1.0090 -14.9843 19.4373 -0.7925 -5.6824 15.8657 -1.0083 0.9938 16.8435 0.4220 1.1495 1.4098 0.7574 0.5923 -7.9672 -11.6958 -3.5032 -13.3175 9.2518 -3.8827 13.0764 4.5409 -1.7193 6.5774 0.0000 0.0000 0.0000 -97.4470 7.4159 6.9949 17.2392 -27.1720 -4.1960 0.0000 0.0000 -9.5708 0.0000 0.0000 0.0000 92.4399 -12.5182 10.5277 -18.3383 28.5882 -4.7100 0.0000 0.0000 2.7073
-0.5809 26.3702 -0.3359 1.2892 -7.6627 6.4526 0.0000 0.0000 0.0000 -14.1367 -6.3136 -27.6454 3.8892 12.0115 35.7727 0.8918 0.4336 17.7097 0.0525 1.4780 4.0650 0.0000 0.0000 0.0000 22.1757 -0.2201 -28.8223 -3.4354 -11.3686 33.5333 -1.0310 -12.0163 18.7871 -0.4453 -4.2817 11.8706 -0.9548 1.0016 16.1275 0.4603 1.1773 1.7900 0.7743 0.6001 -7.1615 -11.4543 -3.2213 -13.6850 8.8785 -3.4453 13.0754 4.4199 -1.5178 6.5808 0.0000 0.0000 0.0000 -97.2382 8.3933 9.9818 18.3987 -28.6646 -4.7389 0.0000 0.0000 -9.8174 0.0000 0.0000 0.0000 91.4470 -13.0500 15.9870 -19.1896 29.6536 -5.1243 0.0000 0.0000 5.0641
-0.5861 25.8828 -0.3070 1.7959 -8.3768 5.9086 0.0000 0.0000 0.0000 -14.5310 -6.3643 -26.0657 3.5024 11.4670 33.8716 0.7709 0.5337 16.4205 0.0171 0.8455 2.3238 0.0000 0.0000 0.0000 21.0355 0.2040 -27.6391 -3.1838 -10.9868 32.2352 -1.0217 -10.0619 18.3342 -0.3007 -3.5257 9.7460 -1.0641 0.9575 15.7648 0.5159 1.1092 1.5121 0.9130 0.5735 -7.2614 -10.9534 -2.4787 -12.2972 7.8531 -2.5196 13.0314 4.0910 -1.1550 6.2095 0.0000 0.0000 0.0000 -96.5225 10.8000 12.8998 19.6977 -30.2764 -5.3781 0.0000 0.0000 -10.6598 0.0000 0.0000 0.0000 90.3872 -14.8969 19.3561 -20.0717 30.7286 -5.5679 0.0000 0.0000 4.2420
-0.6014 25.1624 -0.2632 2.2031 -9.3266 5.2021 0.0000 0.0000 0.0000 -14.8840 -5.7880 -24.7716 3.3107 11.1817 32.8952 0.7407 1.6063 15.7929 0.0781 1.8024 4.9600 0.0000 0.0000 0.0000 19.9557 1.1965 -26.1559 -3.0209 -10.7289 31.3709 -0.9231 -9.8196 17.4587 -0.2936 -3.4845 9.6306 -1.0597 0.9520 15.2844 0.5555 1.1113 1.3629 0.9570 0.5759 -7.1561 -9.8671 -1.8905 -10.7438 6.6484 -1.8770 12.5783 3.5723 -0.9027 5.7173 0.0000 0.0000 0.0000 -95.4103 12.1661 14.0993 20.2564 -30.9500 -5.6626 0.0000 0.0000 -8.3624 0.0000 0.0000 0.0000 89.3413 -16.3043 21.7296 -20.9030 31.7149 -5.9988 0.0000 0.0000 1.0304
-0.6119 24.2604 -0.2095 2.4224 -9.9775 5.2696 0.0000 0.0000 0.0000 -15.3007 -4.7340 -24.5806 3.2210 11.0445 32.4300 0.6830 1.7337 15.1177 0.0172 0.8479 2.3305 0.0000 0.0000 0.0000 18.8915 2.7921 -24.8981 -2.7905 -10.3479 30.1108 -0.8880 -9.8597 17.1592 -0.3338 -3.7131 10.2709 -0.7650 1.0162 14.0077 0.8018 1.2738 1.1860 1.0336 0.6504 -6.6391 -9.6930 -1.9097 -11.6831 6.3594 -1.8148 13.0945 3.4603 -0.8770 6.0312 0.0000 0.0000 0.0000 -94.2475 12.7282 15.2980 21.3069 -32.1848 -6.2126 0.0000 0.0000 -8.1999 0.0000 0.0000 0.0000 87.8983 -17.5108 23.6740 -22.1870 33.1877 -6.6879 0.0000 0.0000 -0.9727
-0.6239 23.1845 -0.1384 2.7021 -10.3019 4.5575 0.0000 0.0000 0.0000 -16.0308 -3.4370 -23.3691 3.1502 10.9343 32.0588 0.6835 1.9823 15.0684 0.0047 0.4419 1.2143 0.0000 0.0000 0.0000 17.6911 4.0895 -22.1556 -2.4152 -9.6820 27.9531 -0.9580 -9.7932 17.7547 -0.2342 -3.1146 8.5979 -0.5409 0.8125 13.1285 1.2589 1.0730 1.0815 1.4375 0.5526 -6.2605 -9.8876 -1.5757 -11.9775 6.0406 -1.2637 13.6913 3.4447 -0.6488 6.2245 0.0000 0.0000 0.0000 -93.2439 13.4659 15.6683 22.3135 -33.3295 -6.7573 0.0000 0.0000 -8.5488 0.0000 0.0000 0.0000 85.7831 -19.5153 26.1192 -24.4795 35.6672 -7.9844 0.0000 0.0000 -0.8695
-0.6384 21.9122 -0.0663 2.8341 -10.1035 3.8759 0.0000 0.0000 0.0000 -16.6241 -2.3974 -22.1068 3.0860 10.8329 31.7185 0.8087 1.7119 16.4976 0.0014 -0.2442 -0.6709 0.0000 0.0000 0.0000 16.6148 5.9003 -19.0412 -2.0917 -9.0545 25.9658 -1.1531 -9.5512 19.3381 -0.3711 -3.9130 10.8321 -0.0369 0.3968 12.2024 1.8312 0.6262 1.0057 1.8392 0.3272 -5.8119 -10.1951 -1.3907 -12.6752 5.7557 -0.8418 13.9461 3.4451 -0.4789 6.3921 0.0000 0.0000 0.0000 -92.4492 14.2115 15.4995 24.1326 -35.3042 -7.7831 0.0000 0.0000 -9.7364 0.0000 0.0000 0.0000 83.5708 -20.9957 27.6638 -27.1849 38.3550 -9.6137 0.0000 0.0000 -0.6877
-0.6585 20.4405 0.0259 3.6875 -10.0215 2.7829 0.0000 0.0000 0.0000 -18.1303 -1.0482 -20.4491 3.0189 10.7256 31.3601 1.1474 0.1671 20.2033 0.0162 -0.8220 -2.2592 0.0000 0.0000 0.0000 14.8834 8.5008 -15.6371 -1.9459 -8.7525 25.0242 -1.5242 -11.4661 22.3418 -0.9331 -6.1534 17.2301 -0.0914 0.2106 11.3046 1.9721 0.3749 0.8647 2.0589 0.2064 -5.4522 -9.8544 -1.1687 -12.6562 5.4604 -0.5599 13.8875 3.3174 -0.3479 6.3449 0.0000 0.0000 0.0000 -91.0584 15.3180 14.9352 26.0964 -37.3038 -8.9460 0.0000 0.0000 -9.2256 0.0000 0.0000 0.0000 82.2961 -22.2520 27.7706 -29.3062 40.2912 -10.9582 0.0000 0.0000 -1.4461
-0.6826 18.7562 0.0813 3.8983 -10.1542 1.9082 0.0000 0.0000 0.0000 -18.8412 -0.0018 -20.0100 3.4202 11.3460 33.4560 0.6201 -3.3757 16.4833 0.5543 -4.7692 -13.2515 0.0000 0.0000 0.0000 14.0425 12.6014 -13.2429 -2.5949 -10.0085 29.0043 -0.1105 -4.8884 6.3768 -0.5609 4.7969 -13.3302 0.0100 0.1269 10.6586 2.5285 0.3023 0.7106 2.5955 0.1744 -5.2535 -9.8890 -1.0331 -13.0662 5.4664 -0.3215 13.5721 3.3438 -0.2233 6.2955 0.0000 0.0000 0.0000 -90.0549 15.8142 14.2161 28.1946 -39.2948 -10.2467 0.0000 0.0000 -9.4415 0.0000 0.0000 0.0000 80.9096 -22.5816 27.2898 -30.3346 41.1785 -11.6293 0.0000 0.0000 -2.5427
-0.6240 17.2825 -0.0677 3.4141 -11.0961 1.5163 0.0000 0.0000 0.0000 -18.8547 0.9335 -23.4309 6.0998 14.5244 45.3811 0.2596 -10.1362 -10.7808 0.7048 -5.3659 -14.9552 0.0000 0.0000 0.0000 14.4997 14.3657 -16.9290 -5.0649 -13.4565 41.1023 -0.7515 -0.7587 -16.6707 -0.3918 4.0192 -11.1308 1.2136 0.3380 12.7005 3.0590 0.8353 0.2254 2.3989 0.4167 -6.9302 -10.0072 -1.1460 -13.2354 5.3757 -0.4028 12.6462 3.3141 -0.2566 6.0379 0.0000 0.0000 0.0000 -89.3925 15.0598 12.2782 30.3635 -41.2029 -11.6483 0.0000 0.0000 -9.7036 0.0000 0.0000 0.0000 80.3434 -20.3578 25.3422 -28.9146 39.9447 -10.7058 0.0000 0.0000 -3.3491
-0.4822 16.2169 -0.4618 2.8339 -13.0246 1.7036 0.0000 0.0000 0.0000 -18.9392 -0.2927 -30.1380 9.1309 16.8912 56.5416 1.8413 -4.5092 -24.6206 0.2870 -3.4455 -9.5216 0.0000 0.0000 0.0000 14.0302 17.9501 -27.7630 -9.5744 -17.1634 58.0560 -1.4863 -2.2489 -23.9381 -0.3503 3.8027 -10.5222 2.4458 0.7125 17.4315 3.8111 1.7779 0.5066 2.3018 0.8283 -9.3115 -9.3560 -0.9619 -17.1058 3.8646 0.3454 11.4436 2.7911 0.0734 6.2502 0.0000 0.0000 0.0000 -91.1508 9.4018 6.4054 29.1891 -40.1881 -10.8825 0.0000 0.0000 -6.3099 0.0000 0.0000 0.0000 80.5167 -9.6740 17.9808 -20.1278 30.7960 -5.5966 0.0000 0.0000 0.5106
-0.3544 15.5219 -0.8439 4.1845 -13.3094 -0.2062 0.0000 0.0000 0.0000 -20.3712 -2.6803 -33.1161 11.5888 18.2114 64.6794 2.6073 -1.0413 -30.3046 0.1290 -2.3148 -6.3765 0.0000 0.0000 0.0000 11.2064 18.0681 -34.1238 -12.9392 -18.7601 68.9366 -1.9433 -1.0723 -26.7715 -0.5043 4.5525 -12.6366 2.4332 0.9390 21.6111 3.4897 2.1188 2.5358 1.8266 0.9688 -9.3680 -8.0397 -1.1207 -19.5109 3.2129 0.1307 6.8118 2.3165 0.0733 5.1705 0.0000 0.0000 0.0000 -91.4787 2.0985 4.5960 23.5167 -34.6490 -7.4300 0.0000 0.0000 -9.9321 0.0000 0.0000 0.0000 81.5701 3.0459 -0.1978 -12.0668 19.9047 -2.1250 0.0000 0.0000 14.6877
-0.2701 15.1574 -1.2086 3.0072 -15.0185 1.4441 0.0000 0.0000 0.0000 -17.7582 -1.6847 -40.2705 13.4674 18.9445 70.5710 2.6294 -2.9263 -29.9670 0.1454 -2.4575 -6.7717 0.0000 0.0000 0.0000 10.8163 19.8581 -39.9907 -14.2589 -19.1907 72.9936 -2.0443 0.9023 -26.8040 -0.4081 4.1012 -11.3616 3.0285 1.5465 23.6315 4.4476 3.2661 2.3806 2.1768 1.4855 -10.6859 -8.0187 -1.0315 -21.6355 3.5827 0.3769 7.4007 2.4715 0.2262 5.6718 0.0000 0.0000 0.0000 -90.8231 -0.6713 9.7790 19.9196 -30.5454 -5.4904 0.0000 0.0000 -11.4220 0.0000 0.0000 0.0000 81.2368 9.6426 -12.1772 -10.3419 17.2726 -1.5749 0.0000 0.0000 21.3979
-0.2053 15.2426 -1.4828 2.8258 -15.4275 2.6997 0.0000 0.0000 0.0000 -17.5134 -0.9442 -42.5961 13.2106 18.8569 69.7783 2.4532 -4.1254 -28.6687 0.1426 -2.4337 -6.7058 0.0000 0.0000 0.0000 10.2210 19.3855 -42.2701 -13.8225 -19.0593 71.6616 -1.8567 2.6155 -25.0805 -0.3347 3.7180 -10.2846 3.3414 1.7017 25.0285 4.5960 3.6345 2.5189 2.0198 1.6313 -11.2813 -7.8612 -1.2477 -23.8139 3.9819 0.1755 6.3631 2.5577 0.1980 5.6775 0.0000 0.0000 0.0000 -90.3937 -1.7195 12.9557 20.4428 -31.1721 -5.7588 0.0000 0.0000 2.9893 0.0000 0.0000 0.0000 80.7414 14.5807 -4.5463 -11.2599 18.6856 -1.8583 0.0000 0.0000 9.8341
-0.2121 15.4964 -1.6964 2.8782 -13.6665 3.7099 0.0000 0.0000 0.0000 -17.6507 -2.4805 -42.6076 12.0650 18.4180 66.1947 2.0792 -4.9015 -26.1750 0.0470 -1.3992 -3.8481 0.0000 0.0000 0.0000 10.0496 18.5213 -42.2079 -12.6775 -18.6626 68.1208 -1.6268 2.2081 -23.5136 -0.2148 2.9839 -8.2339 3.4762 1.4037 24.9110 4.6685 3.2669 2.7827 2.1490 1.4624 -10.9064 -7.5135 -1.6974 -24.2376 3.8961 -0.4658 4.0745 2.3907 -0.0801 5.0379 0.0000 0.0000 0.0000 -90.3283 -2.3883 15.2330 21.4525 -32.3527 -6.2903 0.0000 0.0000 1.3261 0.0000 0.0000 0.0000 80.2535 15.2053 7.2537 -16.4671 26.1499 -3.8495 0.0000 0.0000 3.3505
-0.2662 15.8716 -1.8378 2.8124 -11.7148 3.9529 0.0000 0.0000 0.0000 -17.8377 -3.2420 -40.2776 10.2949 17.5724 60.4696 1.6849 -4.9239 -23.4518 0.0898 -1.9329 -5.3204 0.0000 0.0000 0.0000 10.7128 18.9052 -39.1541 -10.9389 -17.9050 62.5829 -1.3410 0.1686 -21.8522 -0.0416 1.3163 -3.6195 3.3246 1.3197 24.4407 4.8133 3.1133 2.7618 2.4553 1.4085 -10.6931 -7.5171 -2.0888 -24.0323 3.9976 -1.0064 4.0241 2.3647 -0.3368 5.0238 0.0000 0.0000 0.0000 -90.3273 -2.4487 17.1221 21.5780 -32.4968 -6.3576 0.0000 0.0000 -8.3910 0.0000 0.0000 0.0000 78.4314 14.6460 15.4647 -20.5192 31.2628 -5.7984 0.0000 0.0000 3.0525
-0.3247 16.3381 -1.8805 2.8735 -9.7358 3.8971 0.0000 0.0000 0.0000 -18.4794 -3.8948 -35.9926 8.1960 16.2616 53.2657 1.5086 -4.1800 -22.2389 0.1552 -2.5383 -6.9959 0.0000 0.0000 0.0000 11.4570 19.2644 -34.3035 -8.8867 -16.7342 55.6974 -1.2208 -0.6323 -21.1254 -0.0001 0.0736 -0.2022 3.1807 1.0827 23.1364 4.7815 2.7215 2.3714 2.6425 1.2422 -10.4277 -7.9565 -2.3081 -23.5355 4.2675 -1.2569 6.0347 2.5015 -0.4740 5.6188 0.0000 0.0000 0.0000 -90.0560 -1.2040 18.2010 21.9141 -32.8798 -6.5391 0.0000 0.0000 -8.2337 0.0000 0.0000 0.0000 77.4379 13.4554 19.5327 -23.5891 34.7268 -7.4712 0.0000 0.0000 5.5676
-0.3966 16.7714 -1.8679 2.7605 -7.5848 3.6657 0.0000 0.0000 0.0000 -18.8348 -4.3430 -31.3637 6.3449 14.7544 46.3506 1.5271 -1.1199 -23.0406 0.1720 -2.6716 -7.3658 0.0000 0.0000 0.0000 12.9145 18.3339 -28.9732 -6.8700 -15.2215 48.3810 -1.2849 -0.6744 -21.6838 -0.1686 2.6449 -7.2916 3.1513 0.9064 21.6772 4.4844 2.4097 1.8252 2.4371 1.0991 -10.2248 -7.7033 -2.6016 -22.1462 4.2731 -1.8474 7.0931 2.4012 -0.7781 5.7867 0.0000 0.0000 0.0000 -88.8833 0.7084 20.1309 22.7593 -33.8246 -7.0039 0.0000 0.0000 -2.5892 0.0000 0.0000 0.0000 77.1108 12.1469 21.2531 -25.6638 36.8748 -8.6851 0.0000 0.0000 3.8051
-0.4797 17.1113 -1.8428 2.0878 -5.4572 3.6984 0.0000 0.0000 0.0000 -18.4968 -4.0545 -27.0851 4.7869 13.1397 39.8937 1.6734 -2.0888 -23.8880 0.2228 -3.0386 -8.3862 0.0000 0.0000 0.0000 14.6687 17.4204 -24.4425 -5.2468 -13.6564 41.8782 -1.3410 -2.1197 -22.7329 -0.0876 1.9090 -5.2543 3.2254 0.7519 19.5828 4.3911 2.1324 1.2394 2.3857 0.9736 -9.7100 -8.0427 -2.9878 -20.2473 4.6268 -2.4815 7.6994 2.5071 -1.0939 5.7373 0.0000 0.0000 0.0000 -87.6948 2.4297 21.9799 23.6119 -34.7512 -7.4842 0.0000 0.0000 1.4806 0.0000 0.0000 0.0000 76.6743 10.9031 22.4452 -26.5869 37.7824 -9.2449 0.0000 0.0000 -0.3203
-0.5540 17.3720 -1.7961 1.6960 -2.8994 3.9719 0.0000 0.0000 0.0000 -18.2363 -4.5549 -23.6512 3.5120 11.4811 33.9202 1.7434 -3.1095 -24.1710 0.2438 -3.1772 -8.7726 0.0000 0.0000 0.0000 15.8665 15.4423 -21.0045 -3.9699 -12.1202 36.1586 -1.3865 -3.6695 -23.8310 -0.0446 1.3633 -3.7489 2.8626 0.5444 17.0416 4.2021 1.6615 0.5915 2.5187 0.7711 -8.9991 -8.1884 -3.2894 -18.8795 4.9880 -3.0339 8.7599 2.5967 -1.3641 5.9060 0.0000 0.0000 0.0000 -86.4694 3.9639 24.0874 24.2132 -35.3889 -7.8297 0.0000 0.0000 -1.5515 0.0000 0.0000 0.0000 76.1822 9.5420 23.3457 -27.2147 38.3832 -9.6321 0.0000 0.0000 -3.8013
-0.6317 17.5633 -1.7582 1.4292 -0.7896 3.8492 0.0000 0.0000 0.0000 -18.0627 -4.6028 -20.5514 2.7221 10.2311 29.7282 1.9025 -2.9309 -25.3305 0.2503 -3.2192 -8.8895 0.0000 0.0000 0.0000 16.8361 13.7941 -17.7566 -3.0266 -10.7380 31.4014 -1.4571 -3.7419 -24.4158 -0.0155 0.8034 -2.2081 2.1626 0.6703 15.0078 3.8896 1.5803 0.4160 2.5991 0.7607 -8.0521 -8.2598 -4.1850 -18.7447 5.3895 -4.3115 9.6270 2.5982 -1.9602 6.2601 0.0000 0.0000 0.0000 -85.4103 4.4273 25.8007 24.9857 -36.1894 -8.2815 0.0000 0.0000 -4.2583 0.0000 0.0000 0.0000 75.7757 8.3359 23.4019 -28.2121 39.3108 -10.2578 0.0000 0.0000 -3.6765
-0.6894 17.6787 -1.7312 0.7979 1.1772 3.6445 0.0000 0.0000 0.0000 -17.4185 -5.5040 -17.9339 2.1612 9.1942 26.4046 1.9821 -0.5525 -26.4897 0.2153 -2.9872 -8.2430 0.0000 0.0000 0.0000 18.0581 12.2140 -15.2319 -2.3601 -9.5789 27.6236 -1.5063 -3.8474 -24.8439 -0.0097 0.6360 -1.7478 1.8985 0.6205 13.1125 3.6080 1.3782 0.1788 2.4937 0.6714 -7.2308 -8.4495 -4.7246 -17.7939 6.0053 -5.1908 10.3703 2.7391 -2.3595 6.4298 0.0000 0.0000 0.0000 -84.6726 4.9856 25.4914 24.9385 -36.1410 -8.2536 0.0000 0.0000 -4.6083 0.0000 0.0000 0.0000 75.5876 7.2766 23.4547 -28.3396 39.4270 -10.3387 0.0000 0.0000 -2.4478
-0.7387 17.7451 -1.7183 0.4475 3.1530 3.1344 0.0000 0.0000 0.0000 -17.1137 -6.6527 -15.6304 1.7927 8.4203 23.9983 1.9875 0.2729 -26.7898 0.2712 -3.3496 -9.2536 0.0000 0.0000 0.0000 18.8225 10.7073 -13.3627 -1.9968 -8.8594 25.3565 -1.5675 -4.0384 -25.3977 -0.0106 0.6635 -1.8234 1.1680 0.4558 12.0796 3.4939 1.0170 -0.0549 2.8554 0.5207 -6.8957 -9.0346 -4.7285 -17.0372 6.7927 -5.2420 10.3949 3.0936 -2.3573 6.3567 0.0000 0.0000 0.0000 -84.5250 5.5937 25.1200 25.1312 -36.3378 -8.3675 0.0000 0.0000 -3.6224 0.0000 0.0000 0.0000 75.3579 6.3583 23.4550 -28.2124 39.3110 -10.2580 0.0000 0.0000 -2.1386
-0.7777 17.7608 -1.7368 0.0330 4.2804 2.3892 0.0000 0.0000 0.0000 -16.6975 -7.9121 -14.0560 1.6656 8.1317 23.1147 2.0153 0.3794 -27.0128 0.2848 -3.4324 -9.4851 0.0000 0.0000 0.0000 19.5735 9.9619 -12.0106 -1.7949 -8.4250 24.0127 -1.5014 -4.5167 -25.1546 -0.0087 0.6036 -1.6586 0.7463 0.5972 11.4725 3.1250 1.0979 0.1300 2.6867 0.5658 -6.3590 -8.9852 -5.0789 -16.8239 7.2595 -5.8265 10.5774 3.1739 -2.6037 6.4420 0.0000 0.0000 0.0000 -84.1566 4.6505 24.4326 24.4176 -35.6027 -7.9483 0.0000 0.0000 -3.3178 0.0000 0.0000 0.0000 75.9061 6.3011 22.2349 -27.6180 38.7622 -9.8836 0.0000 0.0000 -1.9535
