HIERARCHY
ROOT Hips
{
	OFFSET 0.00000 0.00000 0.00000
	CHANNELS 6 Xposition Yposition Zposition Zrotation Yrotation Xrotation
	JOINT LHipJoint
	{
		OFFSET 0.00000 0.00000 0.00000
		CHANNELS 3 Zrotation Yrotation Xrotation
		JOINT LeftUpLeg
		{
			OFFSET 1.41496 -1.84582 0.78394
			CHANNELS 3 Zrotation Yrotation Xrotation
			JOINT LeftLeg
			{
				OFFSET 2.58040 -7.08960 0.00000
				CHANNELS 3 Zrotation Yrotation Xrotation
				JOINT LeftFoot
				{
					OFFSET 2.64719 -7.27309 0.00000
					CHANNELS 3 Zrotation Yrotation Xrotation
					JOINT LeftToeBase
					{
						OFFSET 0.20718 -0.56921 2.20259
						CHANNELS 3 Zrotation Yrotation Xrotation
						End Site
						{
							OFFSET 0.00000 -0.00000 1.14243
						}
					}
				}
			}
		}
	}
	JOINT RHipJoint
	{
		OFFSET 0.00000 0.00000 0.00000
		CHANNELS 3 Zrotation Yrotation Xrotation
		JOINT RightUpLeg
		{
			OFFSET -1.40551 -1.84582 0.78394
			CHANNELS 3 Zrotation Yrotation Xrotation
			JOINT RightLeg
			{
				OFFSET -2.56572 -7.04926 0.00000
				CHANNELS 3 Zrotation Yrotation Xrotation
				JOINT RightFoot
				{
					OFFSET -2.57974 -7.08778 0.00000
					CHANNELS 3 Zrotation Yrotation Xrotation
					JOINT RightToeBase
					{
						OFFSET -0.26704 -0.73369 2.20815
						CHANNELS 3 Zrotation Yrotation Xrotation
						End Site
						{
							OFFSET -0.00000 -0.00000 1.16246
						}
					}
				}
			}
		}
	}
	JOINT LowerBack
	{
		OFFSET 0.00000 0.00000 0.00000
		CHANNELS 3 Zrotation Yrotation Xrotation
		JOINT Spine
		{
			OFFSET -0.04690 2.05196 -0.07017
			CHANNELS 3 Zrotation Yrotation Xrotation
			JOINT Spine1
			{
				OFFSET 0.04085 2.05260 0.00800
				CHANNELS 3 Zrotation Yrotation Xrotation
				JOINT Neck
				{
					OFFSET 0.00000 0.00000 0.00000
					CHANNELS 3 Zrotation Yrotation Xrotation
					JOINT Neck1
					{
						OFFSET -0.03582 1.80995 0.19301
						CHANNELS 3 Zrotation Yrotation Xrotation
						JOINT Head
						{
							OFFSET 0.00952 1.80195 -0.36389
							CHANNELS 3 Zrotation Yrotation Xrotation
							End Site
							{
								OFFSET 0.00392 1.85062 -0.14494
							}
						}
					}
				}
				JOINT LeftShoulder
				{
					OFFSET 0.00000 0.00000 0.00000
					CHANNELS 3 Zrotation Yrotation Xrotation
					JOINT LeftArm
					{
						OFFSET 3.55224 1.39726 -0.13667
						CHANNELS 3 Zrotation Yrotation Xrotation
						JOINT LeftForeArm
						{
							OFFSET 5.14507 -0.00000 -0.00000
							CHANNELS 3 Zrotation Yrotation Xrotation
							JOINT LeftHand
							{
								OFFSET 3.50646 -0.00000 0.00000
								CHANNELS 3 Zrotation Yrotation Xrotation
								End Site
								{
									OFFSET 0.00000 0.60000 0.00000
								}
							}
						}
					}
				}
				JOINT RightShoulder
				{
					OFFSET 0.00000 0.00000 0.00000
					CHANNELS 3 Zrotation Yrotation Xrotation
					JOINT RightArm
					{
						OFFSET -3.06467 1.61290 -0.28813
						CHANNELS 3 Zrotation Yrotation Xrotation
						JOINT RightForeArm
						{
							OFFSET -5.23200 -0.00000 -0.00000
							CHANNELS 3 Zrotation Yrotation Xrotation
							JOINT RightHand
							{
								OFFSET -3.65641 -0.00000 0.00000
								CHANNELS 3 Zrotation Yrotation Xrotation
								End Site
								{
									OFFSET 0.00000 0.60000 0.00000
								}
							}
						}
					}
				}
			}
		}
	}
}
MOTION
Frames: 60
Frame Time: 0.0333333
0.0000 15.3688 0.0000 -1.4514 0.0000 28.4429 0.0000 0.0000 0.0000 -14.6087 -11.2246 -30.6877 17.1730 19.8073 81.7088 0.0273 -0.6645 3.4418 0.0016 0.2543 0.6988 0.0000 0.0000 0.0000 20.5155 10.6344 -57.0157 -13.2949 -18.8861 70.0390 -1.9584 -3.8523 -28.0418 -5.1317 13.5306 -41.3887 5.8324 -1.5588 20.4736 5.0545 -0.7800 1.7409 2.4951 -0.7251 -9.5759 -2.8324 2.0346 -13.2539 -3.5977 1.2146 -12.8955 -0.6163 0.0455 -1.8939 -0.0000 0.0000 0.0000 -90.0550 7.4062 50.8643 85.7875 -59.9328 -56.3527 -0.0000 0.0000 -8.9523 -0.0000 0.0000 0.0000 83.6100 -19.6235 22.9530 -35.4217 45.1109 -15.1113 0.0000 -0.0000 -12.8578
-0.0643 15.2379 1.3736 -2.8846 -0.4156 27.5625 0.0000 0.0000 0.0000 -9.8770 -11.0708 -44.8954 21.6505 19.9346 94.8308 0.0295 -2.6608 -3.3384 0.0392 1.2780 3.5140 0.0000 0.0000 0.0000 22.9986 9.5321 -49.7254 -13.2006 -18.8534 69.7474 -2.4115 -3.5336 -30.7624 -5.7371 14.1686 -43.9172 6.9571 -0.2336 21.2549 5.4620 1.2033 1.9940 1.7603 0.1229 -9.6909 -3.2721 1.1842 -12.4635 -4.2393 0.0123 -13.3448 -0.7751 -0.5093 -2.1818 0.0000 0.0000 0.0000 -91.7529 9.2891 42.2823 50.7904 -53.3093 -26.8067 0.0000 0.0000 -10.1553 0.0000 0.0000 0.0000 84.3972 -8.5729 24.0504 -35.1666 44.9307 -14.9309 0.0000 0.0000 -13.4679
-0.1297 15.0478 2.8614 -4.1044 -2.3055 26.0808 0.0000 0.0000 0.0000 -6.1158 -9.7820 -59.0813 24.0712 19.5979 101.9804 0.1363 -5.6478 -7.1549 0.0154 0.8009 2.2012 0.0000 0.0000 0.0000 24.7202 8.1872 -40.2708 -12.5162 -18.6004 67.6160 -2.9364 -2.6394 -33.4210 -6.2697 14.6847 -46.0548 7.2795 1.2302 21.4162 5.1780 3.1437 2.2138 0.7005 1.0118 -9.4507 -3.2209 0.6220 -12.1673 -4.4765 -0.6435 -12.7746 -0.8699 -0.7928 -2.0449 0.0000 0.0000 0.0000 -88.3161 16.0208 36.3915 37.7183 -46.6584 -16.7604 0.0000 0.0000 -8.4741 0.0000 0.0000 0.0000 85.3852 0.1298 29.4897 -43.7189 50.1252 -21.2510 0.0000 0.0000 -13.6413
-0.2092 14.9174 4.5339 -4.5427 -4.6565 24.9349 0.0000 0.0000 0.0000 -3.4899 -9.2212 -71.8143 23.8446 19.6419 101.3058 0.1390 -9.1466 -8.6918 0.0159 -0.8131 -2.2347 0.0000 0.0000 0.0000 25.2261 6.3272 -28.9991 -10.6577 -17.7634 61.6647 -3.2267 -1.7130 -34.6517 -6.7159 15.0879 -47.7914 6.9206 2.5745 20.2178 4.1725 4.7390 2.0782 -0.6145 1.8322 -8.8268 -2.7817 0.0440 -12.0928 -4.3334 -1.2604 -11.8239 -0.9085 -1.0696 -1.7468 0.0000 0.0000 0.0000 -77.7115 29.8704 42.4931 43.0320 -49.7671 -20.7252 0.0000 0.0000 -5.0002 0.0000 0.0000 0.0000 85.3982 5.4698 38.3299 -64.7151 57.4408 -38.2908 0.0000 0.0000 -13.8947
-0.2926 14.8559 6.4101 -4.3869 -5.5232 23.8116 0.0000 0.0000 0.0000 -1.1049 -10.8665 -80.7221 21.0713 19.9725 93.1336 0.0654 -12.0431 -9.3258 0.2030 -2.9009 -8.0031 0.0000 0.0000 0.0000 25.0809 3.1327 -16.1277 -7.6812 -15.8797 51.4061 -2.7815 -0.2709 -31.7146 -7.0840 15.4022 -49.1911 6.7259 3.9699 17.8123 3.1913 6.3972 1.7496 -1.8391 2.7283 -7.6855 -2.8361 -1.2451 -12.0041 -3.7029 -2.6879 -10.4697 -0.7348 -1.7221 -1.3262 0.0000 0.0000 0.0000 -59.9818 43.8763 59.1158 58.9244 -56.0164 -33.4476 0.0000 0.0000 -2.5570 0.0000 0.0000 0.0000 82.4335 7.8265 44.8985 -96.7444 59.8274 -65.8374 0.0000 0.0000 -12.8050
-0.3563 14.8869 8.4733 -4.1962 -4.2676 22.0710 0.0000 0.0000 0.0000 0.7941 -14.2173 -83.9859 16.2369 19.6570 78.9367 0.0105 -13.3499 -9.4998 0.5156 -4.6023 -12.7777 0.0000 0.0000 0.0000 24.8115 -0.5660 -1.1546 -4.1034 -12.2967 36.7899 -1.1740 2.9850 -19.7079 -6.9668 15.3039 -48.7487 7.0649 4.9647 15.4029 2.8095 7.5804 1.7868 -2.4527 3.3927 -6.1396 -3.4704 -2.6906 -12.2561 -3.1377 -4.2748 -8.9134 -0.5145 -2.4582 -0.7831 0.0000 0.0000 0.0000 -41.5256 53.5578 75.9920 75.1574 -59.1510 -47.1826 0.0000 0.0000 -5.6534 0.0000 0.0000 0.0000 76.8409 9.6586 48.1288 -121.9990 55.7533 -87.3169 0.0000 0.0000 -11.7790
-0.3891 15.0120 10.6798 -4.9901 -2.1698 20.1202 0.0000 0.0000 0.0000 1.4917 -17.0697 -82.1421 10.8537 17.8628 62.3056 0.0172 -12.5919 -9.0616 0.7618 -5.5740 -15.5534 0.0000 0.0000 0.0000 25.0179 -2.8859 15.7228 -0.8472 -5.8706 16.4094 -0.1863 -0.9508 7.8706 -5.1753 13.5785 -41.5747 8.3246 5.3614 13.7377 2.8668 8.1097 2.0089 -2.9649 3.6964 -4.7736 -4.0465 -3.8675 -12.1838 -2.5309 -5.6154 -8.0202 -0.2890 -3.0844 -0.4867 0.0000 0.0000 0.0000 -31.3487 61.5456 83.0750 86.9849 -59.9656 -57.3891 0.0000 0.0000 -9.1868 0.0000 0.0000 0.0000 71.9322 11.3313 49.8787 -135.0786 50.7299 -97.8221 0.0000 0.0000 -8.6273
-0.4159 15.1444 12.9260 -6.5404 -0.9821 19.2205 0.0000 0.0000 0.0000 0.5984 -17.5543 -78.6643 7.4044 15.6632 50.3877 0.0396 -11.6505 -8.7278 0.9598 -6.2381 -17.4767 0.0000 0.0000 0.0000 23.9295 -6.5142 27.2197 0.0000 0.0000 0.0000 -3.8795 -10.7006 35.7451 -2.1917 9.2544 -26.5944 9.6937 5.8515 12.1001 2.6289 8.7893 1.7926 -3.8455 4.0710 -3.7892 -4.1579 -4.8276 -12.0358 -1.3252 -6.6632 -6.9264 0.0429 -3.5558 -0.1134 0.0000 0.0000 0.0000 -33.8929 67.8111 77.3001 94.6422 -59.9184 -64.0191 0.0000 0.0000 -10.9400 0.0000 0.0000 0.0000 70.8526 11.9241 52.1421 -140.5389 47.7474 -101.9607 0.0000 0.0000 -5.8439
-0.4732 15.2769 15.0868 -8.1382 -0.7331 19.0202 0.0000 0.0000 0.0000 -0.6525 -16.3239 -75.7174 7.1320 15.4420 49.3717 0.0098 -10.0505 -7.2084 1.0700 -6.5760 -18.4650 0.0000 0.0000 0.0000 26.0582 -4.3203 22.2869 -0.7397 -5.4942 15.3236 -2.8131 -14.1960 30.4282 -0.8908 6.0161 -16.8311 9.9741 6.4830 11.2270 2.3692 9.6381 1.2374 -4.2738 4.4963 -3.7009 -3.8645 -5.2538 -11.9428 -0.2472 -7.1911 -6.9188 0.3063 -3.7967 -0.0852 0.0000 0.0000 0.0000 -55.7561 68.3894 54.9717 97.8533 -59.7657 -66.7958 0.0000 0.0000 -15.3595 0.0000 0.0000 0.0000 74.1893 11.0719 55.5839 -139.0323 48.6329 -100.8376 0.0000 0.0000 -5.6614
-0.6063 15.3985 17.1132 -7.6808 0.7833 17.3285 0.0000 0.0000 0.0000 -3.6687 -15.9224 -72.2281 9.2711 16.9790 57.0229 -0.0578 -9.0760 -5.2316 0.5501 -4.7514 -13.2008 0.0000 0.0000 0.0000 26.6418 -3.5316 11.3138 -5.2496 -13.6595 41.8901 -0.3244 -15.0359 13.8391 -1.1514 6.8131 -19.1627 8.4771 5.9528 12.8499 1.8126 8.9835 0.9706 -4.2299 4.1383 -5.1136 -3.3901 -5.1400 -11.6982 0.9592 -7.1786 -8.5556 0.6383 -3.8177 -0.6045 0.0000 0.0000 0.0000 -78.2897 58.8636 34.9631 96.0652 -59.8605 -65.2501 0.0000 0.0000 -18.0786 0.0000 0.0000 0.0000 81.4859 7.8574 57.0330 -129.6101 53.1516 -93.5141 0.0000 0.0000 -4.3875
-0.7598 15.5401 19.0477 -2.9165 3.4612 14.7140 0.0000 0.0000 0.0000 -10.9918 -17.7182 -64.7073 11.1125 17.9897 63.1464 0.0994 -9.8367 -8.4697 0.0191 -0.8932 -2.4550 0.0000 0.0000 0.0000 21.8861 -3.9172 -1.2930 -13.1631 -18.8402 69.6312 0.1249 -10.0176 4.6911 -1.1794 6.8926 -19.3977 3.7615 4.5209 15.3760 0.2577 6.4751 1.3121 -3.1621 2.9729 -6.7947 -2.8450 -4.8240 -11.7676 1.9760 -6.9025 -10.0154 0.9038 -3.7420 -1.0371 0.0000 0.0000 0.0000 -87.2523 41.0157 32.2162 89.7372 -59.9997 -59.7724 0.0000 0.0000 -17.2929 0.0000 0.0000 0.0000 88.6372 2.2022 52.8399 -110.6365 58.3281 -77.7714 0.0000 0.0000 -3.4980
-0.8231 15.7275 20.8608 1.0687 6.0576 13.3897 0.0000 0.0000 0.0000 -17.2241 -19.3272 -55.1104 11.6454 18.2367 64.8603 0.6378 -10.1991 -14.9238 0.0024 0.3162 0.8688 0.0000 0.0000 0.0000 14.6671 -3.3739 -17.7477 -22.2476 -19.8784 96.5843 0.0115 -1.9059 -0.8506 -1.2200 7.0059 -19.7329 0.3713 3.1322 16.9932 -1.1259 3.9458 1.1345 -2.3422 1.7943 -8.1937 -3.1898 -4.8139 -12.8661 3.5912 -6.7296 -9.0950 1.4206 -3.6314 -0.5012 0.0000 0.0000 0.0000 -90.1248 17.5310 40.0365 83.8101 -59.8547 -54.6420 0.0000 0.0000 -15.3407 0.0000 0.0000 0.0000 91.1396 -4.2081 44.3157 -82.3607 59.7783 -53.3891 0.0000 0.0000 -9.2772
-0.8965 15.9722 22.5297 2.7528 9.9764 13.0799 0.0000 0.0000 0.0000 -20.5571 -19.7313 -45.6320 11.1437 18.0047 63.2475 1.2036 -12.1037 -20.1323 0.0088 0.6057 1.6643 0.0000 0.0000 0.0000 7.2543 -4.0127 -38.5146 -29.0724 -17.8995 117.4537 -0.0789 2.6279 -5.0417 -1.0312 6.4592 -18.1226 -0.9418 1.3254 17.9760 -1.4208 1.2732 0.4940 -1.3271 0.5516 -9.5584 -3.6115 -4.5792 -14.9386 4.8618 -6.2435 -7.0248 1.8417 -3.3097 0.5546 0.0000 0.0000 0.0000 -93.4947 -6.8387 49.7847 88.7056 -59.9937 -58.8790 0.0000 0.0000 -13.5307 0.0000 0.0000 0.0000 88.4615 -12.2832 34.6359 -63.7906 57.2382 -37.5124 0.0000 0.0000 -8.0093
-1.0402 16.3458 24.1899 3.6701 15.1249 13.3247 0.0000 0.0000 0.0000 -22.3209 -18.4349 -35.6586 9.4938 17.1152 57.7827 1.4076 -15.0884 -22.2532 0.0314 1.1432 3.1429 0.0000 0.0000 0.0000 -0.0841 -5.7075 -60.7517 -31.9065 -16.1876 127.1012 -0.1445 4.3830 -6.9714 -1.0121 6.4010 -17.9525 -2.0945 -1.1096 18.4310 -0.6944 -2.0965 -0.1687 1.0064 -0.9431 -10.5128 -3.2032 -3.5632 -16.3729 4.9825 -4.9654 -6.1163 1.8548 -2.6584 1.0338 0.0000 0.0000 0.0000 -98.3525 -26.2845 56.1240 106.8628 -58.8978 -74.5496 0.0000 0.0000 -15.3997 0.0000 0.0000 0.0000 82.3989 -22.0435 27.2543 -61.6146 56.7251 -35.6878 0.0000 0.0000 -2.7817
-1.1347 17.0339 25.9717 2.5030 18.2850 13.1586 0.0000 0.0000 0.0000 -21.2934 -16.0098 -23.8897 6.6323 15.0143 47.4696 1.1703 -14.2786 -20.4003 0.0411 -1.3088 -3.5990 0.0000 0.0000 0.0000 -5.4595 -2.0162 -77.8348 -30.7891 -16.9415 123.1835 -0.1554 3.2255 -7.0288 -1.2707 7.1447 -20.1447 -1.7688 -3.5201 18.3095 0.9077 -5.0118 -0.9414 3.3733 -2.2448 -11.0894 -2.6457 -2.2169 -16.6911 4.5190 -3.2620 -5.1752 1.7069 -1.7992 1.3079 0.0000 0.0000 0.0000 -97.8482 -39.5800 55.5059 128.1690 -53.7078 -92.3568 0.0000 0.0000 -20.7812 0.0000 0.0000 0.0000 72.8563 -29.9100 26.2267 -60.5170 56.4461 -34.7716 0.0000 0.0000 -2.9050
-1.1291 18.0404 27.9051 0.2276 17.1350 11.9311 0.0000 0.0000 0.0000 -19.8890 -13.3935 -9.9111 3.4736 11.4249 33.7265 0.2776 -6.5365 -9.7768 1.0092 -6.3920 -17.9262 0.0000 0.0000 0.0000 -9.8475 5.6837 -85.7700 -26.2615 -19.0328 108.5957 -0.1758 -0.1346 -7.9687 -1.5722 7.9116 -22.4458 -0.6694 -4.5611 18.3200 2.6078 -5.9777 -1.5860 4.9330 -2.6821 -11.6874 -2.8519 -1.2774 -16.2073 3.5125 -1.8797 -3.7840 1.5057 -1.0747 1.6251 0.0000 0.0000 0.0000 -87.6331 -48.3437 45.5486 140.4126 -47.8235 -101.8672 0.0000 0.0000 -26.6361 0.0000 0.0000 0.0000 62.1452 -35.3072 29.5728 -51.7118 53.6630 -27.5472 0.0000 0.0000 2.2601
-1.1067 19.1617 29.9395 -1.5247 14.1845 10.8167 0.0000 0.0000 0.0000 -19.0745 -8.9067 0.8485 1.5691 7.9040 22.4229 0.1766 8.5627 8.9763 0.6042 -4.9757 -13.8393 0.0000 0.0000 0.0000 -12.2039 12.0144 -87.6191 -19.5401 -19.9949 88.6553 -0.1253 -3.4082 -8.8309 -1.8417 8.5282 -24.3303 0.7190 -4.7637 17.7961 3.6938 -5.8695 -1.9778 5.3135 -2.6901 -11.8649 -3.4025 -0.6502 -16.1095 2.3851 -0.7784 -1.5586 1.3185 -0.4857 2.3192 0.0000 0.0000 0.0000 -72.8124 -50.9066 32.0972 143.3002 -45.9884 -103.9763 0.0000 0.0000 -24.1489 0.0000 0.0000 0.0000 54.7672 -37.8431 33.1201 -38.9138 47.4130 -17.6353 0.0000 0.0000 4.7228
-1.1499 20.2241 31.9737 -1.1295 13.6169 10.7679 0.0000 0.0000 0.0000 -18.2944 -2.3246 5.3497 1.1569 6.8287 19.2088 1.1588 14.6502 20.4207 0.0015 0.2532 0.6958 0.0000 0.0000 0.0000 -12.7064 13.0822 -85.7995 -12.6368 -18.6471 67.9937 0.0135 -6.8253 -9.4002 -1.8197 8.4801 -24.1820 1.2467 -5.4201 15.6978 3.7909 -6.7034 -1.9030 5.0792 -3.1718 -10.5580 -3.3503 -0.1782 -16.9143 1.6122 -0.0106 0.4520 1.1289 -0.0998 3.1389 0.0000 0.0000 0.0000 -62.1330 -47.2977 24.6520 142.5298 -46.4976 -103.4198 0.0000 0.0000 -20.1256 0.0000 0.0000 0.0000 52.6791 -37.6330 32.2946 -27.9739 39.0922 -10.1072 0.0000 0.0000 2.8943
-1.2678 21.1027 33.9604 2.0740 15.5442 10.0459 0.0000 0.0000 0.0000 -19.4858 0.2386 9.2711 1.7453 8.3142 23.6725 2.3380 9.3386 27.4915 0.1009 2.0486 5.6399 0.0000 0.0000 0.0000 -13.4545 10.6128 -79.9404 -7.1679 -15.4716 49.5064 0.2303 -9.9415 -9.1910 -1.8211 8.4830 -24.1911 -0.9227 -6.1586 14.3549 3.0006 -8.1634 -1.1672 5.4756 -3.8476 -8.6932 -3.0394 -0.2244 -17.2011 1.0033 -0.0521 1.2015 0.8718 -0.1366 3.4561 0.0000 0.0000 0.0000 -58.1697 -40.6643 23.7924 140.5422 -47.7454 -101.9631 0.0000 0.0000 -18.1020 0.0000 0.0000 0.0000 55.0759 -37.5810 23.3725 -20.8455 31.6476 -5.9687 0.0000 0.0000 1.1732
-1.3906 21.7231 35.9622 6.3247 17.5464 8.0801 0.0000 0.0000 0.0000 -21.4942 1.3222 13.5838 3.1998 11.0117 32.3194 2.6804 3.1474 30.2197 0.1940 2.8364 7.8236 0.0000 0.0000 0.0000 -15.0854 8.1576 -71.8973 -3.8034 -11.8941 35.3583 0.4696 -12.3890 -7.7181 -2.0334 8.9354 -25.5934 -4.8191 -6.2816 14.3546 2.0772 -9.0606 -0.2345 6.6757 -4.2332 -7.1553 -3.5764 -0.7529 -16.6573 0.4602 -0.5690 1.8756 0.7455 -0.4081 3.6039 0.0000 0.0000 0.0000 -57.7671 -32.6833 24.7071 137.2859 -49.5982 -99.5173 0.0000 0.0000 -17.0430 0.0000 0.0000 0.0000 58.6450 -38.9247 8.8297 -17.4566 27.4558 -4.2957 0.0000 0.0000 -2.6907
-1.4970 22.1519 38.0203 8.4819 18.6930 5.5519 0.0000 0.0000 0.0000 -20.7601 3.0239 17.3608 5.2066 13.6128 41.7080 2.5687 -0.0745 30.4073 0.1859 2.7768 7.6578 0.0000 0.0000 0.0000 -14.7083 7.0455 -64.6729 -2.1823 -9.2359 26.5362 0.6625 -14.2708 -6.3164 -1.9858 8.8364 -25.2849 -7.2035 -6.1061 14.1010 1.7527 -9.2373 0.3553 7.5551 -4.3420 -6.0404 -4.2793 -1.1608 -15.7787 -0.4915 -0.8625 3.0621 0.5298 -0.5987 3.8635 0.0000 0.0000 0.0000 -57.1723 -24.4960 24.7813 133.3987 -51.5293 -96.5141 0.0000 0.0000 -17.5284 0.0000 0.0000 0.0000 59.8777 -41.2042 -2.1400 -16.4236 26.0916 -3.8304 0.0000 0.0000 -8.4075
-1.6100 22.4170 40.1172 8.0760 19.6783 3.0818 0.0000 0.0000 0.0000 -16.8660 3.9397 19.9807 7.5549 15.7819 50.9431 2.5205 0.2605 30.0143 0.0896 1.9302 5.3128 0.0000 0.0000 0.0000 -11.7749 6.3070 -59.3628 -1.5946 -7.9649 22.6076 0.8315 -15.8974 -5.8485 -1.6333 8.0564 -22.8857 -7.1930 -6.2237 13.0319 1.8282 -9.3088 0.5437 7.4601 -4.4388 -5.2231 -4.5953 -1.2844 -15.4923 -0.9981 -0.8301 5.4137 0.3559 -0.6257 4.1267 0.0000 0.0000 0.0000 -54.5457 -16.5827 23.9041 131.2138 -52.4941 -94.7920 0.0000 0.0000 -17.0673 0.0000 0.0000 0.0000 58.3952 -44.1525 -5.8434 -16.2017 25.7933 -3.7333 0.0000 0.0000 -10.6875
-1.7468 22.5016 42.2179 6.8568 21.3082 1.4133 0.0000 0.0000 0.0000 -12.2121 2.6978 21.1050 9.9829 17.4002 59.4312 2.8512 2.1633 31.4311 0.0780 1.8021 4.9592 0.0000 0.0000 0.0000 -9.7033 6.0543 -54.8669 -1.4136 -7.5198 21.2647 1.1756 -18.8088 -5.7867 -1.1547 6.8227 -19.1910 -6.4981 -6.8512 11.2911 1.8455 -9.9160 0.3494 6.9205 -4.7880 -4.4764 -3.9340 -1.0543 -15.2833 -1.3443 -0.5369 7.3354 0.1645 -0.4997 4.6853 0.0000 0.0000 0.0000 -49.6027 -8.1546 21.8401 132.2235 -52.0584 -95.5907 0.0000 0.0000 -14.6338 0.0000 0.0000 0.0000 55.0535 -46.5993 -5.6090 -16.3470 25.9889 -3.7967 0.0000 0.0000 -9.9420
-1.9007 22.3870 44.2986 6.2695 23.2053 0.1280 0.0000 0.0000 0.0000 -8.5952 0.2381 21.5828 12.1817 18.4664 66.5636 3.3050 3.7212 33.5865 0.1396 2.4081 6.6349 0.0000 0.0000 0.0000 -10.1267 7.3760 -49.4855 -1.2765 -7.1603 20.1911 1.7107 -22.6428 -5.0685 -0.6410 5.1220 -14.2569 -6.6899 -7.4500 9.9128 1.5791 -10.6475 -0.0319 6.6244 -5.1555 -4.0202 -3.3265 -0.8797 -14.8684 -1.2800 -0.3845 9.0525 0.0996 -0.4152 5.1524 0.0000 0.0000 0.0000 -43.5602 0.8155 19.4870 134.8948 -50.8199 -97.6797 0.0000 0.0000 -14.4023 0.0000 0.0000 0.0000 50.4443 -48.0669 -4.8023 -17.0256 26.8915 -4.0989 0.0000 0.0000 -11.3254
-2.0516 22.0668 46.3554 6.5537 24.5147 -1.2807 0.0000 0.0000 0.0000 -6.3058 -1.9959 22.1263 14.0485 19.1287 72.3526 3.3416 3.2394 33.8787 0.1525 2.5160 6.9339 0.0000 0.0000 0.0000 -11.3870 9.9316 -43.2170 -1.0863 -6.6240 18.6062 2.1279 -25.5389 -3.1079 -0.3738 3.9268 -10.8707 -8.0677 -7.5097 9.4776 1.0081 -10.8767 -0.4305 6.7445 -5.2255 -4.0294 -3.1379 -0.9925 -14.2474 -0.7544 -0.6325 10.8168 0.2123 -0.5111 5.6077 0.0000 0.0000 0.0000 -36.9508 9.4764 18.0340 136.6133 -49.9532 -99.0037 0.0000 0.0000 -16.0467 0.0000 0.0000 0.0000 44.6755 -49.1059 -2.9305 -18.4046 28.6721 -4.7418 0.0000 0.0000 -13.8030
-2.1721 21.5507 48.3839 7.3251 25.0460 -2.4462 0.0000 0.0000 0.0000 -5.0580 -3.5538 22.1447 15.7497 19.5613 77.4851 2.8465 1.1013 31.6794 0.1607 2.5827 7.1190 0.0000 0.0000 0.0000 -11.7143 11.9273 -37.5292 -0.8967 -6.0354 16.8871 2.1128 -26.4968 0.2851 -0.3556 3.8310 -10.6017 -9.7542 -7.1018 9.2342 0.2931 -10.5562 -0.8982 6.8804 -4.9982 -4.2903 -3.4149 -1.3068 -13.5946 -0.0437 -1.1411 12.6027 0.4348 -0.7481 6.0747 0.0000 0.0000 0.0000 -29.5707 17.3487 18.3245 136.6930 -49.9116 -99.0646 0.0000 0.0000 -17.7081 0.0000 0.0000 0.0000 37.4008 -49.7150 1.2084 -20.0803 30.7389 -5.5723 0.0000 0.0000 -14.6842
-2.2596 20.8528 50.3863 7.5657 24.7492 -3.5062 0.0000 0.0000 0.0000 -3.7163 -4.3311 21.1074 17.5224 19.8522 82.7388 1.9449 -1.8802 27.0918 0.1455 2.4580 6.7731 0.0000 0.0000 0.0000 -10.0226 12.6269 -33.1646 -0.8008 -5.7114 15.9494 2.2224 -28.4871 3.4250 -0.2780 3.3910 -9.3692 -10.5058 -6.4020 8.5583 -0.2150 -9.6879 -1.3054 6.6368 -4.5283 -4.4755 -4.2263 -1.6710 -13.0522 0.5670 -1.6390 14.0850 0.7135 -1.0188 6.4760 0.0000 0.0000 0.0000 -21.8760 24.3012 20.4769 135.9099 -50.3149 -98.4638 0.0000 0.0000 -19.1246 0.0000 0.0000 0.0000 29.4082 -49.5460 6.5855 -22.0393 33.0214 -6.6072 0.0000 0.0000 -15.0071
-2.3143 19.9802 52.3523 7.7773 24.0931 -4.5548 0.0000 0.0000 0.0000 -2.9793 -4.6039 18.8731 19.5783 19.9957 88.7669 0.8562 -5.1601 20.0885 0.0766 1.7856 4.9134 0.0000 0.0000 0.0000 -6.6986 10.3886 -30.5246 -0.9517 -6.2126 17.4025 2.4972 -32.4245 7.8196 -0.0249 1.0194 -2.8022 -10.6818 -5.4782 7.6837 -0.6059 -8.4012 -1.3401 6.1365 -3.9064 -4.2910 -5.2570 -2.0508 -12.7690 0.8940 -2.0560 14.8454 0.9457 -1.2736 6.6979 0.0000 0.0000 0.0000 -16.0128 30.2109 23.1186 134.6008 -50.9626 -97.4516 0.0000 0.0000 -18.3544 0.0000 0.0000 0.0000 22.5632 -48.7456 11.1894 -24.5583 35.7491 -8.0304 0.0000 0.0000 -14.8168
-2.3638 18.9351 54.2555 8.0612 23.5399 -5.6135 0.0000 0.0000 0.0000 -2.4774 -4.4822 14.2456 22.1868 19.8850 96.4056 -0.0155 -8.2607 11.4614 0.0090 0.6124 1.6828 0.0000 0.0000 0.0000 -3.5357 7.2939 -28.4296 -1.4625 -7.6429 21.6347 1.1876 -32.4432 16.6167 -0.0474 -1.4044 3.8623 -10.6066 -4.2944 7.2556 -0.8269 -6.7598 -0.9874 5.6967 -3.1324 -3.9993 -6.0984 -2.5465 -12.7168 0.8099 -2.5605 14.9123 1.0061 -1.5741 6.7400 0.0000 0.0000 0.0000 -14.9534 34.9936 24.4051 132.9079 -51.7532 -96.1293 0.0000 0.0000 -13.9112 0.0000 0.0000 0.0000 18.3725 -47.7692 13.7765 -27.1732 38.3439 -9.6064 0.0000 0.0000 -14.0491
-2.4524 17.7904 56.0626 6.8042 23.2178 -7.0267 0.0000 0.0000 0.0000 0.5148 -3.6586 5.2531 25.3299 19.3048 105.7591 -0.3849 -10.9926 2.6885 0.0031 -0.3583 -0.9846 0.0000 0.0000 0.0000 -0.4288 8.3463 -25.9404 -2.6102 -10.0355 29.0917 -0.5864 -22.3091 19.7710 -0.3173 3.6211 -10.0129 -9.2696 -2.9532 8.2542 -0.4236 -4.9119 -0.5762 5.3104 -2.2254 -4.5079 -6.8054 -3.2268 -13.0910 0.8397 -3.3000 14.5286 1.0545 -1.9483 6.7228 0.0000 0.0000 0.0000 -20.6880 39.0643 23.4653 132.0725 -52.1246 -95.4715 0.0000 0.0000 -8.2823 0.0000 0.0000 0.0000 18.1467 -45.6544 13.6130 -28.2105 39.3093 -10.2568 0.0000 0.0000 -11.8372
-2.5443 16.7237 57.5671 -0.4113 21.7050 -10.0909 0.0000 0.0000 0.0000 9.6641 -0.5193 -10.2181 28.4642 18.1875 115.4902 -0.3387 -13.8541 -4.8860 0.0312 -1.1403 -3.1350 0.0000 0.0000 0.0000 9.7417 9.2388 -26.8496 -5.4672 -13.8914 42.8040 0.1509 -8.0168 1.4746 -1.7308 8.2812 -23.5716 -2.0439 -1.6685 12.2499 1.6254 -2.4396 -0.5433 3.3250 -1.0953 -7.3020 -6.6300 -4.0028 -12.9910 0.6812 -4.3203 12.7330 0.8913 -2.3921 6.1623 0.0000 0.0000 0.0000 -35.4496 42.3489 20.6167 132.6882 -51.8520 -95.9566 0.0000 0.0000 -5.6451 0.0000 0.0000 0.0000 24.2942 -39.5108 7.7338 -25.6368 36.8478 -8.6689 0.0000 0.0000 -9.1089
-2.5657 15.8491 58.6400 -8.7579 19.0915 -13.0223 0.0000 0.0000 0.0000 11.3507 0.6546 -30.6307 29.8157 17.5122 119.8975 0.0664 -13.6243 -10.3554 0.0790 -1.8133 -4.9901 0.0000 0.0000 0.0000 20.4430 9.1269 -30.5381 -9.3944 -17.0549 57.4442 -0.3666 -4.4008 -13.9124 -1.1375 6.7732 -19.0452 6.5255 -0.9320 18.2634 4.3838 0.2787 0.1878 1.0465 -0.1991 -10.0770 -6.1117 -4.7024 -14.0501 0.7331 -5.2412 9.7203 0.7494 -2.7440 5.4023 0.0000 0.0000 0.0000 -62.2178 39.6437 14.0846 125.9620 -54.4997 -90.5688 0.0000 0.0000 -4.9390 0.0000 0.0000 0.0000 35.4058 -25.1659 -5.1831 -20.0788 30.7372 -5.5716 0.0000 0.0000 -5.9446
-2.5812 15.2558 59.6366 -9.8834 18.3659 -13.8193 0.0000 0.0000 0.0000 -0.1587 -9.7555 -46.2497 26.8890 18.8219 110.5302 0.4305 -9.0920 -12.4415 0.1315 -2.3374 -6.4390 0.0000 0.0000 0.0000 22.7326 7.2589 -32.5606 -12.6089 -18.6364 67.9062 -1.2038 -2.0162 -21.5433 -1.8061 8.4500 -24.0895 7.0327 0.0533 22.7406 5.4913 1.9527 1.4860 1.5522 0.4869 -11.0743 -5.7046 -5.2491 -14.0531 1.2532 -6.1143 6.4584 0.8114 -3.0930 4.4124 0.0000 0.0000 0.0000 -83.9612 28.1384 11.7060 100.0265 -59.6167 -68.6720 0.0000 0.0000 -13.7731 0.0000 0.0000 0.0000 45.3641 -8.2138 -10.7630 -15.6560 25.0520 -3.4990 0.0000 0.0000 -1.3850
-2.5217 14.9311 60.6956 -10.3947 14.9171 -12.7545 0.0000 0.0000 0.0000 -3.8294 -16.2805 -54.5944 19.8036 19.9991 89.4257 0.4115 -9.0189 -12.2004 0.1661 -2.6258 -7.2387 0.0000 0.0000 0.0000 25.3019 7.0452 -32.6162 -14.5874 -19.2826 73.9908 -2.1750 0.4576 -27.7967 -1.9982 8.8623 -25.3657 8.2251 1.6282 24.3401 5.5293 4.3480 2.1632 0.1401 1.4991 -11.0158 -5.7075 -5.9004 -14.3508 3.0306 -7.1316 5.2721 1.2808 -3.4843 4.1918 0.0000 0.0000 0.0000 -93.3038 19.4991 16.3577 75.5724 -59.1987 -47.5389 0.0000 0.0000 -22.5719 0.0000 0.0000 0.0000 55.0011 3.6236 9.0932 -17.5800 27.6160 -4.3528 0.0000 0.0000 -1.0141
-2.4523 14.8867 61.8204 -9.1614 10.7456 -10.4010 0.0000 0.0000 0.0000 -4.2670 -18.8198 -56.2945 11.2746 18.0669 63.6701 0.0221 -11.6173 -8.4624 0.2794 -3.4000 -9.3943 0.0000 0.0000 0.0000 26.0052 6.7608 -31.2561 -15.5959 -19.5285 77.0253 -3.0502 3.6822 -32.2141 -1.9063 8.6680 -24.7623 7.3711 3.4630 24.0742 4.7477 6.4288 2.4282 -0.9076 2.5359 -10.4561 -6.2140 -6.4297 -14.7094 4.5563 -7.8590 3.9081 1.7733 -3.7791 3.9415 0.0000 0.0000 0.0000 -95.4572 17.5343 27.7419 71.1402 -58.6124 -43.7430 0.0000 0.0000 -18.9963 0.0000 0.0000 0.0000 64.3063 11.2866 32.9153 -28.8859 39.9191 -10.6874 0.0000 0.0000 0.2396
-2.3555 14.7915 63.0509 -8.1664 8.1728 -9.2500 0.0000 0.0000 0.0000 -1.7862 -23.2658 -53.4155 6.3649 14.7728 46.4290 0.0189 -7.9090 -5.9336 0.4302 -4.2094 -11.6664 0.0000 0.0000 0.0000 25.9755 4.8214 -29.5297 -17.0829 -19.7948 81.4430 -3.5117 5.9818 -34.2914 -2.2172 9.3046 -26.7528 5.9829 4.3084 22.8570 4.3961 7.0537 2.6286 -0.6349 2.9427 -9.6631 -6.2229 -6.2619 -14.8170 3.9203 -7.5821 3.2510 1.6116 -3.6852 3.7135 0.0000 0.0000 0.0000 -94.0886 18.4695 40.2573 79.2919 -59.5623 -50.7402 0.0000 0.0000 -18.4613 0.0000 0.0000 0.0000 73.0434 15.5506 50.1546 -48.4693 52.3592 -24.9568 0.0000 0.0000 2.8840
-2.1983 14.6502 64.3162 -7.6695 6.0531 -9.8276 0.0000 0.0000 0.0000 -1.4736 -24.4730 -50.2604 5.6689 14.0996 43.6380 -0.0363 -3.3798 1.1013 0.5520 -4.7595 -13.2237 0.0000 0.0000 0.0000 25.2470 2.9798 -26.9861 -19.1171 -19.9813 87.4177 -3.0172 9.0433 -31.3883 -2.8158 10.3907 -30.2513 5.4132 4.4652 21.7458 4.2956 7.0198 2.7997 -0.3360 2.9887 -8.9317 -5.9851 -5.8748 -14.7629 3.2639 -7.0567 4.0367 1.4087 -3.4496 3.8888 0.0000 0.0000 0.0000 -91.1156 19.2182 49.9709 90.0720 -60.0000 -60.0624 0.0000 0.0000 -18.6735 0.0000 0.0000 0.0000 81.3834 16.3689 62.7277 -71.7360 58.7013 -44.2519 0.0000 0.0000 6.3348
-2.0355 14.5373 65.5214 -6.7888 5.5545 -10.9423 0.0000 0.0000 0.0000 -3.9203 -23.1814 -50.2239 7.3085 15.5862 50.0315 0.2298 -3.7805 11.2558 0.3900 -4.0100 -11.1047 0.0000 0.0000 0.0000 22.7122 1.9004 -24.4310 -20.9051 -19.9803 92.6472 -1.5783 14.4366 -23.2245 -2.5250 9.8832 -28.5993 4.4680 3.9289 21.4230 4.0261 6.1279 2.5020 0.1513 2.6126 -9.1885 -5.5033 -5.4350 -14.4542 3.1648 -6.5580 5.3366 1.3360 -3.1901 4.2029 0.0000 0.0000 0.0000 -88.5356 18.6430 55.3591 96.5115 -59.8392 -65.6361 0.0000 0.0000 -12.3718 0.0000 0.0000 0.0000 87.7715 13.8372 71.1482 -93.4630 59.9546 -62.9986 0.0000 0.0000 8.4428
-1.8697 14.5055 66.6185 -6.6166 5.4287 -12.0291 0.0000 0.0000 0.0000 -5.4544 -22.1066 -50.9004 10.0012 17.4105 59.4922 -0.0570 -7.0627 8.5903 0.1418 -2.4266 -6.6861 0.0000 0.0000 0.0000 21.0805 2.5381 -22.1493 -21.9778 -19.9060 95.7914 0.2534 18.5127 -10.6116 -1.0500 6.5160 -18.2892 4.5424 3.2095 21.0806 3.9480 5.1848 2.4147 0.3044 2.1695 -9.1011 -5.2723 -5.1479 -14.5963 3.3426 -6.2313 6.2567 1.3686 -3.0062 4.4969 0.0000 0.0000 0.0000 -87.4372 15.8461 56.7094 96.1352 -59.8573 -65.3107 0.0000 0.0000 -4.9466 0.0000 0.0000 0.0000 89.6831 9.6677 74.7811 -110.0564 58.4241 -77.2774 0.0000 0.0000 8.8081
-1.6711 14.6376 67.5767 -6.0824 4.0829 -12.7657 0.0000 0.0000 0.0000 -7.2258 -20.6326 -48.8788 11.7929 18.3017 65.3309 -0.2248 -8.3815 2.6645 0.0811 -1.8365 -5.0542 0.0000 0.0000 0.0000 19.6425 4.1904 -21.1153 -22.6031 -19.8368 97.6310 0.8648 16.2315 5.0134 -0.0909 1.9449 -5.3534 4.8630 2.8126 20.5136 3.7094 4.6800 2.4251 0.0292 1.9298 -8.7415 -5.0841 -4.8423 -15.2432 3.6336 -5.8790 7.6548 1.4330 -2.7959 5.0263 0.0000 0.0000 0.0000 -87.9689 12.6067 53.9414 89.5322 -59.9992 -59.5949 0.0000 0.0000 -1.6989 0.0000 0.0000 0.0000 87.8269 5.5714 74.2168 -117.1338 57.0265 -83.2640 0.0000 0.0000 5.7073
-1.4781 14.8958 68.3805 -4.3926 3.0716 -12.2824 0.0000 0.0000 0.0000 -10.1831 -19.7630 -46.1437 12.3467 18.5334 67.0836 -0.1325 -7.7491 -1.7637 0.0560 -1.5276 -4.2018 0.0000 0.0000 0.0000 16.4939 4.2517 -23.5908 -23.2619 -19.7430 99.5765 -0.0256 9.8795 14.4886 -0.1088 2.1267 -5.8559 3.9042 2.2772 19.7015 3.1599 3.7926 1.8611 0.2251 1.5679 -8.9703 -4.6399 -4.2068 -15.7331 3.6468 -5.1314 9.1747 1.4171 -2.4033 5.5407 0.0000 0.0000 0.0000 -89.4422 11.1370 48.3435 82.3812 -59.7795 -53.4068 0.0000 0.0000 -1.7227 0.0000 0.0000 0.0000 84.2995 1.9987 70.5899 -114.0802 57.6914 -80.6924 0.0000 0.0000 1.7752
-1.3255 15.2438 69.0505 -3.3830 2.3887 -11.2377 0.0000 0.0000 0.0000 -12.2889 -18.9681 -43.4642 12.1538 18.4549 66.4754 -0.0266 -7.4062 -4.5636 0.0344 -1.1976 -3.2927 0.0000 0.0000 0.0000 14.8720 2.2450 -27.8380 -23.3069 -19.7358 99.7097 0.0852 6.3895 6.3297 -1.1073 6.6857 -18.7876 3.3901 1.4255 18.8709 2.8460 2.5872 1.2603 0.5059 1.0337 -9.2041 -3.9719 -3.3482 -16.7328 3.2462 -4.0607 10.4864 1.2694 -1.8732 6.0533 0.0000 0.0000 0.0000 -90.8154 10.8547 42.2863 77.4239 -59.3939 -49.1310 0.0000 0.0000 -2.7051 0.0000 0.0000 0.0000 80.9651 -0.3959 65.0020 -100.9020 59.5461 -69.4270 0.0000 0.0000 -0.6745
-1.2022 15.6435 69.6110 -2.7101 1.5345 -10.1985 0.0000 0.0000 0.0000 -13.8870 -18.0410 -40.3470 11.4483 18.1476 64.2292 0.0692 -7.0307 -6.4259 0.0185 -0.8789 -2.4157 0.0000 0.0000 0.0000 15.1946 0.2373 -31.8568 -21.9338 -19.9101 95.6623 -0.1078 2.3315 -5.8330 -2.0569 8.9836 -25.7440 3.1805 0.7236 18.3765 2.6829 1.6288 0.8782 0.7019 0.5952 -9.3622 -3.1634 -2.6334 -17.7993 2.3978 -3.1404 11.2727 0.9502 -1.4520 6.4192 0.0000 0.0000 0.0000 -91.4454 10.3891 37.6964 71.6549 -58.6894 -44.1826 0.0000 0.0000 -4.2899 0.0000 0.0000 0.0000 79.0534 -1.7455 57.4774 -78.7796 59.5189 -50.2986 0.0000 0.0000 -2.5344
-1.1038 16.0507 70.1037 -1.9485 0.2885 -9.2642 0.0000 0.0000 0.0000 -15.3985 -17.4287 -36.8357 10.4847 17.6736 61.0965 0.1708 -5.9268 -7.8853 0.0120 -0.7074 -1.9440 0.0000 0.0000 0.0000 16.1753 -0.0986 -34.5045 -19.1717 -19.9835 87.5775 -0.4299 0.4682 -12.2313 -2.3569 9.5729 -27.6045 2.8369 0.4652 18.0967 2.5288 1.2201 0.6672 0.8360 0.4208 -9.4459 -2.6420 -2.2126 -18.6791 1.7115 -2.5760 11.7307 0.6972 -1.2097 6.6794 0.0000 0.0000 0.0000 -91.0980 9.4613 35.2352 64.1280 -57.3132 -37.7963 0.0000 0.0000 -5.9849 0.0000 0.0000 0.0000 78.7667 -2.4667 47.5078 -56.8002 55.3952 -31.6926 0.0000 0.0000 -1.5103
-1.0459 16.4328 70.5755 -1.3547 -0.7439 -8.1733 0.0000 0.0000 0.0000 -16.6068 -17.3769 -33.5167 9.4847 17.1097 57.7518 0.2588 -4.4878 -9.1088 0.0074 -0.5539 -1.5220 0.0000 0.0000 0.0000 17.2228 0.7357 -35.3155 -15.4642 -19.4994 76.6311 -0.7567 1.9989 -15.8770 -2.9388 10.5954 -30.9271 2.3112 0.4631 17.3574 2.5481 1.1093 0.5101 1.1844 0.4033 -9.2159 -2.6246 -2.0042 -19.4784 1.2955 -2.2137 12.1989 0.5927 -1.0689 6.9503 0.0000 0.0000 0.0000 -90.1322 8.4652 34.7412 56.4782 -55.2960 -31.4278 0.0000 0.0000 -6.6544 0.0000 0.0000 0.0000 79.0036 -2.9539 35.9467 -41.8451 49.1259 -19.8234 0.0000 0.0000 1.1457
-1.0328 16.7578 71.0392 -1.1425 -1.0983 -7.0494 0.0000 0.0000 0.0000 -17.3807 -17.5084 -30.6285 8.6091 16.5495 54.7283 0.3294 -3.5088 -10.2033 0.0042 -0.4198 -1.1534 0.0000 0.0000 0.0000 18.0799 2.3398 -34.0493 -11.5886 -18.2113 64.6788 -0.9572 4.0736 -17.5726 -3.3764 11.2808 -33.2327 1.8047 0.4048 16.0748 2.7512 0.9295 0.3635 1.7336 0.3554 -8.6672 -2.5954 -1.8114 -19.5913 0.6896 -1.8590 12.3480 0.4296 -0.9549 7.0046 0.0000 0.0000 0.0000 -88.9545 7.8811 35.3915 50.2720 -53.1046 -26.3915 0.0000 0.0000 -6.8674 0.0000 0.0000 0.0000 78.8055 -3.3659 25.2718 -32.5847 43.0084 -13.1379 0.0000 0.0000 -1.0117
-1.0580 17.0248 71.4990 -0.9664 -0.4691 -6.1998 0.0000 0.0000 0.0000 -18.2142 -17.5968 -27.8207 7.8562 16.0125 52.0432 0.3951 -3.5040 -11.1888 0.0006 -0.1646 -0.4521 0.0000 0.0000 0.0000 18.2570 4.3401 -30.7178 -8.3929 -16.4008 53.9660 -0.7793 4.6438 -15.7601 -3.0154 10.7199 -31.3411 1.2781 0.0551 14.3694 2.7941 0.3488 0.2721 2.1945 0.1094 -7.7991 -2.4290 -1.5901 -19.0779 0.2375 -1.5469 12.4613 0.2938 -0.8422 6.9469 0.0000 0.0000 0.0000 -87.5097 7.9900 36.3134 46.1702 -51.3290 -23.1488 0.0000 0.0000 -6.6980 0.0000 0.0000 0.0000 78.2383 -3.6805 16.3272 -25.9878 37.1967 -8.8803 0.0000 0.0000 0.1418
-1.1009 17.2184 71.9460 -0.7440 1.1628 -5.5115 0.0000 0.0000 0.0000 -19.0861 -17.5944 -25.4930 7.2970 15.5770 49.9890 0.4515 -4.7760 -11.9610 0.0044 0.4265 1.1719 0.0000 0.0000 0.0000 18.1958 5.5075 -26.6535 -6.4670 -14.8661 46.8283 -0.5654 3.2365 -13.4690 -1.6962 8.2023 -23.3304 0.8440 -0.5757 12.5115 2.6221 -0.5765 0.0479 2.4096 -0.3140 -6.9621 -2.3541 -1.4345 -18.5195 0.1067 -1.3560 13.2024 0.2618 -0.7669 7.0925 0.0000 0.0000 0.0000 -86.0565 8.6494 36.9174 43.2608 -49.8874 -20.9000 0.0000 0.0000 -5.4081 0.0000 0.0000 0.0000 77.2930 -4.4177 9.3892 -20.8635 31.6686 -5.9781 0.0000 0.0000 6.8055
-1.1455 17.3532 72.3545 -0.7542 3.3227 -4.9070 0.0000 0.0000 0.0000 -19.5324 -17.3797 -23.8719 6.9283 15.2713 48.6028 0.4707 -6.9314 -12.4195 0.0256 1.0337 2.8416 0.0000 0.0000 0.0000 18.6165 5.3342 -23.0067 -5.4519 -13.8753 42.7401 -0.6233 1.6230 -14.4464 -0.9247 6.1261 -17.1508 0.6640 -1.2110 11.0334 2.5239 -1.4468 -0.3710 2.5258 -0.7236 -6.5402 -2.4287 -1.4324 -18.1120 -0.1548 -1.3192 14.4544 0.1898 -0.7968 7.4339 0.0000 0.0000 0.0000 -85.2570 9.4936 37.0381 41.0258 -48.6660 -19.2060 0.0000 0.0000 -3.2145 0.0000 0.0000 0.0000 75.9821 -6.0047 4.9186 -17.1204 27.0163 -4.1419 0.0000 0.0000 10.0479
-1.1775 17.4773 72.7078 -1.6296 4.9714 -4.2847 0.0000 0.0000 0.0000 -18.7500 -17.1174 -22.8229 6.6629 15.0413 47.5876 0.4698 -8.8922 -12.8317 0.0692 1.6967 4.6681 0.0000 0.0000 0.0000 20.0104 5.2388 -20.6274 -4.8038 -13.1593 39.9679 -0.6302 -0.7909 -15.3044 -0.7730 5.6138 -15.6680 1.3745 -1.5416 10.1729 2.8015 -1.7867 -0.9370 2.4587 -0.9078 -6.6540 -2.5036 -1.5011 -17.9735 -0.9489 -1.2853 15.9857 -0.0650 -0.8975 7.9145 0.0000 0.0000 0.0000 -85.6160 10.1359 36.0843 38.8358 -47.3648 -17.5779 0.0000 0.0000 -0.0479 0.0000 0.0000 0.0000 74.9745 -8.2523 1.1178 -14.7443 23.7886 -3.1221 0.0000 0.0000 9.7930
-1.1949 17.5898 73.0265 -2.3830 5.5166 -3.4507 0.0000 0.0000 0.0000 -17.9001 -16.9287 -22.0266 6.4222 14.8254 46.6535 0.5126 -9.8132 -13.5517 0.1213 2.2456 6.1849 0.0000 0.0000 0.0000 21.1952 5.5379 -19.2700 -4.3949 -12.6681 38.1384 -0.6126 -2.3302 -15.8118 -0.6604 5.1974 -14.4725 1.9760 -1.3933 9.3153 3.1334 -1.5224 -1.4144 2.4138 -0.7990 -6.6882 -2.5614 -1.5409 -18.2061 -1.8806 -1.1694 17.5912 -0.3701 -0.9901 8.4919 0.0000 0.0000 0.0000 -86.9735 10.1839 33.6503 36.2109 -45.6577 -15.6731 0.0000 0.0000 3.0802 0.0000 0.0000 0.0000 74.8806 -10.5031 -3.7810 -13.5004 22.0160 -2.6379 0.0000 0.0000 9.5659
-1.2193 17.6750 73.3275 -1.8022 5.8840 -2.5192 0.0000 0.0000 0.0000 -18.5213 -16.8105 -21.1017 6.1291 14.5523 45.4976 0.5658 -10.1706 -14.2020 0.1473 2.4732 6.8153 0.0000 0.0000 0.0000 20.8447 5.7393 -18.3574 -4.1648 -12.3765 37.0773 -0.6619 -2.8338 -16.6544 -0.5675 4.8247 -13.4093 1.1366 -1.1134 8.3602 2.9870 -1.2563 -1.7003 2.6692 -0.6324 -6.4368 -2.5718 -1.5666 -18.4504 -2.3615 -1.1231 19.0034 -0.5451 -1.0681 9.0175 0.0000 0.0000 0.0000 -88.5613 9.9095 30.1689 33.5603 -43.7563 -13.8080 0.0000 0.0000 4.6237 0.0000 0.0000 0.0000 76.0339 -12.3660 -9.1888 -13.0300 21.3311 -2.4642 0.0000 0.0000 9.7657
-1.2520 17.7360 73.6041 -1.4687 6.5927 -1.8434 0.0000 0.0000 0.0000 -18.8550 -16.7707 -20.2690 5.9172 14.3476 44.6483 0.5980 -10.8066 -14.7045 0.1673 2.6352 7.2646 0.0000 0.0000 0.0000 20.7664 5.7979 -17.3689 -3.9891 -12.1459 36.2501 -0.7476 -3.4087 -17.9164 -0.5198 4.6207 -12.8297 0.5248 -1.0428 7.7209 2.7957 -1.2352 -1.8317 2.7932 -0.5980 -6.2018 -2.6857 -1.5932 -18.6698 -2.3491 -1.1512 20.2648 -0.5450 -1.1305 9.4976 0.0000 0.0000 0.0000 -89.9650 9.7323 26.5489 31.2793 -41.9650 -12.2562 0.0000 0.0000 4.2966 0.0000 0.0000 0.0000 78.0802 -13.5836 -13.7827 -13.0118 21.3045 -2.4576 0.0000 0.0000 9.4185
-1.2786 17.7788 73.8597 -1.8977 7.2646 -1.2646 0.0000 0.0000 0.0000 -18.2759 -16.8614 -19.7860 5.8397 14.2711 44.3348 0.6455 -11.5130 -15.3672 0.1842 2.7639 7.6222 0.0000 0.0000 0.0000 21.5160 5.6910 -16.4652 -3.7899 -11.8755 35.2929 -0.8275 -3.9655 -19.0642 -0.5403 4.7094 -13.0816 0.7477 -1.1044 7.2151 2.7705 -1.3077 -1.9192 2.6373 -0.6443 -6.0075 -2.7105 -1.5438 -18.7823 -2.3146 -1.1143 21.3671 -0.5411 -1.1512 9.9086 0.0000 0.0000 0.0000 -90.9454 9.7572 23.7225 29.3795 -40.3555 -11.0056 0.0000 0.0000 2.9280 0.0000 0.0000 0.0000 80.3704 -14.0138 -16.8439 -13.1645 21.5278 -2.5133 0.0000 0.0000 8.3937
-1.2984 17.8099 74.1033 -2.2287 7.5818 -0.5424 0.0000 0.0000 0.0000 -17.7699 -17.0031 -19.5416 5.8021 14.2337 44.1820 0.7243 -11.8352 -16.1777 0.1962 2.8521 7.8673 0.0000 0.0000 0.0000 22.1173 5.5579 -15.9589 -3.6363 -11.6600 34.5395 -0.9102 -4.2816 -20.0595 -0.6229 5.0505 -14.0527 0.8654 -1.1391 6.6757 2.7361 -1.3561 -2.0423 2.5274 -0.6745 -5.8305 -2.6162 -1.3971 -18.8330 -2.3941 -0.9597 22.3992 -0.5801 -1.1231 10.2875 0.0000 0.0000 0.0000 -91.4856 10.0508 22.1785 27.8871 -39.0121 -10.0525 0.0000 0.0000 1.5683 0.0000 0.0000 0.0000 82.4998 -13.9216 -17.6735 -13.3762 21.8359 -2.5915 0.0000 0.0000 7.1074
-1.3189 17.8310 74.3315 -2.2671 7.4910 0.2403 0.0000 0.0000 0.0000 -17.5653 -17.0554 -19.3924 5.7712 14.2028 44.0562 0.8278 -11.7650 -17.0583 0.1969 2.8573 7.8816 0.0000 0.0000 0.0000 22.3987 5.6668 -15.6844 -3.5550 -11.5434 34.1352 -1.0115 -4.4775 -21.1159 -0.7319 5.4660 -15.2425 0.5765 -1.0764 6.3247 2.6685 -1.3029 -2.1900 2.6065 -0.6377 -5.7824 -2.5572 -1.2150 -18.8834 -2.4430 -0.7515 23.3055 -0.5933 -1.0676 10.6267 0.0000 0.0000 0.0000 -91.7346 10.4880 21.3657 26.4673 -37.6664 -9.1717 0.0000 0.0000 1.9500 0.0000 0.0000 0.0000 84.3354 -13.5361 -16.2881 -13.6078 22.1713 -2.6783 0.0000 0.0000 6.5532
-1.3313 17.8413 74.5470 -2.2032 7.1185 1.0441 0.0000 0.0000 0.0000 -17.4949 -17.1607 -19.3073 5.7659 14.1976 44.0349 0.9628 -11.3625 -18.0919 0.1741 2.6878 7.4107 0.0000 0.0000 0.0000 22.5185 5.8694 -15.5963 -3.5268 -11.5026 33.9943 -1.1357 -4.4287 -22.1811 -0.8565 5.9018 -16.4998 0.2201 -0.9380 6.0777 2.5847 -1.1509 -2.2994 2.6984 -0.5493 -5.7569 -2.4826 -1.0409 -18.8715 -2.5027 -0.5428 23.8113 -0.6057 -0.9966 10.8105 0.0000 0.0000 0.0000 -91.8369 10.9253 20.7480 25.0865 -36.2923 -8.3411 0.0000 0.0000 4.2947 0.0000 0.0000 0.0000 85.9039 -12.9181 -13.0018 -13.9452 22.6564 -2.8070 0.0000 0.0000 6.5702
-1.3289 17.8408 74.7573 -2.1646 6.5213 1.8381 0.0000 0.0000 0.0000 -17.4751 -17.4218 -19.1941 5.7920 14.2237 44.1412 1.1436 -10.6037 -19.4048 0.1348 2.3663 6.5190 0.0000 0.0000 0.0000 22.5700 5.9639 -15.6718 -3.5322 -11.5104 34.0213 -1.2806 -4.0276 -23.1696 -1.0214 6.4295 -18.0357 0.0276 -0.7455 5.8871 2.4937 -0.9130 -2.3613 2.6827 -0.4251 -5.7218 -2.3613 -0.8791 -18.7727 -2.5675 -0.3480 23.8946 -0.6217 -0.9103 10.8219 0.0000 0.0000 0.0000 -91.9151 11.3254 20.4194 23.8627 -35.0187 -7.6276 0.0000 0.0000 6.5188 0.0000 0.0000 0.0000 87.2230 -12.0168 -8.5240 -14.3690 23.2597 -2.9723 0.0000 0.0000 6.6206
-1.3174 17.8331 74.9644 -2.2831 5.7410 2.5908 0.0000 0.0000 0.0000 -17.3246 -17.5520 -19.1414 5.8464 14.2778 44.3620 1.3434 -9.8297 -20.8454 0.1058 2.0969 5.7736 0.0000 0.0000 0.0000 22.7508 6.1373 -15.7336 -3.5415 -11.5239 34.0679 -1.4084 -3.7361 -24.0362 -1.2359 7.0497 -19.8627 0.0445 -0.5139 5.8312 2.4463 -0.6038 -2.3940 2.5903 -0.2734 -5.7388 -2.2071 -0.7261 -18.6920 -2.6359 -0.1601 23.7517 -0.6417 -0.8136 10.7533 0.0000 0.0000 0.0000 -91.9990 11.6886 20.5282 22.8923 -33.9709 -7.0780 0.0000 0.0000 7.3645 0.0000 0.0000 0.0000 88.3013 -10.8022 -3.4350 -14.8885 23.9905 -3.1805 0.0000 0.0000 6.1782
-1.2944 17.8229 75.1809 -2.3751 5.0070 3.3233 0.0000 0.0000 0.0000 -17.2771 -17.4366 -19.0800 5.8965 14.3273 44.5648 1.5316 -9.3630 -22.1944 0.0960 1.9985 5.5014 0.0000 0.0000 0.0000 22.8554 6.1239 -15.7494 -3.5455 -11.5298 34.0881 -1.5291 -3.5746 -24.8798 -1.5226 7.7915 -22.0826 0.1370 -0.2993 5.7328 2.3883 -0.3133 -2.3562 2.4445 -0.1347 -5.6562 -2.0516 -0.6066 -18.6689 -2.7264 -0.0025 23.4711 -0.6724 -0.7264 10.6458 0.0000 0.0000 0.0000 -92.0967 11.8843 20.7768 22.0828 -33.0705 -6.6310 0.0000 0.0000 7.6832 0.0000 0.0000 0.0000 89.1585 -9.4699 2.2833 -15.6820 25.0875 -3.5100 0.0000 0.0000 5.0243
