HIERARCHY
ROOT Hips
{
	OFFSET 0.00000 0.00000 0.00000
	CHANNELS 6 Xposition Yposition Zposition Zrotation Yrotation Xrotation
	JOINT LHipJoint
	{
		OFFSET 0.00000 0.00000 0.00000
		CHANNELS 3 Zrotation Yrotation Xrotation
		JOINT LeftUpLeg
		{
			OFFSET 1.57358 -1.76629 0.73362
			CHANNELS 3 Zrotation Yrotation Xrotation
			JOINT LeftLeg
			{
				OFFSET 2.40600 -6.61045 0.00000
				CHANNELS 3 Zrotation Yrotation Xrotation
				JOINT LeftFoot
				{
					OFFSET 2.66168 -7.31291 0.00000
					CHANNELS 3 Zrotation Yrotation Xrotation
					JOINT LeftToeBase
					{
						OFFSET 0.20870 -0.57341 2.12506
						CHANNELS 3 Zrotation Yrotation Xrotation
						End Site
						{
							OFFSET 0.00000 -0.00000 1.10557
						}
					}
				}
			}
		}
	}
	JOINT RHipJoint
	{
		OFFSET 0.00000 0.00000 0.00000
		CHANNELS 3 Zrotation Yrotation Xrotation
		JOINT RightUpLeg
		{
			OFFSET -1.49299 -1.76629 0.73362
			CHANNELS 3 Zrotation Yrotation Xrotation
			JOINT RightLeg
			{
				OFFSET -2.43663 -6.69460 0.00000
				CHANNELS 3 Zrotation Yrotation Xrotation
				JOINT RightFoot
				{
					OFFSET -2.62959 -7.22474 0.00000
					CHANNELS 3 Zrotation Yrotation Xrotation
					JOINT RightToeBase
					{
						OFFSET -0.25784 -0.70841 2.21862
						CHANNELS 3 Zrotation Yrotation Xrotation
						End Site
						{
							OFFSET -0.00000 -0.00000 1.16452
						}
					}
				}
			}
		}
	}
	JOINT LowerBack
	{
		OFFSET 0.00000 0.00000 0.00000
		CHANNELS 3 Zrotation Yrotation Xrotation
		JOINT Spine
		{
			OFFSET -0.00034 2.12399 -0.25450
			CHANNELS 3 Zrotation Yrotation Xrotation
			JOINT Spine1
			{
				OFFSET 0.05594 2.14379 -0.03318
				CHANNELS 3 Zrotation Yrotation Xrotation
				JOINT Neck
				{
					OFFSET 0.00000 0.00000 0.00000
					CHANNELS 3 Zrotation Yrotation Xrotation
					JOINT Neck1
					{
						OFFSET -0.09835 1.62725 0.24211
						CHANNELS 3 Zrotation Yrotation Xrotation
						JOINT Head
						{
							OFFSET 0.10849 1.66041 -0.22648
							CHANNELS 3 Zrotation Yrotation Xrotation
							End Site
							{
								OFFSET 0.04385 1.68267 -0.10541
							}
						}
					}
				}
				JOINT LeftShoulder
				{
					OFFSET 0.00000 0.00000 0.00000
					CHANNELS 3 Zrotation Yrotation Xrotation
					JOINT LeftArm
					{
						OFFSET 3.29108 0.79398 -0.68179
						CHANNELS 3 Zrotation Yrotation Xrotation
						JOINT LeftForeArm
						{
							OFFSET 5.15310 -0.00000 -0.00000
							CHANNELS 3 Zrotation Yrotation Xrotation
							JOINT LeftHand
							{
								OFFSET 3.75138 -0.00000 -0.00000
								CHANNELS 3 Zrotation Yrotation Xrotation
								End Site
								{
									OFFSET 0.00000 0.60000 0.00000
								}
							}
						}
					}
				}
				JOINT RightShoulder
				{
					OFFSET 0.00000 0.00000 0.00000
					CHANNELS 3 Zrotation Yrotation Xrotation
					JOINT RightArm
					{
						OFFSET -3.07414 1.06285 -0.44338
						CHANNELS 3 Zrotation Yrotation Xrotation
						JOINT RightForeArm
						{
							OFFSET -5.29613 -0.00000 0.00000
							CHANNELS 3 Zrotation Yrotation Xrotation
							JOINT RightHand
							{
								OFFSET -3.76144 -0.00000 -0.00000
								CHANNELS 3 Zrotation Yrotation Xrotation
								End Site
								{
									OFFSET 0.00000 0.60000 0.00000
								}
							}
						}
					}
				}
			}
		}
	}
}
MOTION
Frames: 25
Frame Time: 0.0333333
0.0000 26.7920 0.0000 1.3430 0.0000 6.2133 0.0000 0.0000 0.0000 -15.5995 -5.7214 -28.3244 4.7515 13.0983 39.7376 1.4075 0.4544 22.3000 0.1218 2.2497 6.1964 0.0000 0.0000 0.0000 22.6651 -2.7349 -29.3724 -4.0207 -12.1879 36.4001 -0.9474 -16.7668 19.6166 -0.9557 -6.2253 17.4397 -1.2351 1.1370 16.3827 0.6873 1.3216 2.0380 1.1418 0.6795 -7.0509 -11.7958 -3.7266 -13.7490 9.2089 -4.0792 12.4816 4.5125 -1.8077 6.4860 0.0000 0.0000 0.0000 -97.2748 3.9340 4.2440 15.4769 -24.8062 -3.4235 -0.0000 0.0000 -6.6928 0.0000 0.0000 0.0000 92.0927 -9.0123 2.2444 -15.8642 25.3361 -3.5876 0.0000 0.0000 1.3630
-0.0378 26.6794 -0.0311 1.3117 -0.7678 6.5935 0.0000 0.0000 0.0000 -14.7859 -6.1241 -28.3424 4.3125 12.5650 37.7613 1.0298 -0.0416 19.2038 0.0202 0.9176 2.5221 0.0000 0.0000 0.0000 22.6331 -1.9575 -29.6489 -3.7194 -11.7774 34.9489 -1.0090 -14.9843 19.4373 -0.7925 -5.6824 15.8657 -1.0083 0.9938 16.8435 0.4220 1.1495 1.4098 0.7574 0.5923 -7.9672 -11.6958 -3.5032 -13.3175 9.2518 -3.8827 13.0764 4.5409 -1.7193 6.5774 0.0000 0.0000 0.0000 -97.4470 7.4159 6.9949 17.2392 -27.1720 -4.1960 0.0000 0.0000 -9.5708 0.0000 0.0000 0.0000 92.4399 -12.5182 10.5277 -18.3383 28.5882 -4.7100 0.0000 0.0000 2.7073
-0.0656 26.3702 -0.0375 1.2785 -2.0386 6.5790 0.0000 0.0000 0.0000 -14.1367 -6.3136 -27.6454 3.8892 12.0115 35.7727 0.8918 0.4336 17.7097 0.0525 1.4780 4.0650 0.0000 0.0000 0.0000 22.1757 -0.2201 -28.8223 -3.4354 -11.3686 33.5333 -1.0310 -12.0163 18.7871 -0.4453 -4.2817 11.8706 -0.9548 1.0016 16.1275 0.4603 1.1773 1.7900 0.7743 0.6001 -7.1615 -11.4543 -3.2213 -13.6850 8.8785 -3.4453 13.0754 4.4199 -1.5178 6.5808 0.0000 0.0000 0.0000 -97.2382 8.3933 9.9818 18.3987 -28.6646 -4.7389 0.0000 0.0000 -9.8174 0.0000 0.0000 0.0000 91.4470 -13.0500 15.9870 -19.1896 29.6536 -5.1243 0.0000 0.0000 5.0641
-0.0680 25.8828 -0.0083 1.7788 -2.7541 6.0848 0.0000 0.0000 0.0000 -14.5310 -6.3643 -26.0657 3.5024 11.4670 33.8716 0.7709 0.5337 16.4205 0.0171 0.8455 2.3238 0.0000 0.0000 0.0000 21.0355 0.2040 -27.6391 -3.1838 -10.9868 32.2352 -1.0217 -10.0619 18.3342 -0.3007 -3.5257 9.7460 -1.0641 0.9575 15.7648 0.5159 1.1092 1.5121 0.9130 0.5735 -7.2614 -10.9534 -2.4787 -12.2972 7.8531 -2.5196 13.0314 4.0910 -1.1550 6.2095 0.0000 0.0000 0.0000 -96.5225 10.8000 12.8998 19.6977 -30.2764 -5.3781 0.0000 0.0000 -10.6598 0.0000 0.0000 0.0000 90.3872 -14.8969 19.3561 -20.0717 30.7286 -5.5679 0.0000 0.0000 4.2420
-0.0789 25.1624 0.0368 2.1785 -3.7052 5.4185 0.0000 0.0000 0.0000 -14.8840 -5.7880 -24.7716 3.3107 11.1817 32.8952 0.7407 1.6063 15.7929 0.0781 1.8024 4.9600 0.0000 0.0000 0.0000 19.9557 1.1965 -26.1559 -3.0209 -10.7289 31.3709 -0.9231 -9.8196 17.4587 -0.2936 -3.4845 9.6306 -1.0597 0.9520 15.2844 0.5555 1.1113 1.3629 0.9570 0.5759 -7.1561 -9.8671 -1.8905 -10.7438 6.6484 -1.8770 12.5783 3.5723 -0.9027 5.7173 0.0000 0.0000 0.0000 -95.4103 12.1661 14.0993 20.2564 -30.9500 -5.6626 0.0000 0.0000 -8.3624 0.0000 0.0000 0.0000 89.3413 -16.3043 21.7296 -20.9030 31.7149 -5.9988 0.0000 0.0000 1.0304
-0.0841 24.2604 0.0913 2.3926 -4.3570 5.5077 0.0000 0.0000 0.0000 -15.3007 -4.7340 -24.5806 3.2210 11.0445 32.4300 0.6830 1.7337 15.1177 0.0172 0.8479 2.3305 0.0000 0.0000 0.0000 18.8915 2.7921 -24.8981 -2.7905 -10.3479 30.1108 -0.8880 -9.8597 17.1592 -0.3338 -3.7131 10.2709 -0.7650 1.0162 14.0077 0.8018 1.2738 1.1860 1.0336 0.6504 -6.6391 -9.6930 -1.9097 -11.6831 6.3594 -1.8148 13.0945 3.4603 -0.8770 6.0312 0.0000 0.0000 0.0000 -94.2475 12.7282 15.2980 21.3069 -32.1848 -6.2126 0.0000 0.0000 -8.1999 0.0000 0.0000 0.0000 87.8983 -17.5108 23.6740 -22.1870 33.1877 -6.6879 0.0000 0.0000 -0.9727
-0.0891 23.1845 0.1632 2.6674 -4.6826 4.8231 0.0000 0.0000 0.0000 -16.0308 -3.4370 -23.3691 3.1502 10.9343 32.0588 0.6835 1.9823 15.0684 0.0047 0.4419 1.2143 0.0000 0.0000 0.0000 17.6911 4.0895 -22.1556 -2.4152 -9.6820 27.9531 -0.9580 -9.7932 17.7547 -0.2342 -3.1146 8.5979 -0.5409 0.8125 13.1285 1.2589 1.0730 1.0815 1.4375 0.5526 -6.2605 -9.8876 -1.5757 -11.9775 6.0406 -1.2637 13.6913 3.4447 -0.6488 6.2245 0.0000 0.0000 0.0000 -93.2439 13.4659 15.6683 22.3135 -33.3295 -6.7573 0.0000 0.0000 -8.5488 0.0000 0.0000 0.0000 85.7831 -19.5153 26.1192 -24.4795 35.6672 -7.9844 0.0000 0.0000 -0.8695
-0.0964 21.9122 0.2364 2.7987 -4.4848 4.1545 0.0000 0.0000 0.0000 -16.6241 -2.3974 -22.1068 3.0860 10.8329 31.7185 0.8087 1.7119 16.4976 0.0014 -0.2442 -0.6709 0.0000 0.0000 0.0000 16.6148 5.9003 -19.0412 -2.0917 -9.0545 25.9658 -1.1531 -9.5512 19.3381 -0.3711 -3.9130 10.8321 -0.0369 0.3968 12.2024 1.8312 0.6262 1.0057 1.8392 0.3272 -5.8119 -10.1951 -1.3907 -12.6752 5.7557 -0.8418 13.9461 3.4451 -0.4789 6.3921 0.0000 0.0000 0.0000 -92.4492 14.2115 15.4995 24.1326 -35.3042 -7.7831 0.0000 0.0000 -9.7364 0.0000 0.0000 0.0000 83.5708 -20.9957 27.6638 -27.1849 38.3550 -9.6137 0.0000 0.0000 -0.6877
-0.1074 20.4405 0.3301 3.6419 -4.4075 3.1451 0.0000 0.0000 0.0000 -18.1303 -1.0482 -20.4491 3.0189 10.7256 31.3601 1.1474 0.1671 20.2033 0.0162 -0.8220 -2.2592 0.0000 0.0000 0.0000 14.8834 8.5008 -15.6371 -1.9459 -8.7525 25.0242 -1.5242 -11.4661 22.3418 -0.9331 -6.1534 17.2301 -0.0914 0.2106 11.3046 1.9721 0.3749 0.8647 2.0589 0.2064 -5.4522 -9.8544 -1.1687 -12.6562 5.4604 -0.5599 13.8875 3.3174 -0.3479 6.3449 0.0000 0.0000 0.0000 -91.0584 15.3180 14.9352 26.0964 -37.3038 -8.9460 0.0000 0.0000 -9.2256 0.0000 0.0000 0.0000 82.2961 -22.2520 27.7706 -29.3062 40.2912 -10.9582 0.0000 0.0000 -1.4461
-0.1260 18.7562 0.3877 3.8493 -4.5416 2.2913 0.0000 0.0000 0.0000 -18.8412 -0.0018 -20.0100 3.4202 11.3460 33.4560 0.6201 -3.3757 16.4833 0.5543 -4.7692 -13.2515 0.0000 0.0000 0.0000 14.0425 12.6014 -13.2429 -2.5949 -10.0085 29.0043 -0.1105 -4.8884 6.3768 -0.5609 4.7969 -13.3302 0.0100 0.1269 10.6586 2.5285 0.3023 0.7106 2.5955 0.1744 -5.2535 -9.8890 -1.0331 -13.0662 5.4664 -0.3215 13.5721 3.3438 -0.2233 6.2955 0.0000 0.0000 0.0000 -90.0549 15.8142 14.2161 28.1946 -39.2948 -10.2467 0.0000 0.0000 -9.4415 0.0000 0.0000 0.0000 80.9096 -22.5816 27.2898 -30.3346 41.1785 -11.6293 0.0000 0.0000 -2.5427
-0.0822 17.2825 0.2336 3.3656 -5.4804 1.8523 0.0000 0.0000 0.0000 -18.8547 0.9335 -23.4309 6.0998 14.5244 45.3811 0.2596 -10.1362 -10.7808 0.7048 -5.3659 -14.9552 0.0000 0.0000 0.0000 14.4997 14.3657 -16.9290 -5.0649 -13.4565 41.1023 -0.7515 -0.7587 -16.6707 -0.3918 4.0192 -11.1308 1.2136 0.3380 12.7005 3.0590 0.8353 0.2254 2.3989 0.4167 -6.9302 -10.0072 -1.1460 -13.2354 5.3757 -0.4028 12.6462 3.3141 -0.2566 6.0379 0.0000 0.0000 0.0000 -89.3925 15.0598 12.2782 30.3635 -41.2029 -11.6483 0.0000 0.0000 -9.7036 0.0000 0.0000 0.0000 80.3434 -20.3578 25.3422 -28.9146 39.9447 -10.7058 0.0000 0.0000 -3.3491
0.0203 16.2169 -0.1725 2.7842 -7.4059 1.9836 0.0000 0.0000 0.0000 -18.9392 -0.2927 -30.1380 9.1309 16.8912 56.5416 1.8413 -4.5092 -24.6206 0.2870 -3.4455 -9.5216 0.0000 0.0000 0.0000 14.0302 17.9501 -27.7630 -9.5744 -17.1634 58.0560 -1.4863 -2.2489 -23.9381 -0.3503 3.8027 -10.5222 2.4458 0.7125 17.4315 3.8111 1.7779 0.5066 2.3018 0.8283 -9.3115 -9.3560 -0.9619 -17.1058 3.8646 0.3454 11.4436 2.7911 0.0734 6.2502 0.0000 0.0000 0.0000 -91.1508 9.4018 6.4054 29.1891 -40.1881 -10.8825 0.0000 0.0000 -6.3099 0.0000 0.0000 0.0000 80.5167 -9.6740 17.9808 -20.1278 30.7960 -5.5966 0.0000 0.0000 0.5106
0.1100 15.5219 -0.5653 4.1090 -7.6986 0.2074 0.0000 0.0000 0.0000 -20.3712 -2.6803 -33.1161 11.5888 18.2114 64.6794 2.6073 -1.0413 -30.3046 0.1290 -2.3148 -6.3765 0.0000 0.0000 0.0000 11.2064 18.0681 -34.1238 -12.9392 -18.7601 68.9366 -1.9433 -1.0723 -26.7715 -0.5043 4.5525 -12.6366 2.4332 0.9390 21.6111 3.4897 2.1188 2.5358 1.8266 0.9688 -9.3680 -8.0397 -1.1207 -19.5109 3.2129 0.1307 6.8118 2.3165 0.0733 5.1705 0.0000 0.0000 0.0000 -91.4787 2.0985 4.5960 23.5167 -34.6490 -7.4300 0.0000 0.0000 -9.9321 0.0000 0.0000 0.0000 81.5701 3.0459 -0.1978 -12.0668 19.9047 -2.1250 0.0000 0.0000 14.6877
0.1581 15.1574 -0.9365 2.9439 -9.4006 1.7428 0.0000 0.0000 0.0000 -17.7582 -1.6847 -40.2705 13.4674 18.9445 70.5710 2.6294 -2.9263 -29.9670 0.1454 -2.4575 -6.7717 0.0000 0.0000 0.0000 10.8163 19.8581 -39.9907 -14.2589 -19.1907 72.9936 -2.0443 0.9023 -26.8040 -0.4081 4.1012 -11.3616 3.0285 1.5465 23.6315 4.4476 3.2661 2.3806 2.1768 1.4855 -10.6859 -8.0187 -1.0315 -21.6355 3.5827 0.3769 7.4007 2.4715 0.2262 5.6718 0.0000 0.0000 0.0000 -90.8231 -0.6713 9.7790 19.9196 -30.5454 -5.4904 0.0000 0.0000 -11.4220 0.0000 0.0000 0.0000 81.2368 9.6426 -12.1772 -10.3419 17.2726 -1.5749 0.0000 0.0000 21.3979
0.1957 15.2426 -1.2157 2.7644 -9.8087 2.9807 0.0000 0.0000 0.0000 -17.5134 -0.9442 -42.5961 13.2106 18.8569 69.7783 2.4532 -4.1254 -28.6687 0.1426 -2.4337 -6.7058 0.0000 0.0000 0.0000 10.2210 19.3855 -42.2701 -13.8225 -19.0593 71.6616 -1.8567 2.6155 -25.0805 -0.3347 3.7180 -10.2846 3.3414 1.7017 25.0285 4.5960 3.6345 2.5189 2.0198 1.6313 -11.2813 -7.8612 -1.2477 -23.8139 3.9819 0.1755 6.3631 2.5577 0.1980 5.6775 0.0000 0.0000 0.0000 -90.3937 -1.7195 12.9557 20.4428 -31.1721 -5.7588 0.0000 0.0000 2.9893 0.0000 0.0000 0.0000 80.7414 14.5807 -4.5463 -11.2599 18.6856 -1.8583 0.0000 0.0000 9.8341
0.1680 15.4964 -1.4277 2.8245 -8.0480 3.9947 0.0000 0.0000 0.0000 -17.6507 -2.4805 -42.6076 12.0650 18.4180 66.1947 2.0792 -4.9015 -26.1750 0.0470 -1.3992 -3.8481 0.0000 0.0000 0.0000 10.0496 18.5213 -42.2079 -12.6775 -18.6626 68.1208 -1.6268 2.2081 -23.5136 -0.2148 2.9839 -8.2339 3.4762 1.4037 24.9110 4.6685 3.2669 2.7827 2.1490 1.4624 -10.9064 -7.5135 -1.6974 -24.2376 3.8961 -0.4658 4.0745 2.3907 -0.0801 5.0379 0.0000 0.0000 0.0000 -90.3283 -2.3883 15.2330 21.4525 -32.3527 -6.2903 0.0000 0.0000 1.3261 0.0000 0.0000 0.0000 80.2535 15.2053 7.2537 -16.4671 26.1499 -3.8495 0.0000 0.0000 3.3505
0.1003 15.8716 -1.5630 2.7694 -6.0960 4.2300 0.0000 0.0000 0.0000 -17.8377 -3.2420 -40.2776 10.2949 17.5724 60.4696 1.6849 -4.9239 -23.4518 0.0898 -1.9329 -5.3204 0.0000 0.0000 0.0000 10.7128 18.9052 -39.1541 -10.9389 -17.9050 62.5829 -1.3410 0.1686 -21.8522 -0.0416 1.3163 -3.6195 3.3246 1.3197 24.4407 4.8133 3.1133 2.7618 2.4553 1.4085 -10.6931 -7.5171 -2.0888 -24.0323 3.9976 -1.0064 4.0241 2.3647 -0.3368 5.0238 0.0000 0.0000 0.0000 -90.3273 -2.4487 17.1221 21.5780 -32.4968 -6.3576 0.0000 0.0000 -8.3910 0.0000 0.0000 0.0000 78.4314 14.6460 15.4647 -20.5192 31.2628 -5.7984 0.0000 0.0000 3.0525
0.0379 16.3381 -1.5998 2.8395 -4.1173 4.1794 0.0000 0.0000 0.0000 -18.4794 -3.8948 -35.9926 8.1960 16.2616 53.2657 1.5086 -4.1800 -22.2389 0.1552 -2.5383 -6.9959 0.0000 0.0000 0.0000 11.4570 19.2644 -34.3035 -8.8867 -16.7342 55.6974 -1.2208 -0.6323 -21.1254 -0.0001 0.0736 -0.2022 3.1807 1.0827 23.1364 4.7815 2.7215 2.3714 2.6425 1.2422 -10.4277 -7.9565 -2.3081 -23.5355 4.2675 -1.2569 6.0347 2.5015 -0.4740 5.6188 0.0000 0.0000 0.0000 -90.0560 -1.2040 18.2010 21.9141 -32.8798 -6.5391 0.0000 0.0000 -8.2337 0.0000 0.0000 0.0000 77.4379 13.4554 19.5327 -23.5891 34.7268 -7.4712 0.0000 0.0000 5.5676
-0.0324 16.7714 -1.5802 2.7380 -1.9658 3.9364 0.0000 0.0000 0.0000 -18.8348 -4.3430 -31.3637 6.3449 14.7544 46.3506 1.5271 -1.1199 -23.0406 0.1720 -2.6716 -7.3658 0.0000 0.0000 0.0000 12.9145 18.3339 -28.9732 -6.8700 -15.2215 48.3810 -1.2849 -0.6744 -21.6838 -0.1686 2.6449 -7.2916 3.1513 0.9064 21.6772 4.4844 2.4097 1.8252 2.4371 1.0991 -10.2248 -7.7033 -2.6016 -22.1462 4.2731 -1.8474 7.0931 2.4012 -0.7781 5.7867 0.0000 0.0000 0.0000 -88.8833 0.7084 20.1309 22.7593 -33.8246 -7.0039 0.0000 0.0000 -2.5892 0.0000 0.0000 0.0000 77.1108 12.1469 21.2531 -25.6638 36.8748 -8.6851 0.0000 0.0000 3.8051
-0.1127 17.1113 -1.5471 2.0784 0.1646 3.9030 0.0000 0.0000 0.0000 -18.4968 -4.0545 -27.0851 4.7869 13.1397 39.8937 1.6734 -2.0888 -23.8880 0.2228 -3.0386 -8.3862 0.0000 0.0000 0.0000 14.6687 17.4204 -24.4425 -5.2468 -13.6564 41.8782 -1.3410 -2.1197 -22.7329 -0.0876 1.9090 -5.2543 3.2254 0.7519 19.5828 4.3911 2.1324 1.2394 2.3857 0.9736 -9.7100 -8.0427 -2.9878 -20.2473 4.6268 -2.4815 7.6994 2.5071 -1.0939 5.7373 0.0000 0.0000 0.0000 -87.6948 2.4297 21.9799 23.6119 -34.7512 -7.4842 0.0000 0.0000 1.4806 0.0000 0.0000 0.0000 76.6743 10.9031 22.4452 -26.5869 37.7824 -9.2449 0.0000 0.0000 -0.3203
-0.1820 17.3720 -1.4934 1.6957 2.7236 4.1383 0.0000 0.0000 0.0000 -18.2363 -4.5549 -23.6512 3.5120 11.4811 33.9202 1.7434 -3.1095 -24.1710 0.2438 -3.1772 -8.7726 0.0000 0.0000 0.0000 15.8665 15.4423 -21.0045 -3.9699 -12.1202 36.1586 -1.3865 -3.6695 -23.8310 -0.0446 1.3633 -3.7489 2.8626 0.5444 17.0416 4.2021 1.6615 0.5915 2.5187 0.7711 -8.9991 -8.1884 -3.2894 -18.8795 4.9880 -3.0339 8.7599 2.5967 -1.3641 5.9060 0.0000 0.0000 0.0000 -86.4694 3.9639 24.0874 24.2132 -35.3889 -7.8297 0.0000 0.0000 -1.5515 0.0000 0.0000 0.0000 76.1822 9.5420 23.3457 -27.2147 38.3832 -9.6321 0.0000 0.0000 -3.8013
-0.2556 17.5633 -1.4480 1.4342 4.8341 3.9898 0.0000 0.0000 0.0000 -18.0627 -4.6028 -20.5514 2.7221 10.2311 29.7282 1.9025 -2.9309 -25.3305 0.2503 -3.2192 -8.8895 0.0000 0.0000 0.0000 16.8361 13.7941 -17.7566 -3.0266 -10.7380 31.4014 -1.4571 -3.7419 -24.4158 -0.0155 0.8034 -2.2081 2.1626 0.6703 15.0078 3.8896 1.5803 0.4160 2.5991 0.7607 -8.0521 -8.2598 -4.1850 -18.7447 5.3895 -4.3115 9.6270 2.5982 -1.9602 6.2601 0.0000 0.0000 0.0000 -85.4103 4.4273 25.8007 24.9857 -36.1894 -8.2815 0.0000 0.0000 -4.2583 0.0000 0.0000 0.0000 75.7757 8.3359 23.4019 -28.2121 39.3108 -10.2578 0.0000 0.0000 -3.6765
-0.3104 17.6787 -1.4155 0.8034 6.8021 3.7232 0.0000 0.0000 0.0000 -17.4185 -5.5040 -17.9339 2.1612 9.1942 26.4046 1.9821 -0.5525 -26.4897 0.2153 -2.9872 -8.2430 0.0000 0.0000 0.0000 18.0581 12.2140 -15.2319 -2.3601 -9.5789 27.6236 -1.5063 -3.8474 -24.8439 -0.0097 0.6360 -1.7478 1.8985 0.6205 13.1125 3.6080 1.3782 0.1788 2.4937 0.6714 -7.2308 -8.4495 -4.7246 -17.7939 6.0053 -5.1908 10.3703 2.7391 -2.3595 6.4298 0.0000 0.0000 0.0000 -84.6726 4.9856 25.4914 24.9385 -36.1410 -8.2536 0.0000 0.0000 -4.6083 0.0000 0.0000 0.0000 75.5876 7.2766 23.4547 -28.3396 39.4270 -10.3387 0.0000 0.0000 -2.4478
-0.3582 17.7451 -1.3978 0.4521 8.7782 3.1787 0.0000 0.0000 0.0000 -17.1137 -6.6527 -15.6304 1.7927 8.4203 23.9983 1.9875 0.2729 -26.7898 0.2712 -3.3496 -9.2536 0.0000 0.0000 0.0000 18.8225 10.7073 -13.3627 -1.9968 -8.8594 25.3565 -1.5675 -4.0384 -25.3977 -0.0106 0.6635 -1.8234 1.1680 0.4558 12.0796 3.4939 1.0170 -0.0549 2.8554 0.5207 -6.8957 -9.0346 -4.7285 -17.0372 6.7927 -5.2420 10.3949 3.0936 -2.3573 6.3567 0.0000 0.0000 0.0000 -84.5250 5.5937 25.1200 25.1312 -36.3378 -8.3675 0.0000 0.0000 -3.6224 0.0000 0.0000 0.0000 75.3579 6.3583 23.4550 -28.2124 39.3110 -10.2580 0.0000 0.0000 -2.1386
-0.3988 17.7608 -1.4124 0.0334 9.9059 2.3925 0.0000 0.0000 0.0000 -16.6975 -7.9121 -14.0560 1.6656 8.1317 23.1147 2.0153 0.3794 -27.0128 0.2848 -3.4324 -9.4851 0.0000 0.0000 0.0000 19.5735 9.9619 -12.0106 -1.7949 -8.4250 24.0127 -1.5014 -4.5167 -25.1546 -0.0087 0.6036 -1.6586 0.7463 0.5972 11.4725 3.1250 1.0979 0.1300 2.6867 0.5658 -6.3590 -8.9852 -5.0789 -16.8239 7.2595 -5.8265 10.5774 3.1739 -2.6037 6.4420 0.0000 0.0000 0.0000 -84.1566 4.6505 24.4326 24.4176 -35.6027 -7.9483 0.0000 0.0000 -3.3178 0.0000 0.0000 0.0000 75.9061 6.3011 22.2349 -27.6180 38.7622 -9.8836 0.0000 0.0000 -1.9535
