HIERARCHY
ROOT Hips
{
	OFFSET 0.00000 0.00000 0.00000
	CHANNELS 6 Xposition Yposition Zposition Zrotation Yrotation Xrotation
	JOINT LHipJoint
	{
		OFFSET 0.00000 0.00000 0.00000
		CHANNELS 3 Zrotation Yrotation Xrotation
		JOINT LeftUpLeg
		{
			OFFSET 1.36337 -1.57426 1.11036
			CHANNELS 3 Zrotation Yrotation Xrotation
			JOINT LeftLeg
			{
				OFFSET 2.38468 -6.55187 0.00000
				CHANNELS 3 Zrotation Yrotation Xrotation
				JOINT LeftFoot
				{
					OFFSET 2.37166 -6.51609 0.00000
					CHANNELS 3 Zrotation Yrotation Xrotation
					JOINT LeftToeBase
					{
						OFFSET 0.29078 -0.79891 2.01393
						CHANNELS 3 Zrotation Yrotation Xrotation
						End Site
						{
							OFFSET 0.00000 -0.00000 1.07924
						}
					}
				}
			}
		}
	}
	JOINT RHipJoint
	{
		OFFSET 0.00000 0.00000 0.00000
		CHANNELS 3 Zrotation Yrotation Xrotation
		JOINT RightUpLeg
		{
			OFFSET -1.36349 -1.57426 1.11036
			CHANNELS 3 Zrotation Yrotation Xrotation
			JOINT RightLeg
			{
				OFFSET -2.29562 -6.30717 0.00000
				CHANNELS 3 Zrotation Yrotation Xrotation
				JOINT RightFoot
				{
					OFFSET -2.40985 -6.62100 0.00000
					CHANNELS 3 Zrotation Yrotation Xrotation
					JOINT RightToeBase
					{
						OFFSET -0.23197 -0.63733 1.92232
						CHANNELS 3 Zrotation Yrotation Xrotation
						End Site
						{
							OFFSET -0.00000 -0.00000 1.01562
						}
					}
				}
			}
		}
	}
	JOINT LowerBack
	{
		OFFSET 0.00000 0.00000 0.00000
		CHANNELS 3 Zrotation Yrotation Xrotation
		JOINT Spine
		{
			OFFSET -0.08565 2.03602 -0.24562
			CHANNELS 3 Zrotation Yrotation Xrotation
			JOINT Spine1
			{
				OFFSET -0.00036 2.05693 0.00216
				CHANNELS 3 Zrotation Yrotation Xrotation
				JOINT Neck
				{
					OFFSET 0.00000 0.00000 0.00000
					CHANNELS 3 Zrotation Yrotation Xrotation
					JOINT Neck1
					{
						OFFSET -0.03664 1.69515 0.31789
						CHANNELS 3 Zrotation Yrotation Xrotation
						JOINT Head
						{
							OFFSET 0.00932 1.70181 -0.46013
							CHANNELS 3 Zrotation Yrotation Xrotation
							End Site
							{
								OFFSET 0.01243 1.77620 -0.19377
							}
						}
					}
				}
				JOINT LeftShoulder
				{
					OFFSET 0.00000 0.00000 0.00000
					CHANNELS 3 Zrotation Yrotation Xrotation
					JOINT LeftArm
					{
						OFFSET 3.74344 0.81315 -0.36647
						CHANNELS 3 Zrotation Yrotation Xrotation
						JOINT LeftForeArm
						{
							OFFSET 4.97185 -0.00000 -0.00000
							CHANNELS 3 Zrotation Yrotation Xrotation
							JOINT LeftHand
							{
								OFFSET 3.35811 -0.00000 0.00000
								CHANNELS 3 Zrotation Yrotation Xrotation
								End Site
								{
									OFFSET 0.00000 0.60000 0.00000
								}
							}
						}
					}
				}
				JOINT RightShoulder
				{
					OFFSET 0.00000 0.00000 0.00000
					CHANNELS 3 Zrotation Yrotation Xrotation
					JOINT RightArm
					{
						OFFSET -3.75385 0.50666 -0.06525
						CHANNELS 3 Zrotation Yrotation Xrotation
						JOINT RightForeArm
						{
							OFFSET -4.96493 -0.00000 -0.00000
							CHANNELS 3 Zrotation Yrotation Xrotation
							JOINT RightHand
							{
								OFFSET -3.34929 -0.00000 0.00000
								CHANNELS 3 Zrotation Yrotation Xrotation
								End Site
								{
									OFFSET 0.00000 0.60000 0.00000
								}
							}
						}
					}
				}
			}
		}
	}
}
MOTION
Frames: 62
Frame Time: 0.0333333
0.0000 15.8316 0.0000 4.5487 -0.0000 6.2995 0.0000 -0.0000 0.0000 -13.2419 1.0956 -36.6569 7.4643 15.7108 50.6094 0.9651 -3.6328 -17.7024 0.0124 -0.7194 -1.9769 0.0000 -0.0000 0.0000 1.0966 -3.0051 -28.4331 -5.8868 -14.3177 44.5257 -1.1151 0.4660 -19.8177 -0.2117 2.9625 -8.1745 -2.3284 1.9943 30.2374 -1.9388 0.9034 7.2330 -1.1192 0.1559 -8.4635 3.8549 9.7921 -25.4969 -10.0896 15.8881 29.5017 -1.5218 5.4673 16.0258 0.0000 -0.0000 0.0000 -81.8420 -18.4200 45.3173 54.1922 -54.5525 -29.5568 0.0000 -0.0000 -11.6095 0.0000 -0.0000 0.0000 89.2945 7.3343 28.5798 -64.9117 57.4827 -38.4565 0.0000 -0.0000 -14.3258
0.1546 15.8390 0.0041 4.1156 -0.1803 6.3445 0.0000 0.0000 0.0000 -13.3601 1.1107 -37.0473 7.6286 15.8392 51.2135 1.0181 -3.5984 -18.2056 0.0171 -0.8434 -2.3181 0.0000 0.0000 0.0000 1.0706 -3.0246 -27.8570 -5.6185 -14.0482 43.4308 -1.0643 0.3516 -19.3924 -0.2437 3.1766 -8.7708 -2.5561 1.9300 30.2417 -1.9630 0.7555 7.1049 -0.9636 0.0940 -8.6149 2.4103 8.5684 -25.9660 -8.9592 14.2573 29.2701 -1.1784 4.7959 15.5991 0.0000 0.0000 0.0000 -81.8684 -18.7181 45.0989 52.4023 -53.9196 -28.1044 0.0000 0.0000 -11.8293 0.0000 0.0000 0.0000 89.4244 6.6210 28.6681 -65.0568 57.5134 -38.5789 0.0000 0.0000 -14.2936
0.3236 15.8464 0.0304 3.5579 -0.6968 6.2628 0.0000 0.0000 0.0000 -13.4009 1.1215 -36.9838 7.7683 15.9461 51.7236 1.0932 -3.5631 -18.8959 0.0038 -0.3992 -1.0969 0.0000 0.0000 0.0000 1.1257 -2.9389 -27.1203 -5.3354 -13.7518 42.2524 -1.0172 1.4598 -18.6297 -0.1861 2.7786 -7.6629 -2.7755 1.9989 29.9868 -1.9932 0.7756 7.2139 -0.8712 0.0999 -8.3711 1.3659 7.3279 -26.7990 -8.4185 12.7121 29.2904 -1.1080 4.0827 15.5358 0.0000 0.0000 0.0000 -82.2112 -19.1750 44.6819 50.1976 -53.0749 -26.3320 0.0000 0.0000 -12.9106 0.0000 0.0000 0.0000 89.4627 6.0199 28.6756 -67.1152 57.9256 -40.3192 0.0000 0.0000 -15.2573
0.4727 15.8422 0.0144 3.1183 -0.7763 6.3262 0.0000 0.0000 0.0000 -13.4063 0.7983 -37.2212 7.8818 16.0316 52.1358 1.1419 -3.7652 -19.2973 0.0001 0.0515 0.1415 0.0000 0.0000 0.0000 1.0881 -2.6700 -26.6636 -5.1269 -13.5252 41.3679 -0.9623 1.1193 -18.1991 -0.1476 2.4759 -6.8227 -3.2004 1.9604 29.9549 -1.9744 0.6018 7.1986 -0.5419 0.0239 -8.3772 0.0799 6.1661 -27.2071 -7.5814 11.2757 29.1425 -0.8548 3.4606 15.2960 0.0000 0.0000 0.0000 -82.7280 -19.1901 43.7929 48.5660 -52.4005 -25.0335 0.0000 0.0000 -12.8755 0.0000 0.0000 0.0000 89.3949 5.8407 28.8375 -70.1680 58.4604 -42.9138 0.0000 0.0000 -16.7888
0.6409 15.8682 0.0306 2.2024 -1.3044 6.2365 0.0000 0.0000 0.0000 -13.0601 0.8227 -37.0578 7.9496 16.0820 52.3808 1.2188 -3.5037 -20.0029 0.0007 0.1744 0.4792 0.0000 0.0000 0.0000 1.5411 -2.2054 -25.7111 -4.7610 -13.1095 39.7796 -0.8725 0.8109 -17.3983 -0.1634 2.6046 -7.1798 -3.1109 2.0972 30.2715 -1.9269 0.7965 6.9362 -0.6205 0.1234 -8.8303 -0.5386 5.3993 -27.0672 -7.2992 10.2896 28.8142 -0.8480 3.0436 15.0049 0.0000 0.0000 0.0000 -82.9762 -18.3337 43.6415 47.7414 -52.0430 -24.3817 0.0000 0.0000 -13.0023 0.0000 0.0000 0.0000 89.3557 5.2714 29.0509 -73.4759 58.9427 -45.7405 0.0000 0.0000 -17.8542
0.8304 15.8837 0.0327 1.9278 -1.7310 6.5411 0.0000 0.0000 0.0000 -13.4602 0.4709 -37.2425 8.0441 16.1516 52.7212 1.3131 -3.6865 -20.7629 0.0144 0.7747 2.1291 0.0000 0.0000 0.0000 1.2114 -2.2522 -25.2842 -4.4067 -12.6828 38.1922 -0.7852 0.6224 -16.5459 -0.2462 3.1930 -8.8165 -3.2919 2.2566 29.8451 -2.1116 0.9430 7.0068 -0.7680 0.1899 -8.5455 -1.1415 4.6454 -27.4387 -6.8442 9.2902 28.3275 -0.7585 2.6476 14.7517 0.0000 0.0000 0.0000 -83.2518 -17.9541 43.5162 48.2048 -52.2453 -24.7476 0.0000 0.0000 -12.5449 0.0000 0.0000 0.0000 89.2446 5.7294 29.1830 -75.9512 59.2409 -47.8644 0.0000 0.0000 -18.8928
1.0062 15.8851 0.0301 1.3942 -1.9391 6.6741 0.0000 0.0000 0.0000 -13.5682 0.3141 -37.5823 8.2306 16.2863 53.3891 1.4216 -3.6209 -21.6484 0.0068 0.5328 1.4642 0.0000 0.0000 0.0000 1.2088 -1.8957 -24.5208 -4.0698 -12.2527 36.6320 -0.7090 0.0508 -15.8975 -0.2988 3.5149 -9.7157 -3.6780 2.5203 29.9813 -2.0575 1.1624 6.8666 -0.5707 0.3044 -8.7814 -2.0410 3.7899 -27.4859 -6.2846 8.1803 27.0852 -0.5971 2.2386 14.0959 0.0000 0.0000 0.0000 -83.3105 -17.2524 43.8095 49.0781 -52.6169 -25.4398 0.0000 0.0000 -12.6408 0.0000 0.0000 0.0000 88.7334 6.0284 29.4797 -77.7112 59.4216 -49.3782 0.0000 0.0000 -19.2130
1.2264 15.8892 0.0558 1.0362 -2.1057 6.7447 0.0000 0.0000 0.0000 -13.9772 -0.2334 -37.4547 8.3020 16.3370 53.6434 1.5203 -3.7703 -22.3929 0.0552 1.5159 4.1696 0.0000 0.0000 0.0000 0.8120 -1.9276 -23.5115 -3.6766 -11.7172 34.7388 -0.6197 -0.3637 -15.0098 -0.3346 3.7171 -10.2822 -3.8922 2.6756 29.1357 -2.1759 1.3181 7.3252 -0.6052 0.3569 -7.8565 -2.8869 2.4893 -27.4447 -5.7943 6.3438 24.1886 -0.5994 1.5961 12.7755 0.0000 0.0000 0.0000 -83.0085 -17.4453 44.1816 50.2206 -53.0841 -26.3504 0.0000 0.0000 -12.7577 0.0000 0.0000 0.0000 88.5543 6.8967 29.5494 -78.9972 59.5376 -50.4861 0.0000 0.0000 -19.0131
1.4657 15.8908 0.1158 0.2008 -2.4745 6.5054 0.0000 0.0000 0.0000 -13.9803 -0.4077 -37.0615 8.4568 16.4452 54.1918 1.6280 -4.2954 -23.1212 0.1192 2.2260 6.1308 0.0000 0.0000 0.0000 0.8866 -1.4675 -21.6118 -3.2169 -11.0381 32.4086 -0.5491 -1.0933 -14.4352 -0.6284 5.0726 -14.1158 -3.9995 2.9783 29.0009 -2.0921 1.6848 7.3540 -0.5736 0.5279 -7.7702 -4.0200 0.9384 -26.4950 -4.5468 4.0138 20.7696 -0.3484 0.8202 11.1580 0.0000 0.0000 0.0000 -82.8801 -17.0499 44.5930 51.6194 -53.6281 -27.4728 0.0000 0.0000 -12.8788 0.0000 0.0000 0.0000 88.3846 6.7478 29.5074 -79.3948 59.5707 -50.8289 0.0000 0.0000 -18.8375
1.7110 15.9073 0.1545 -0.0539 -2.8479 6.5371 0.0000 0.0000 0.0000 -14.6772 -0.9847 -36.7150 8.4925 16.4698 54.3178 1.7239 -3.7713 -23.9062 0.2212 3.0274 8.3550 0.0000 0.0000 0.0000 0.1713 -0.7026 -20.1239 -2.8132 -10.3863 30.2368 -0.3905 -3.4742 -13.5969 -0.6528 5.1680 -14.3883 -4.8899 3.3286 28.8203 -2.0741 1.8951 7.1810 -0.1167 0.6452 -7.9090 -4.5302 -0.1818 -26.2786 -3.4085 2.2879 19.2615 -0.1319 0.2183 10.5184 0.0000 0.0000 0.0000 -82.1923 -16.6054 45.6446 53.4154 -54.2834 -28.9251 0.0000 0.0000 -13.5456 0.0000 0.0000 0.0000 88.1131 6.3942 29.4768 -79.4439 59.5747 -50.8712 0.0000 0.0000 -18.9204
1.9506 15.9294 0.1753 -1.1242 -3.3676 6.5923 0.0000 0.0000 0.0000 -14.3974 -1.3881 -36.6090 8.5021 16.4764 54.3517 1.7709 -2.9631 -24.3985 0.2633 3.3014 9.1190 0.0000 0.0000 0.0000 0.4447 0.0902 -19.1498 -2.5209 -9.8758 28.5755 -0.3677 -2.2497 -12.5012 -1.0408 6.4884 -18.2083 -5.1660 3.6405 28.6860 -1.7006 2.2668 7.1203 0.3305 0.8286 -7.9497 -4.7603 -0.7088 -26.3047 -3.0032 1.4974 17.9140 -0.0721 -0.0612 10.0264 0.0000 0.0000 0.0000 -81.2684 -16.9113 47.7269 53.8173 -54.4237 -29.2517 0.0000 0.0000 -14.0851 0.0000 0.0000 0.0000 88.0051 6.1252 29.3027 -79.7034 59.5956 -51.0950 0.0000 0.0000 -18.9234
2.1841 15.9607 0.1895 -1.8451 -4.3359 6.5212 0.0000 0.0000 0.0000 -14.5659 -1.2427 -36.1550 8.4091 16.4121 54.0233 1.8115 -2.4809 -24.7925 0.3769 3.9430 10.9163 0.0000 0.0000 0.0000 0.1733 0.5628 -19.4469 -2.4999 -9.8377 28.4528 -0.1029 -4.3681 -9.2082 -0.9508 6.2097 -17.3942 -5.3841 4.0328 28.7694 -1.5620 2.7027 7.0636 0.4517 1.0364 -8.0889 -4.8751 -0.8651 -26.4687 -2.4267 1.1818 17.2391 0.1034 -0.1194 9.8041 0.0000 0.0000 0.0000 -79.2218 -17.3253 50.9289 55.1192 -54.8625 -30.3134 0.0000 0.0000 -14.9866 0.0000 0.0000 0.0000 88.1428 5.8160 29.0544 -79.8778 59.6093 -51.2454 0.0000 0.0000 -18.7362
2.3782 15.9784 0.1846 -2.0870 -4.8130 6.0923 0.0000 0.0000 0.0000 -15.0551 -1.3539 -35.4389 8.3213 16.3506 53.7120 1.8787 -2.3295 -25.2998 0.4224 4.1715 11.5596 0.0000 0.0000 0.0000 -0.3073 0.0738 -20.1285 -2.6421 -10.0917 29.2743 -0.0264 -4.1311 -6.8568 -1.0119 6.4003 -17.9504 -5.5606 4.0634 29.2177 -1.4417 2.6393 7.2525 0.6996 0.9908 -8.1021 -4.9788 -0.7083 -27.0473 -2.1625 1.4040 16.9090 0.2477 0.0145 9.7759 0.0000 0.0000 0.0000 -76.8363 -17.9292 54.1189 56.0077 -55.1487 -31.0413 0.0000 0.0000 -15.8315 0.0000 0.0000 0.0000 88.1839 6.2741 29.4927 -79.4229 59.5730 -50.8531 0.0000 0.0000 -18.5856
2.4871 15.9731 0.1680 -2.3850 -5.0167 5.9242 0.0000 0.0000 0.0000 -15.1939 -1.1900 -35.4252 8.3494 16.3703 53.8115 1.8944 -2.2818 -25.4195 0.4713 4.4031 12.2135 0.0000 0.0000 0.0000 -0.3544 0.1950 -20.7279 -2.7746 -10.3209 30.0221 -0.0381 -3.9015 -6.9649 -0.8954 6.0312 -16.8749 -5.6031 4.0152 29.5071 -1.2434 2.5644 7.1589 0.9608 0.9628 -8.3551 -4.8479 -0.5810 -27.6268 -2.4452 1.6841 18.1671 0.1689 0.0727 10.3329 0.0000 0.0000 0.0000 -75.4136 -18.3748 55.9765 56.5718 -55.3250 -31.5047 0.0000 0.0000 -15.4888 0.0000 0.0000 0.0000 88.3474 6.0130 29.6791 -79.8516 59.6072 -51.2228 0.0000 0.0000 -18.0644
2.5203 15.9557 0.1527 -2.9039 -5.0735 6.2459 0.0000 0.0000 0.0000 -14.7075 -1.1332 -36.0857 8.4938 16.4707 54.3224 1.9234 -2.5955 -25.5478 0.5421 4.7174 13.1042 0.0000 0.0000 0.0000 0.2927 0.4655 -21.3911 -2.7605 -10.2969 29.9436 -0.1600 -1.0037 -7.9913 -1.0250 6.4404 -18.0676 -5.2630 3.9016 29.3636 -0.9737 2.5905 6.8819 1.0562 0.9955 -8.6017 -4.9617 -0.3956 -27.6729 -2.2559 1.9963 19.5552 0.3080 0.1876 10.8467 0.0000 0.0000 0.0000 -74.9725 -19.0866 56.8429 56.2995 -55.2404 -31.2810 0.0000 0.0000 -15.0399 0.0000 0.0000 0.0000 88.4142 5.5496 29.6137 -79.4553 59.5757 -50.8810 0.0000 0.0000 -17.8923
2.4816 15.9435 0.1193 -2.0377 -5.0062 6.0277 0.0000 0.0000 0.0000 -15.4863 -1.4365 -35.8623 8.4307 16.4270 54.0995 1.9203 -2.4075 -25.5690 0.5449 4.7291 13.1374 0.0000 0.0000 0.0000 -0.4393 0.5911 -21.4823 -2.7365 -10.2558 29.8093 -0.1989 -0.0808 -8.4528 -1.0251 6.4407 -18.0687 -5.6060 3.9031 29.3485 -1.1535 2.4482 7.2054 1.1117 0.9077 -8.2230 -4.5645 -0.0413 -28.7757 -2.7465 2.6310 22.1156 0.1713 0.3365 12.0288 0.0000 0.0000 0.0000 -75.1535 -20.6454 56.6564 55.9194 -55.1207 -30.9688 0.0000 0.0000 -15.2407 0.0000 0.0000 0.0000 88.6133 5.9540 29.5062 -79.0857 59.5451 -50.5624 0.0000 0.0000 -17.8239
2.3805 15.9428 0.0915 -1.7671 -4.9278 5.7920 0.0000 0.0000 0.0000 -15.4210 -1.4229 -35.4612 8.3178 16.3481 53.6995 1.8921 -2.4240 -25.3704 0.5323 4.6752 12.9846 0.0000 0.0000 0.0000 -0.2301 0.4720 -21.1634 -2.7103 -10.2106 29.6613 -0.2076 -0.7237 -8.9000 -1.1398 6.7798 -19.0647 -5.0828 3.7613 29.7960 -1.1646 2.3763 7.2597 0.8139 0.8619 -8.3535 -4.2015 0.6479 -29.3819 -3.2052 3.7240 24.9326 0.1356 0.6605 13.2870 0.0000 0.0000 0.0000 -76.3591 -21.3579 55.6514 55.8265 -55.0912 -30.8926 0.0000 0.0000 -15.3025 0.0000 0.0000 0.0000 88.5778 6.1672 29.5599 -78.2287 59.4699 -49.8239 0.0000 0.0000 -17.5499
2.2003 15.9488 0.0526 -1.2068 -4.8551 5.8642 0.0000 0.0000 0.0000 -15.2902 -1.4592 -35.6077 8.2013 16.2654 53.2847 1.7996 -2.1124 -24.7949 0.3706 3.9103 10.8246 0.0000 0.0000 0.0000 -0.1663 0.8469 -21.4285 -2.7898 -10.3468 30.1071 -0.2407 -1.3149 -9.8421 -1.2552 7.1026 -20.0198 -4.8176 3.6729 29.7718 -1.2339 2.3285 7.4174 0.6067 0.8260 -8.1478 -3.4537 1.5359 -29.7647 -3.8710 4.9479 26.5236 -0.0137 1.0827 14.0739 0.0000 0.0000 0.0000 -77.9342 -22.1359 54.2834 55.6766 -55.0433 -30.7698 0.0000 0.0000 -15.2065 0.0000 0.0000 0.0000 88.6625 6.4427 29.5808 -78.0175 59.4505 -49.6420 0.0000 0.0000 -17.0932
1.9540 15.9554 -0.0012 -0.8331 -4.5108 5.7948 0.0000 0.0000 0.0000 -14.7878 -1.6390 -35.4667 8.1228 16.2088 53.0037 1.6769 -1.2326 -24.1366 0.2433 3.1741 8.7638 0.0000 0.0000 0.0000 0.4084 1.2859 -21.8396 -3.0138 -10.7174 31.3326 -0.2982 -1.6419 -11.0478 -1.0131 6.4040 -17.9613 -4.4026 3.5278 30.4391 -1.1573 2.2396 7.2195 0.4620 0.7916 -8.6774 -2.7812 2.2689 -29.5111 -4.4000 5.9107 28.1411 -0.1541 1.4028 14.7838 0.0000 0.0000 0.0000 -80.0879 -21.7105 52.4868 56.2711 -55.2315 -31.2576 0.0000 0.0000 -14.5286 0.0000 0.0000 0.0000 88.6448 6.3978 29.3805 -77.2331 59.3751 -48.9667 0.0000 0.0000 -16.8679
1.6760 15.9741 -0.0425 -0.0543 -4.2715 5.7619 0.0000 0.0000 0.0000 -14.5211 -1.7549 -35.1287 7.8817 16.0316 52.1355 1.5851 -1.2841 -23.4371 0.2708 3.3473 9.2473 0.0000 0.0000 0.0000 0.6552 0.8113 -22.9346 -3.3008 -11.1668 32.8444 -0.3583 -1.1146 -11.7667 -0.7232 5.4340 -15.1508 -4.1249 3.3189 29.7310 -1.2709 2.0588 7.8846 0.2779 0.6658 -7.5628 -2.4234 2.8626 -30.4100 -4.4636 6.7657 29.8665 -0.0590 1.6848 15.7932 0.0000 0.0000 0.0000 -81.9377 -22.4952 50.4252 56.7419 -55.3773 -31.6447 0.0000 0.0000 -14.1310 0.0000 0.0000 0.0000 88.6460 7.4548 29.2373 -77.0422 59.3560 -48.8025 0.0000 0.0000 -16.8606
1.3743 15.9929 -0.0806 1.0124 -3.9979 5.7806 0.0000 0.0000 0.0000 -14.5114 -1.8951 -34.6365 7.5951 15.8132 51.0909 1.5301 -1.6029 -22.9321 0.2496 3.2148 8.8772 0.0000 0.0000 0.0000 0.6047 0.0702 -24.1939 -3.6380 -11.6624 34.5479 -0.4114 -0.4295 -12.2790 -0.4809 4.4471 -12.3381 -4.1973 3.1769 30.2722 -1.4138 1.8280 7.5269 0.2191 0.5799 -8.2156 -1.6897 3.3932 -29.9344 -5.1637 7.4574 31.1245 -0.3486 1.8795 16.3870 0.0000 0.0000 0.0000 -83.6538 -21.5044 48.7182 57.7732 -55.6868 -32.4949 0.0000 0.0000 -13.7922 0.0000 0.0000 0.0000 88.5338 6.9475 28.9145 -76.1216 59.2596 -48.0108 0.0000 0.0000 -16.9934
1.0492 16.0125 -0.1578 1.0605 -3.7455 6.1159 0.0000 0.0000 0.0000 -13.1960 -1.6613 -35.1141 7.3592 15.6271 50.2201 1.3527 -1.5709 -21.5339 0.1936 2.8333 7.8150 0.0000 0.0000 0.0000 2.0020 -0.0069 -25.2622 -3.8079 -11.9003 35.3803 -0.4850 -0.7533 -13.4493 -0.4862 4.4712 -12.4064 -3.7276 2.9807 30.6366 -1.1900 1.7419 7.3142 0.2184 0.5491 -8.6234 -1.6125 3.5271 -29.7927 -5.0643 7.5885 31.5387 -0.2952 1.9382 16.5591 0.0000 0.0000 0.0000 -84.8139 -21.2834 47.4123 58.3451 -55.8526 -32.9677 0.0000 0.0000 -13.6737 0.0000 0.0000 0.0000 88.3298 7.0433 28.4195 -75.4990 59.1903 -47.4759 0.0000 0.0000 -17.1061
0.7552 16.0226 -0.2049 1.9008 -3.3648 6.2115 0.0000 0.0000 0.0000 -13.1838 -1.4869 -34.8270 7.0481 15.3722 49.0559 1.2431 -1.2476 -20.7066 0.0591 1.5687 4.3152 0.0000 0.0000 0.0000 2.1674 -0.6901 -26.5946 -4.1655 -12.3774 37.0804 -0.5462 -0.0389 -13.9790 -0.3846 3.9826 -11.0279 -3.4895 2.6907 30.3926 -1.2246 1.4540 7.5042 0.1575 0.4040 -8.2750 -1.6801 3.5771 -29.8739 -5.0306 7.6833 31.3665 -0.2442 1.9832 16.4888 0.0000 0.0000 0.0000 -85.5122 -21.1725 46.5126 59.2912 -56.1181 -33.7520 0.0000 0.0000 -13.6892 0.0000 0.0000 0.0000 88.2137 7.4132 28.0337 -74.1093 59.0240 -46.2834 0.0000 0.0000 -17.2515
0.4723 16.0406 -0.2611 2.7394 -3.2688 6.3983 0.0000 0.0000 0.0000 -13.0214 -1.3142 -34.7935 6.7343 15.1040 47.8622 1.1317 -0.6467 -19.9105 0.0048 0.4456 1.2243 0.0000 0.0000 0.0000 2.2016 -0.6113 -27.8716 -4.5237 -12.8264 38.7222 -0.6016 -1.0417 -15.0660 -0.3628 3.8694 -10.7094 -3.4648 2.5457 30.4711 -1.3353 1.2798 7.2912 0.0766 0.3358 -8.5471 -1.4661 3.5418 -29.5711 -5.1777 7.5431 30.9557 -0.3745 1.9592 16.2356 0.0000 0.0000 0.0000 -85.7872 -20.7685 45.9058 60.1915 -56.3608 -34.5005 0.0000 0.0000 -13.3943 0.0000 0.0000 0.0000 88.2857 7.2931 27.6353 -72.9597 58.8739 -45.2985 0.0000 0.0000 -17.1609
0.2163 16.0580 -0.2991 3.3225 -3.2079 6.2454 0.0000 0.0000 0.0000 -12.7257 -1.0821 -34.2199 6.4087 14.8131 46.6009 1.0187 -0.3902 -18.9555 0.0003 -0.1075 -0.2954 0.0000 0.0000 0.0000 2.5211 -0.7622 -28.6072 -4.7929 -13.1468 39.9203 -0.6493 -0.8711 -15.5618 -0.3218 3.6460 -10.0829 -3.2620 2.3869 30.5035 -1.2678 1.1455 7.3385 0.0853 0.2689 -8.5029 -1.5479 3.3185 -29.4166 -5.2445 7.2372 30.2403 -0.4505 1.8561 15.8505 0.0000 0.0000 0.0000 -86.1574 -20.8020 45.2681 60.6454 -56.4795 -34.8786 0.0000 0.0000 -13.2475 0.0000 0.0000 0.0000 88.1863 7.3564 27.5586 -71.2471 58.6286 -43.8343 0.0000 0.0000 -17.1734
-0.0156 16.0526 -0.3341 3.9567 -3.1809 6.1530 0.0000 0.0000 0.0000 -12.5957 -0.6349 -33.8273 6.1332 14.5562 45.5142 0.9389 -0.2764 -18.2278 0.0074 -0.5565 -1.5293 0.0000 0.0000 0.0000 2.6780 -0.9163 -29.2942 -5.0657 -13.4574 41.1056 -0.7714 0.4580 -16.4493 -0.2831 3.4218 -9.4553 -3.0220 2.2337 30.8078 -1.2821 1.0260 7.0719 -0.0350 0.2242 -8.9455 -1.4195 3.2736 -29.0748 -5.5079 7.1576 29.6957 -0.5986 1.8320 15.5402 0.0000 0.0000 0.0000 -86.3920 -20.0852 44.7656 61.8489 -56.7828 -35.8837 0.0000 0.0000 -13.0847 0.0000 0.0000 0.0000 88.3501 6.6373 27.2713 -70.5761 58.5253 -43.2617 0.0000 0.0000 -17.0907
-0.2263 16.0404 -0.3707 4.8891 -2.9126 6.0140 0.0000 0.0000 0.0000 -12.9040 -0.4838 -33.5056 5.9266 14.3568 44.6865 0.8484 0.0375 -17.4267 0.0238 -0.9958 -2.7371 0.0000 0.0000 0.0000 2.4824 -1.5800 -30.0469 -5.3592 -13.7772 42.3524 -0.8305 1.1870 -16.8596 -0.2085 2.9402 -8.1124 -3.1777 2.0492 30.7985 -1.2131 0.7531 7.1306 0.2357 0.0989 -8.8711 -1.7145 3.0765 -29.3542 -5.2916 6.9500 29.6439 -0.4988 1.7437 15.5453 0.0000 0.0000 0.0000 -86.6389 -20.2967 44.4848 62.1900 -56.8658 -36.1692 0.0000 0.0000 -13.0434 0.0000 0.0000 0.0000 88.0565 6.2062 27.3618 -70.2658 58.4761 -42.9971 0.0000 0.0000 -17.0664
-0.4381 16.0205 -0.4273 4.9977 -2.7345 6.0904 0.0000 0.0000 0.0000 -12.2139 -0.1993 -33.5390 5.7238 14.1552 43.8629 0.7575 0.3353 -16.5725 0.0213 -0.9417 -2.5885 0.0000 0.0000 0.0000 3.0476 -0.9064 -31.0990 -5.6914 -14.1224 43.7301 -0.8820 0.0706 -17.7317 -0.2485 3.2076 -8.8571 -2.8970 1.9292 31.0353 -0.9415 0.7294 6.8835 0.3836 0.1005 -9.2670 -1.5562 3.0967 -29.1617 -5.3631 6.9263 29.8414 -0.5652 1.7345 15.6061 0.0000 0.0000 0.0000 -86.7672 -20.1290 44.6134 61.9359 -56.8041 -35.9565 0.0000 0.0000 -12.6758 0.0000 0.0000 0.0000 87.8323 5.5454 27.2439 -69.8995 58.4169 -42.6850 0.0000 0.0000 -17.1092
-0.6098 16.0154 -0.4399 5.4084 -2.5159 5.9834 0.0000 0.0000 0.0000 -12.0878 0.0301 -33.1056 5.5427 13.9701 43.1177 0.6830 0.5982 -15.8423 0.0112 -0.6822 -1.8748 0.0000 0.0000 0.0000 3.2864 -1.4754 -31.6115 -5.9020 -14.3327 44.5872 -0.9395 0.3169 -18.2201 -0.2368 3.1319 -8.6461 -2.6216 1.6557 30.8946 -0.9146 0.4829 6.9006 0.3489 -0.0181 -9.1712 -1.3737 3.1993 -29.1499 -5.2659 6.9782 30.3925 -0.5502 1.7653 15.8655 0.0000 0.0000 0.0000 -86.6665 -20.0552 44.5772 61.2423 -56.6320 -35.3767 0.0000 0.0000 -12.8597 0.0000 0.0000 0.0000 87.6951 5.0569 27.3934 -69.8214 58.4041 -42.6184 0.0000 0.0000 -17.1025
-0.7727 15.9904 -0.4644 6.1056 -2.4570 5.8853 0.0000 0.0000 0.0000 -12.3576 0.6232 -33.0512 5.4255 13.8475 42.6299 0.6437 0.1732 -15.2248 0.0329 -1.1709 -3.2192 0.0000 0.0000 0.0000 3.1067 -2.0911 -32.4203 -6.2094 -14.6282 45.8163 -1.0152 1.3129 -18.6504 -0.1728 2.6781 -7.3838 -2.8311 1.5473 31.0204 -0.9803 0.2625 6.9353 0.4783 -0.1193 -9.1871 -1.0039 3.4734 -29.1934 -5.4681 7.3059 31.0250 -0.6359 1.8781 16.2178 0.0000 0.0000 0.0000 -86.5292 -20.0591 44.5840 60.7076 -56.4956 -34.9305 0.0000 0.0000 -13.0522 0.0000 0.0000 0.0000 87.5586 4.6607 27.4715 -70.5994 58.5289 -43.2815 0.0000 0.0000 -17.2201
-0.9178 15.9463 -0.4871 6.1444 -2.6030 5.8533 0.0000 0.0000 0.0000 -11.8083 1.0413 -33.3247 5.4631 13.8871 42.7870 0.6316 -0.0352 -15.0075 0.0401 -1.2929 -3.5550 0.0000 0.0000 0.0000 3.6908 -2.4227 -33.1185 -6.4594 -14.8592 46.7986 -1.0400 2.9592 -18.5113 -0.0682 1.6851 -4.6363 -2.4714 1.4888 31.3024 -0.9968 0.2901 6.8345 0.2387 -0.1093 -9.4368 -0.6129 3.9309 -29.0819 -5.6251 7.8691 31.5650 -0.6536 2.1045 16.5055 0.0000 0.0000 0.0000 -86.3190 -19.6418 44.8874 60.3231 -56.3954 -34.6101 0.0000 0.0000 -12.7557 0.0000 0.0000 0.0000 87.6479 4.0881 27.2713 -71.5893 58.6797 -44.1266 0.0000 0.0000 -17.0433
-1.0481 15.9144 -0.5024 6.6038 -2.4818 5.9054 0.0000 0.0000 0.0000 -11.8252 1.1849 -33.5684 5.4971 13.9227 42.9285 0.6130 -0.2903 -14.6978 0.0523 -1.4755 -4.0581 0.0000 0.0000 0.0000 3.6314 -2.7673 -33.7905 -6.6963 -15.0707 47.7162 -1.0739 3.8526 -18.6804 -0.0246 1.0132 -2.7852 -2.5775 1.3524 32.1464 -1.0827 0.0458 6.1127 0.2679 -0.2039 -9.8381 -0.0199 4.5331 -28.6410 -6.0947 8.6245 31.5146 -0.7939 2.4222 16.4764 0.0000 0.0000 0.0000 -86.2891 -19.0028 44.9782 59.5271 -56.1826 -33.9479 0.0000 0.0000 -13.1722 0.0000 0.0000 0.0000 87.6975 3.2711 27.4489 -74.1395 59.0278 -46.3093 0.0000 0.0000 -17.2209
-1.1723 15.8553 -0.5233 6.9558 -2.3065 6.0840 0.0000 0.0000 0.0000 -11.6677 1.1121 -33.9981 5.4900 13.9152 42.8987 0.5811 -0.3922 -14.2736 0.0615 -1.5999 -4.4013 0.0000 0.0000 0.0000 3.3559 -2.6181 -34.1170 -6.9178 -15.2622 48.5626 -1.1091 5.8778 -18.8187 -0.2022 -2.8953 7.9875 -2.7290 1.3755 32.1478 -1.1003 0.0089 6.3220 0.3445 -0.2287 -9.6058 0.4308 5.1007 -28.5217 -6.3846 9.3175 30.7551 -0.8273 2.7634 16.1559 0.0000 0.0000 0.0000 -86.4518 -18.8900 45.2138 59.3100 -56.1232 -33.7676 0.0000 0.0000 -13.2253 0.0000 0.0000 0.0000 87.6423 3.4255 27.7052 -77.0355 59.3553 -48.7967 0.0000 0.0000 -17.2179
-1.2755 15.8459 -0.5218 7.2303 -1.9292 6.1254 0.0000 0.0000 0.0000 -11.6442 1.1565 -33.9672 5.4142 13.8356 42.5829 0.5541 -0.5764 -13.8764 0.0726 -1.7381 -4.7825 0.0000 0.0000 0.0000 3.4612 -3.3122 -34.5493 -7.0765 -15.3959 49.1629 -1.1404 6.3487 -19.0741 -0.2043 -2.9103 8.0290 -2.5610 1.3191 32.3855 -1.2260 -0.0495 6.5279 0.1430 -0.2708 -9.4732 1.0153 5.8645 -27.9328 -6.7558 10.2016 29.3751 -0.8771 3.2363 15.4792 0.0000 0.0000 0.0000 -86.2892 -18.8237 45.7954 58.6895 -55.9505 -33.2530 0.0000 0.0000 -13.0342 0.0000 0.0000 0.0000 87.8740 3.8035 27.7486 -79.8190 59.6047 -51.1947 0.0000 0.0000 -17.2363
-1.3787 15.8363 -0.5463 7.3000 -1.1679 6.3636 0.0000 0.0000 0.0000 -11.3451 0.7877 -34.3274 5.3335 13.7498 42.2443 0.5087 -0.6146 -13.2756 0.1113 -2.1513 -5.9241 0.0000 0.0000 0.0000 3.8400 -3.6268 -35.0152 -7.1900 -15.4899 49.5894 -1.1854 6.0348 -19.4644 -0.2108 -2.9557 8.1554 -2.1382 1.2488 33.0521 -1.3433 -0.0405 6.4888 -0.2128 -0.2737 -9.7818 2.1877 7.0019 -27.4373 -7.8576 11.6573 28.5029 -1.2072 3.8726 15.2334 0.0000 0.0000 0.0000 -86.0859 -18.8380 46.5587 57.6503 -55.6506 -32.3934 0.0000 0.0000 -12.6782 0.0000 0.0000 0.0000 88.0751 4.0997 27.9343 -82.0443 59.7595 -53.1158 0.0000 0.0000 -17.6427
-1.4577 15.8268 -0.5558 7.3359 -0.3794 6.7696 0.0000 0.0000 0.0000 -11.1124 0.3648 -34.5628 5.2282 13.6362 41.7993 0.5004 -1.1651 -13.0106 0.0492 -1.4320 -3.9384 0.0000 0.0000 0.0000 4.0812 -4.0416 -35.7853 -7.3620 -15.6293 50.2305 -1.2155 6.0747 -19.7146 -0.2684 -3.3327 9.2063 -1.8814 1.2783 33.3893 -1.3874 0.0646 6.5391 -0.4374 -0.2313 -9.8589 3.3293 8.2255 -26.6662 -9.0851 13.2539 27.2511 -1.5457 4.5827 14.8303 0.0000 0.0000 0.0000 -85.9378 -18.8205 47.3874 56.9492 -55.4406 -31.8153 0.0000 0.0000 -12.4537 0.0000 0.0000 0.0000 87.9477 4.4777 28.3414 -83.2139 59.8253 -54.1265 0.0000 0.0000 -17.7257
-1.5042 15.8314 -0.5300 7.3859 0.3262 6.9095 0.0000 0.0000 0.0000 -11.0010 -0.2030 -34.5503 5.1999 13.6054 41.6792 0.5150 -1.4408 -13.1350 0.0193 -0.8978 -2.4675 0.0000 0.0000 0.0000 4.2508 -4.3336 -35.6483 -7.4080 -15.6661 50.4010 -1.2744 5.7470 -20.2175 -0.2879 -3.4508 9.5366 -1.5567 1.4849 33.3731 -1.5286 0.3982 6.9152 -0.8830 -0.0964 -9.4352 4.5605 9.5026 -25.8105 -10.6704 14.9980 25.9362 -1.9992 5.3281 14.5075 0.0000 0.0000 0.0000 -85.1416 -19.1994 48.8781 55.6393 -55.0313 -30.7392 0.0000 0.0000 -12.1978 0.0000 0.0000 0.0000 87.9856 4.9950 28.2779 -83.0287 59.8156 -53.9664 0.0000 0.0000 -17.6407
-1.4993 15.8383 -0.5068 7.5115 1.5033 7.2016 0.0000 0.0000 0.0000 -11.2186 -0.8866 -35.0711 5.2697 13.6812 41.9752 0.4686 -1.6411 -12.4665 0.0387 -1.2705 -3.4933 0.0000 0.0000 0.0000 4.2966 -5.3330 -36.2632 -7.5632 -15.7884 50.9736 -1.3344 4.1456 -20.8686 -0.0130 -0.7353 2.0207 -0.9803 1.5190 33.9053 -1.7274 0.6107 6.7982 -1.4878 -0.0028 -9.7633 5.1580 10.5030 -25.3070 -11.6910 16.5072 25.4571 -2.1671 5.9342 14.5317 0.0000 0.0000 0.0000 -83.3323 -18.9868 51.8979 54.5048 -54.6583 -29.8116 0.0000 0.0000 -12.8679 0.0000 0.0000 0.0000 87.8037 5.1597 28.1696 -81.5415 59.7279 -52.6814 0.0000 0.0000 -17.4490
-1.4898 15.8065 -0.5044 7.4837 3.3762 7.6712 0.0000 0.0000 0.0000 -11.1899 -1.4647 -36.4487 5.4765 13.9011 42.8429 0.3981 -2.3963 -11.3311 0.1117 -2.1547 -5.9334 0.0000 0.0000 0.0000 4.1820 -6.1199 -36.9129 -7.8297 -15.9926 51.9471 -1.4340 3.7049 -21.7327 -0.0146 -0.7810 2.1465 -0.5396 1.3980 33.8934 -1.7434 0.6160 6.9736 -1.7409 -0.0051 -9.5606 5.7673 11.1380 -24.9206 -12.6228 17.4363 24.8913 -2.4208 6.3129 14.4961 0.0000 0.0000 0.0000 -81.2431 -18.8764 54.3929 53.7109 -54.3868 -29.1651 0.0000 0.0000 -11.0565 0.0000 0.0000 0.0000 87.3690 5.7536 28.3165 -80.8297 59.6798 -52.0668 0.0000 0.0000 -17.8592
-1.4296 15.7692 -0.4620 8.0195 4.2839 8.3064 0.0000 0.0000 0.0000 -11.9806 -1.7473 -37.6883 5.6892 14.1202 43.7211 0.3747 -3.3309 -10.8992 0.0736 -1.7499 -4.8151 0.0000 0.0000 0.0000 3.5222 -6.6935 -37.5360 -8.0595 -16.1628 52.7766 -1.4829 2.6583 -22.3149 -0.0119 0.7057 -1.9393 -0.7919 1.7300 33.7503 -1.9909 0.9307 7.0180 -1.9861 0.1513 -9.4493 6.3386 11.7324 -24.7309 -13.7123 18.4213 24.6460 -2.7109 6.6582 14.6899 0.0000 0.0000 0.0000 -79.0979 -19.0227 57.5714 52.3483 -53.8998 -28.0607 0.0000 0.0000 -10.6715 0.0000 0.0000 0.0000 87.0303 6.0977 28.7134 -78.8848 59.5280 -50.3892 0.0000 0.0000 -16.7827
-1.3637 15.7554 -0.4198 8.1365 5.6113 8.5664 0.0000 0.0000 0.0000 -12.3689 -2.3725 -38.4047 5.9001 14.3308 44.5795 0.3675 -4.1195 -10.7803 0.0657 -1.6536 -4.5493 0.0000 0.0000 0.0000 3.1185 -7.1636 -37.1974 -8.1071 -16.1975 52.9476 -1.5380 2.3896 -22.8000 -0.0027 0.3361 -0.9236 -0.6010 2.0272 33.7550 -2.0101 1.3532 7.4022 -2.2594 0.3417 -9.0100 6.2203 11.9640 -24.8409 -14.1936 18.9163 24.2835 -2.7522 6.8120 14.6787 0.0000 0.0000 0.0000 -77.0233 -19.6281 61.1331 52.0281 -53.7814 -27.8022 0.0000 0.0000 -11.1022 0.0000 0.0000 0.0000 86.0676 6.2852 28.8426 -77.5839 59.4094 -49.2687 0.0000 0.0000 -16.9451
-1.2909 15.7469 -0.3621 8.3349 6.7961 8.5400 0.0000 0.0000 0.0000 -12.9344 -2.7752 -38.4553 6.0091 14.4372 45.0183 0.3492 -4.7822 -10.5446 0.0878 -1.9115 -5.2611 0.0000 0.0000 0.0000 2.6267 -7.9129 -36.4379 -8.0929 -16.1872 52.8967 -1.5852 2.0873 -23.2299 -0.0094 0.6264 -1.7212 -0.6265 2.4552 33.6926 -1.9853 1.8548 7.9903 -2.3900 0.5694 -8.3224 6.2860 12.1126 -25.0120 -14.6761 19.2497 24.1141 -2.8614 6.8984 14.7683 0.0000 0.0000 0.0000 -75.3715 -20.5996 64.5662 52.1455 -53.8250 -27.8970 0.0000 0.0000 -12.0421 0.0000 0.0000 0.0000 85.1279 7.2351 29.0379 -75.6113 59.2031 -47.5723 0.0000 0.0000 -16.7350
-1.2360 15.7301 -0.3196 8.2327 8.0681 8.8867 0.0000 0.0000 0.0000 -12.9780 -3.5726 -39.0392 6.1504 14.5726 45.5826 0.3254 -5.3044 -10.2496 0.0826 -1.8538 -5.1017 0.0000 0.0000 0.0000 2.6149 -8.4687 -36.3456 -8.1370 -16.2191 53.0545 -1.6383 1.2330 -23.8510 -0.0339 1.1878 -3.2657 -0.3826 2.7885 33.4654 -1.9198 2.3702 8.2346 -2.6261 0.8152 -7.9440 6.2181 12.1004 -25.1702 -14.8265 19.3306 24.1943 -2.8858 6.8947 14.8653 0.0000 0.0000 0.0000 -74.4706 -21.0020 66.8253 52.7160 -54.0339 -28.3581 0.0000 0.0000 -12.2026 0.0000 0.0000 0.0000 84.1585 7.6852 29.3479 -75.2503 59.1618 -47.2623 0.0000 0.0000 -16.6161
-1.1964 15.7367 -0.2563 8.3156 9.4759 8.7160 0.0000 0.0000 0.0000 -13.1931 -4.4819 -38.5938 6.1743 14.5951 45.6773 0.3159 -5.7203 -10.1716 0.0729 -1.7420 -4.7932 0.0000 0.0000 0.0000 2.3909 -9.1268 -35.3640 -8.0659 -16.1675 52.7996 -1.6965 0.4015 -24.5264 -0.0862 1.8937 -5.2121 -0.1745 2.9141 33.9623 -1.9654 2.5831 8.2722 -2.8746 0.9139 -8.0718 6.1949 12.2816 -25.2766 -14.6689 19.6258 24.5540 -2.7488 7.0110 15.0586 0.0000 0.0000 0.0000 -74.3939 -20.7836 67.7953 52.9142 -54.1053 -28.5186 0.0000 0.0000 -12.4744 0.0000 0.0000 0.0000 83.5747 7.9603 29.8695 -74.7027 59.0971 -46.7923 0.0000 0.0000 -16.7401
-1.1661 15.7221 -0.1935 8.4387 11.1421 8.6693 0.0000 0.0000 0.0000 -13.3442 -5.7876 -38.3535 6.2738 14.6885 46.0709 0.3099 -6.1147 -10.1558 0.0620 -1.6064 -4.4190 0.0000 0.0000 0.0000 2.1930 -10.2462 -34.6362 -8.0641 -16.1662 52.7931 -1.7376 -0.1614 -25.0088 -0.1135 2.1726 -5.9828 0.1253 2.8806 34.0288 -1.9642 2.6489 8.4043 -3.0552 0.9495 -7.9374 6.4266 12.4713 -25.1187 -15.1323 19.9348 24.2770 -2.8917 7.1301 15.0484 0.0000 0.0000 0.0000 -75.2897 -20.3395 67.4236 52.9577 -54.1209 -28.5538 0.0000 0.0000 -12.2923 0.0000 0.0000 0.0000 83.2777 8.1777 30.0063 -74.5875 59.0831 -46.6935 0.0000 0.0000 -16.6884
-1.1735 15.6916 -0.1699 8.2346 12.5281 9.0789 0.0000 0.0000 0.0000 -12.8945 -6.8386 -39.1298 6.4251 14.8280 46.6647 0.2831 -6.5814 -9.8677 0.0389 -1.2728 -3.4997 0.0000 0.0000 0.0000 2.5585 -10.4824 -34.8954 -8.2572 -16.3052 53.4838 -1.8178 -0.7683 -25.7921 -0.0974 2.0125 -5.5403 0.6190 3.0619 33.9061 -2.0266 3.0715 8.2611 -3.5385 1.1587 -8.0028 6.6974 12.3805 -25.1513 -14.9476 19.6614 24.3742 -2.9262 7.0628 15.0606 0.0000 0.0000 0.0000 -76.3027 -19.7597 66.6902 53.8575 -54.4376 -29.2844 0.0000 0.0000 -12.3459 0.0000 0.0000 0.0000 83.5230 8.2744 29.5760 -74.3721 59.0568 -46.5087 0.0000 0.0000 -16.7072
-1.1814 15.6844 -0.1178 8.3833 13.7641 9.1914 0.0000 0.0000 0.0000 -13.0007 -7.5791 -39.1201 6.4546 14.8549 46.7801 0.2687 -7.0129 -9.7719 0.0477 -1.4095 -3.8763 0.0000 0.0000 0.0000 2.5124 -11.0393 -34.4667 -8.2786 -16.3204 53.5602 -1.8444 -1.3437 -26.1914 -0.0983 2.0218 -5.5660 0.7329 3.1362 33.8894 -2.0902 3.2119 8.2603 -3.7171 1.2321 -7.9808 6.4300 12.3249 -25.4437 -14.6460 19.6321 24.6446 -2.7655 7.0335 15.1579 0.0000 0.0000 0.0000 -77.6605 -19.1614 64.6991 54.4664 -54.6454 -29.7803 0.0000 0.0000 -12.5099 0.0000 0.0000 0.0000 83.4211 8.4258 29.6799 -74.0876 59.0213 -46.2648 0.0000 0.0000 -16.6491
-1.1664 15.6924 -0.0149 9.1955 14.9924 8.9436 0.0000 0.0000 0.0000 -14.1002 -8.0929 -37.9235 6.3721 14.7795 46.4575 0.2570 -7.5802 -9.7740 0.0297 -1.1122 -3.0576 0.0000 0.0000 0.0000 1.6115 -12.8366 -33.1309 -8.1424 -16.2230 53.0738 -1.8639 -1.1454 -26.2526 -0.1400 2.4113 -6.6439 0.6439 3.1181 33.7167 -2.3471 3.1246 8.6093 -3.8917 1.2041 -7.5323 5.7388 11.7818 -25.8028 -13.8140 18.8605 24.8879 -2.5083 6.7260 15.0280 0.0000 0.0000 0.0000 -79.2280 -18.4175 62.0949 55.1938 -54.8869 -30.3745 0.0000 0.0000 -12.2080 0.0000 0.0000 0.0000 83.7384 8.7998 29.4405 -73.8745 58.9943 -46.0821 0.0000 0.0000 -16.7372
-1.1781 15.7018 0.0209 9.2893 15.2574 8.8634 0.0000 0.0000 0.0000 -14.2448 -8.0156 -37.6726 6.3439 14.7536 46.3469 0.2481 -7.7659 -9.7076 0.0324 -1.1628 -3.1969 0.0000 0.0000 0.0000 1.5591 -13.0651 -32.7386 -8.1139 -16.2024 52.9719 -1.8885 -1.0829 -26.3996 -0.1127 2.1643 -5.9600 0.1028 3.2036 33.8110 -2.3901 3.0394 8.6613 -3.6205 1.1631 -7.5381 5.1762 10.9876 -26.4286 -13.2943 17.8278 25.4624 -2.4546 6.2344 15.1526 0.0000 0.0000 0.0000 -80.5983 -17.5999 58.4095 56.0685 -55.1679 -31.0912 0.0000 0.0000 -12.1018 0.0000 0.0000 0.0000 84.0276 9.6611 29.8359 -73.6001 58.9589 -45.8469 0.0000 0.0000 -16.5971
-1.1642 15.7128 0.0408 9.0392 15.0066 8.9584 0.0000 0.0000 0.0000 -13.9421 -8.2099 -37.8556 6.4144 14.8182 46.6230 0.2826 -7.4372 -10.0922 0.0508 -1.4539 -3.9986 0.0000 0.0000 0.0000 1.8119 -13.0555 -32.9018 -8.0612 -16.1641 52.7829 -1.8634 -0.9586 -26.1798 -0.1200 2.2334 -6.1511 -0.0825 3.2441 33.8655 -2.4085 3.0266 8.5622 -3.5422 1.1553 -7.6749 4.3797 10.0695 -27.2368 -12.6317 16.6755 26.0902 -2.3268 5.6797 15.2989 0.0000 0.0000 0.0000 -81.7906 -17.2569 55.4555 56.4650 -55.2919 -31.4169 0.0000 0.0000 -11.9081 0.0000 0.0000 0.0000 84.1571 10.3039 29.9443 -73.7209 58.9746 -45.9504 0.0000 0.0000 -16.8966
-1.1233 15.7110 0.0635 8.8985 14.7042 9.0623 0.0000 0.0000 0.0000 -13.8272 -8.4805 -38.0063 6.5341 14.9267 47.0894 0.3304 -7.1588 -10.6758 0.0511 -1.4594 -4.0138 0.0000 0.0000 0.0000 1.8835 -13.6152 -33.1259 -8.0558 -16.1601 52.7634 -1.8604 -0.3888 -25.9571 -0.1330 2.3510 -6.4769 -0.0733 3.1006 33.6655 -2.5154 2.8440 8.5434 -3.5889 1.0715 -7.6263 3.8491 9.6171 -27.7753 -11.9823 16.1135 26.7710 -2.1096 5.4122 15.5226 0.0000 0.0000 0.0000 -82.0354 -17.2114 53.2398 57.0867 -55.4823 -31.9286 0.0000 0.0000 -11.8164 0.0000 0.0000 0.0000 84.5973 10.8267 29.3293 -74.3894 59.0589 -46.5235 0.0000 0.0000 -16.9181
-1.0663 15.7059 0.0843 8.9562 14.5095 9.1986 0.0000 0.0000 0.0000 -14.0590 -8.6843 -38.1661 6.6363 15.0178 47.4850 0.3709 -6.9834 -11.1750 0.0672 -1.6727 -4.6020 0.0000 0.0000 0.0000 1.5934 -14.1305 -33.3097 -8.0139 -16.1295 52.6127 -1.8324 0.0667 -25.6086 -0.1663 2.6275 -7.2433 0.0662 2.9699 33.4727 -2.5896 2.7249 8.5540 -3.6928 1.0182 -7.5409 3.2971 9.3288 -28.1754 -11.4859 15.8424 27.3336 -1.8817 5.2575 15.7219 0.0000 0.0000 0.0000 -81.8905 -17.7635 52.4144 57.4684 -55.5967 -32.2433 0.0000 0.0000 -11.7169 0.0000 0.0000 0.0000 84.9051 11.1646 28.5235 -74.3655 59.0559 -46.5031 0.0000 0.0000 -17.1688
-1.0059 15.6919 0.1031 8.8348 14.1300 9.1169 0.0000 0.0000 0.0000 -14.1204 -8.4679 -38.2638 6.7987 15.1600 48.1088 0.4051 -7.1829 -11.6575 0.0537 -1.4950 -4.1120 0.0000 0.0000 0.0000 1.4045 -13.7672 -33.1096 -8.0256 -16.1380 52.6547 -1.8229 0.0918 -25.5333 -0.1397 2.4086 -6.6364 -0.0139 2.9338 33.2424 -2.4827 2.6567 8.7360 -3.4999 0.9845 -7.2657 3.2673 9.4217 -28.4573 -11.4976 16.0878 27.9277 -1.8269 5.2977 16.0885 0.0000 0.0000 0.0000 -81.9488 -18.8847 51.5142 57.5524 -55.6216 -32.3126 0.0000 0.0000 -11.8509 0.0000 0.0000 0.0000 85.0538 11.5663 27.9602 -74.1924 59.0344 -46.3546 0.0000 0.0000 -17.4920
-0.9687 15.6808 0.0734 8.4904 13.4479 8.9397 0.0000 0.0000 0.0000 -13.7723 -8.1162 -38.5399 6.9060 15.2522 48.5179 0.4252 -7.0063 -11.8745 0.0440 -1.3532 -3.7212 0.0000 0.0000 0.0000 1.5668 -12.3896 -33.0802 -8.0699 -16.1704 52.8140 -1.8338 -0.5205 -25.8166 -0.1596 2.5744 -7.0960 -0.1710 2.9970 34.0400 -2.3785 2.6734 8.4153 -3.3459 0.9780 -7.9246 2.3512 8.6280 -28.6963 -10.3815 15.0373 28.7577 -1.4749 4.8666 16.2004 0.0000 0.0000 0.0000 -81.9738 -19.1326 50.7629 57.9888 -55.7498 -32.6731 0.0000 0.0000 -11.5971 0.0000 0.0000 0.0000 85.3337 11.6291 27.1241 -73.8370 58.9895 -46.0500 0.0000 0.0000 -16.4307
-0.8937 15.6669 0.0628 7.3063 12.2049 9.0257 0.0000 0.0000 0.0000 -12.6102 -7.5036 -39.3850 7.1075 15.4217 49.2797 0.4741 -6.7719 -12.4362 0.0474 -1.4048 -3.8635 0.0000 0.0000 0.0000 2.5859 -11.2192 -33.6975 -8.0393 -16.1481 52.7042 -1.7589 -0.4155 -25.2486 -0.1435 2.4416 -6.7277 0.1024 3.0201 33.7705 -2.1747 2.8355 8.1365 -3.3352 1.0506 -8.1182 0.6922 6.7570 -29.1873 -8.7585 12.4733 28.8689 -1.1153 3.8460 15.8322 0.0000 0.0000 0.0000 -81.8532 -19.0358 49.9636 58.6342 -55.9349 -33.2071 0.0000 0.0000 -11.7021 0.0000 0.0000 0.0000 85.5965 11.4994 27.2897 -74.2557 59.0423 -46.4089 0.0000 0.0000 -16.8153
-0.7739 15.6883 0.1111 7.0170 11.1202 8.5620 0.0000 0.0000 0.0000 -12.7066 -7.3832 -38.7406 7.2592 15.5463 49.8479 0.5789 -6.2554 -13.6035 0.0458 -1.3816 -3.7994 0.0000 0.0000 0.0000 2.3201 -11.6754 -33.0331 -7.7942 -15.9658 51.8181 -1.6900 0.5730 -24.4262 -0.1328 2.3489 -6.4709 -0.1688 2.8143 33.5385 -2.1455 2.4763 8.2404 -3.0196 0.8779 -7.9459 -1.9088 3.9283 -29.5119 -6.2697 8.5848 27.7365 -0.4959 2.3788 14.8153 0.0000 0.0000 0.0000 -81.6614 -18.9823 49.1537 58.8177 -55.9866 -33.3592 0.0000 0.0000 -11.6136 0.0000 0.0000 0.0000 86.0195 11.5061 27.6930 -74.2776 59.0451 -46.4277 0.0000 0.0000 -16.5323
-0.6623 15.6935 0.1160 6.5713 9.2036 8.4470 0.0000 0.0000 0.0000 -12.5856 -6.5232 -38.8771 7.4341 15.6868 50.4976 0.6701 -5.6299 -14.5844 0.0452 -1.3721 -3.7732 0.0000 0.0000 0.0000 2.3378 -10.7333 -33.1227 -7.6295 -15.8399 51.2171 -1.6166 0.6768 -23.8502 -0.1846 2.7672 -7.6311 -0.6756 2.8655 33.4456 -2.1388 2.3696 8.0214 -2.7073 0.8248 -8.1728 -3.8217 1.2594 -29.5106 -4.2433 4.8427 26.0106 -0.1195 0.9863 13.8152 0.0000 0.0000 0.0000 -81.4660 -18.7798 48.6382 58.6020 -55.9258 -33.1805 0.0000 0.0000 -11.6449 0.0000 0.0000 0.0000 86.4838 11.2147 27.9149 -74.6347 59.0888 -46.7340 0.0000 0.0000 -16.7862
-0.5259 15.7179 0.1362 5.9216 6.6137 8.0440 0.0000 0.0000 0.0000 -12.7097 -4.9924 -38.5632 7.6093 15.8243 51.1431 0.7940 -4.9208 -15.8615 0.0350 -1.2076 -3.3203 0.0000 0.0000 0.0000 1.9684 -9.3636 -32.5190 -7.2490 -15.5380 49.8100 -1.4715 1.4628 -22.5161 -0.1632 2.6028 -7.1748 -1.0499 2.4855 32.8456 -2.0482 1.8102 7.6028 -2.2193 0.5675 -8.5146 -4.4526 0.4919 -27.8778 -2.9683 3.3813 23.8938 0.2296 0.6159 12.7448 0.0000 0.0000 0.0000 -81.5594 -18.3554 47.7604 57.9219 -55.7303 -32.6178 0.0000 0.0000 -11.8138 0.0000 0.0000 0.0000 87.4140 10.2472 28.2164 -72.9436 58.8717 -45.2847 0.0000 0.0000 -16.5872
-0.3972 15.7370 0.1556 5.6863 4.4929 7.7016 0.0000 0.0000 0.0000 -13.1606 -3.4173 -38.2758 7.6641 15.8666 51.3435 0.8679 -4.5854 -16.6297 0.0170 -0.8413 -2.3122 0.0000 0.0000 0.0000 1.3803 -7.9624 -31.8352 -6.9397 -15.2809 48.6460 -1.3682 1.7617 -21.6505 -0.1740 2.6866 -7.4075 -1.5913 2.2364 32.2898 -1.9251 1.3619 7.3230 -1.6441 0.3659 -8.7178 -3.9441 0.9874 -26.8198 -2.9716 3.7197 22.7932 0.2673 0.8796 12.3592 0.0000 0.0000 0.0000 -81.7645 -18.1097 47.2002 57.5864 -55.6318 -32.3407 0.0000 0.0000 -11.6401 0.0000 0.0000 0.0000 87.7430 9.3342 28.3904 -70.8611 58.5697 -43.5048 0.0000 0.0000 -16.2146
-0.2740 15.7603 0.1799 5.3608 2.6532 7.3813 0.0000 0.0000 0.0000 -13.3657 -1.9968 -37.8900 7.6622 15.8651 51.3368 0.9286 -4.1672 -17.2804 0.0136 -0.7534 -2.0705 0.0000 0.0000 0.0000 1.1337 -6.4079 -31.0166 -6.6152 -14.9991 47.4034 -1.2742 1.5321 -20.9434 -0.1894 2.8028 -7.7305 -1.9149 2.1309 31.6773 -1.8310 1.1674 7.1177 -1.3051 0.2825 -8.8015 -2.2952 2.5375 -26.7370 -4.5852 5.7196 23.6520 -0.2109 1.6458 12.9045 0.0000 0.0000 0.0000 -81.8518 -18.0654 47.0219 56.9640 -55.4451 -31.8275 0.0000 0.0000 -11.5672 0.0000 0.0000 0.0000 88.1210 8.4995 28.4236 -69.5774 58.3639 -42.4106 0.0000 0.0000 -15.8352
-0.1581 15.7854 0.2107 5.1159 1.4021 7.0811 0.0000 0.0000 0.0000 -13.4907 -0.9273 -37.4882 7.6492 15.8551 51.2890 0.9757 -3.9837 -17.7636 0.0138 -0.7590 -2.0859 0.0000 0.0000 0.0000 0.9569 -5.2984 -30.3030 -6.3663 -14.7741 46.4347 -1.2063 1.5547 -20.3845 -0.1935 2.8326 -7.8130 -2.1119 1.9869 31.0986 -1.7761 0.9547 7.0692 -1.0661 0.1862 -8.7203 -1.0418 4.2578 -26.5224 -5.7876 8.0357 24.5166 -0.4240 2.5616 13.4438 0.0000 0.0000 0.0000 -81.8919 -18.2267 46.5795 56.2320 -55.2194 -31.2255 0.0000 0.0000 -11.6305 0.0000 0.0000 0.0000 88.4834 7.9668 28.5125 -68.3303 58.1492 -41.3501 0.0000 0.0000 -15.5020
-0.0733 15.8042 0.2252 4.8379 0.4369 6.8278 0.0000 0.0000 0.0000 -13.4040 0.0734 -37.2365 7.6063 15.8220 51.1321 0.9891 -3.7839 -17.9129 0.0120 -0.7076 -1.9444 0.0000 0.0000 0.0000 0.9777 -4.1330 -29.7068 -6.1654 -14.5867 45.6420 -1.1607 1.1169 -20.0761 -0.1872 2.7864 -7.6848 -2.2940 1.9666 30.6325 -1.7806 0.8930 7.1304 -0.9659 0.1578 -8.7719 0.5658 6.1033 -26.2358 -7.2922 10.5821 25.8776 -0.7921 3.5187 14.1760 0.0000 0.0000 0.0000 -81.7635 -18.2414 46.1596 55.4989 -54.9861 -30.6242 0.0000 0.0000 -11.7203 0.0000 0.0000 0.0000 88.8064 7.5645 28.7259 -67.1022 57.9231 -40.3082 0.0000 0.0000 -15.1892
