HIERARCHY
ROOT Hips
{
	OFFSET 0.00000 0.00000 0.00000
	CHANNELS 6 Xposition Yposition Zposition Zrotation Yrotation Xrotation
	JOINT LHipJoint
	{
		OFFSET 0.00000 0.00000 0.00000
		CHANNELS 3 Zrotation Yrotation Xrotation
		JOINT LeftUpLeg
		{
			OFFSET 1.77779 -1.88989 0.48267
			CHANNELS 3 Zrotation Yrotation Xrotation
			JOINT LeftLeg
			{
				OFFSET 2.53442 -6.96327 0.00000
				CHANNELS 3 Zrotation Yrotation Xrotation
				JOINT LeftFoot
				{
					OFFSET 2.71068 -7.44755 0.00000
					CHANNELS 3 Zrotation Yrotation Xrotation
					JOINT LeftToeBase
					{
						OFFSET 0.17992 -0.49431 2.22524
						CHANNELS 3 Zrotation Yrotation Xrotation
						End Site
						{
							OFFSET 0.00000 -0.00000 1.14687
						}
					}
				}
			}
		}
	}
	JOINT RHipJoint
	{
		OFFSET 0.00000 0.00000 0.00000
		CHANNELS 3 Zrotation Yrotation Xrotation
		JOINT RightUpLeg
		{
			OFFSET -1.58469 -1.88989 0.48267
			CHANNELS 3 Zrotation Yrotation Xrotation
			JOINT RightLeg
			{
				OFFSET -2.60386 -7.15404 0.00000
				CHANNELS 3 Zrotation Yrotation Xrotation
				JOINT RightFoot
				{
					OFFSET -2.73334 -7.50979 0.00000
					CHANNELS 3 Zrotation Yrotation Xrotation
					JOINT RightToeBase
					{
						OFFSET -0.25618 -0.70384 2.21822
						CHANNELS 3 Zrotation Yrotation Xrotation
						End Site
						{
							OFFSET -0.00000 -0.00000 1.16381
						}
					}
				}
			}
		}
	}
	JOINT LowerBack
	{
		OFFSET 0.00000 0.00000 0.00000
		CHANNELS 3 Zrotation Yrotation Xrotation
		JOINT Spine
		{
			OFFSET 0.03410 2.01612 -0.22230
			CHANNELS 3 Zrotation Yrotation Xrotation
			JOINT Spine1
			{
				OFFSET 0.03465 2.03012 0.00937
				CHANNELS 3 Zrotation Yrotation Xrotation
				JOINT Neck
				{
					OFFSET 0.00000 0.00000 0.00000
					CHANNELS 3 Zrotation Yrotation Xrotation
					JOINT Neck1
					{
						OFFSET -0.00219 1.70459 0.20857
						CHANNELS 3 Zrotation Yrotation Xrotation
						JOINT Head
						{
							OFFSET 0.02518 1.72339 -0.22179
							CHANNELS 3 Zrotation Yrotation Xrotation
							End Site
							{
								OFFSET 0.00282 1.74122 -0.09823
							}
						}
					}
				}
				JOINT LeftShoulder
				{
					OFFSET 0.00000 0.00000 0.00000
					CHANNELS 3 Zrotation Yrotation Xrotation
					JOINT LeftArm
					{
						OFFSET 3.36358 1.00547 -0.37661
						CHANNELS 3 Zrotation Yrotation Xrotation
						JOINT LeftForeArm
						{
							OFFSET 5.06507 -0.00000 0.00000
							CHANNELS 3 Zrotation Yrotation Xrotation
							JOINT LeftHand
							{
								OFFSET 3.60196 -0.00000 0.00000
								CHANNELS 3 Zrotation Yrotation Xrotation
								End Site
								{
									OFFSET 0.00000 0.60000 0.00000
								}
							}
						}
					}
				}
				JOINT RightShoulder
				{
					OFFSET 0.00000 0.00000 0.00000
					CHANNELS 3 Zrotation Yrotation Xrotation
					JOINT RightArm
					{
						OFFSET -3.50159 0.80383 -0.71526
						CHANNELS 3 Zrotation Yrotation Xrotation
						JOINT RightForeArm
						{
							OFFSET -5.36394 -0.00000 0.00000
							CHANNELS 3 Zrotation Yrotation Xrotation
							JOINT RightHand
							{
								OFFSET -3.58035 -0.00000 0.00000
								CHANNELS 3 Zrotation Yrotation Xrotation
								End Site
								{
									OFFSET 0.00000 0.60000 0.00000
								}
							}
						}
					}
				}
			}
		}
	}
}
MOTION
Frames: 23
Frame Time: 0.0333333
0.0000 18.2938 0.0000 2.0260 0.0000 4.5577 0.0000 -0.0000 0.0000 -29.1212 -0.2634 15.8114 4.0092 12.1727 36.3455 2.2776 -10.4514 33.7755 0.1299 -2.3232 -6.3998 0.0000 -0.0000 0.0000 21.7273 9.3395 -37.0366 -2.2006 -9.2721 26.6502 0.0950 -5.5290 -1.0811 -1.1216 6.7274 -18.9103 -2.9246 -1.6332 12.2793 1.2233 -2.5139 -0.9526 3.4206 -1.0722 -7.7340 -2.6767 -3.3745 -18.7966 2.9411 -4.3707 13.0039 0.8910 -1.9530 7.1850 0.0000 -0.0000 0.0000 -84.3403 3.8118 44.9663 129.3760 -53.2441 -93.3267 0.0000 -0.0000 -31.9055 0.0000 -0.0000 0.0000 89.4253 -32.6725 36.9679 -119.0017 56.5701 -84.8270 0.0000 -0.0000 -17.1160
0.1124 17.9601 1.8438 1.7576 -0.4624 3.1384 0.0000 0.0000 0.0000 -28.0782 -0.0982 11.9013 7.1391 15.4479 49.3985 2.0064 -11.8892 33.2209 0.0544 -1.5052 -4.1401 0.0000 0.0000 0.0000 22.8735 8.6324 -35.6324 -3.2832 -11.1400 32.7535 -0.0039 -0.6376 1.1242 -0.2468 3.1966 -8.8265 -2.3913 -1.3593 13.3360 1.3156 -2.0780 -0.1751 3.1579 -0.8925 -7.5457 -2.6413 -3.3481 -19.1187 2.5664 -4.2693 12.9779 0.7706 -1.9351 7.2172 0.0000 0.0000 0.0000 -84.7359 5.0492 44.5931 124.8426 -54.8750 -89.6553 0.0000 0.0000 -31.3438 0.0000 0.0000 0.0000 89.6673 -29.2644 37.2178 -117.0798 57.0392 -83.2187 0.0000 0.0000 -17.4091
0.1984 17.5463 3.6910 0.6175 -0.5509 1.8235 0.0000 0.0000 0.0000 -24.8469 0.2698 5.2112 11.5863 18.2103 64.6715 1.8871 -9.6067 30.9004 0.0729 1.7422 4.7938 0.0000 0.0000 0.0000 24.6539 9.3537 -32.6205 -5.4053 -13.8262 42.5456 -0.2408 1.0126 -8.9662 -0.1185 -2.2196 6.1131 -1.0710 -0.9992 14.7765 1.6094 -1.3747 -0.0510 2.6283 -0.5836 -8.2975 -2.6298 -3.3838 -18.2465 2.2676 -4.2893 12.8792 0.6814 -1.9811 7.0322 0.0000 0.0000 0.0000 -85.5624 8.4032 44.7320 121.6413 -55.8565 -87.0210 0.0000 0.0000 -32.7475 0.0000 0.0000 0.0000 89.6489 -25.3581 38.3094 -113.8506 57.7375 -80.4983 0.0000 0.0000 -17.8946
0.2679 17.1948 5.4562 -2.6728 -1.4134 1.8088 0.0000 0.0000 0.0000 -18.2331 0.6311 -5.0462 16.6933 19.7358 80.2907 0.7270 -9.3531 22.0965 0.0030 -0.3527 -0.9691 0.0000 0.0000 0.0000 29.6009 12.4030 -28.8233 -7.3232 -15.5982 50.0865 -0.6857 -4.2138 -17.7354 -0.0119 -0.7037 1.9337 2.0594 -0.2695 15.9268 2.5350 0.2515 0.0757 1.5044 0.0912 -8.8849 -2.1731 -3.3707 -19.5886 1.5939 -4.2469 13.1172 0.3721 -1.9891 7.3067 0.0000 0.0000 0.0000 -86.2811 11.3476 44.4521 118.1018 -56.7949 -84.0750 0.0000 0.0000 -31.6671 0.0000 0.0000 0.0000 89.2650 -19.1091 40.1590 -111.4639 58.1856 -78.4750 0.0000 0.0000 -19.2689
0.3229 16.9022 7.1106 -4.1415 0.4195 2.3049 0.0000 0.0000 0.0000 -13.5789 -2.8336 -17.4741 20.9849 19.9767 92.8809 0.2291 -8.6903 15.9977 0.0186 0.8814 2.4224 0.0000 0.0000 0.0000 32.4174 12.2721 -23.9934 -8.1659 -16.2399 53.1579 -1.3384 -8.3728 -26.3359 -0.0422 1.3265 -3.6477 3.2324 -0.2476 16.3196 3.0408 0.5542 0.3291 1.3148 0.1990 -8.8305 -1.8624 -3.3070 -20.1052 1.7340 -4.2384 12.0705 0.3705 -1.9577 7.0440 0.0000 0.0000 0.0000 -86.9281 14.8260 43.9930 115.1657 -57.4663 -81.6087 0.0000 0.0000 -31.3993 0.0000 0.0000 0.0000 88.1259 -10.9548 42.8989 -110.2422 58.3937 -77.4357 0.0000 0.0000 -19.6601
0.3734 16.9045 8.7782 -3.4371 4.0126 2.6456 0.0000 0.0000 0.0000 -12.4082 -8.4780 -28.1125 22.5378 19.8449 97.4385 0.0147 -6.3105 9.3774 0.0085 -0.5954 -1.6362 0.0000 0.0000 0.0000 32.8459 8.3884 -18.4926 -7.9506 -16.0828 52.3846 -1.8579 -9.7394 -30.8082 -0.1652 2.6187 -7.2188 2.7733 -0.3059 16.9494 2.8750 0.4152 0.2128 1.4369 0.1467 -9.3138 -1.7590 -3.7057 -20.1662 1.9033 -4.8240 11.7009 0.3421 -2.2196 6.9449 0.0000 0.0000 0.0000 -86.0664 18.5614 45.7347 115.8989 -57.3073 -82.2264 0.0000 0.0000 -32.0292 0.0000 0.0000 0.0000 87.8724 -4.8385 43.5718 -113.9681 57.7140 -80.5977 0.0000 0.0000 -20.5180
0.4863 17.1238 10.6158 -4.9106 3.5079 3.2332 0.0000 0.0000 0.0000 -9.6530 -9.1707 -36.6407 21.3805 19.9542 94.0394 -0.0995 -5.6123 2.6486 0.0350 1.2072 3.3191 0.0000 0.0000 0.0000 35.4568 7.1615 -10.0180 -6.8282 -15.1855 48.2216 -1.5099 -9.5090 -28.3706 -0.5681 4.8274 -13.4169 4.4853 1.0123 15.8581 2.9562 2.4457 -0.0942 0.0793 1.0457 -8.9751 -2.0505 -4.2445 -19.7029 2.0759 -5.5292 12.4493 0.3609 -2.5529 7.1405 0.0000 0.0000 0.0000 -84.2370 22.5202 47.9865 117.8647 -56.8526 -83.8766 0.0000 0.0000 -32.8502 0.0000 0.0000 0.0000 87.8360 -1.1406 43.3427 -118.2883 56.7491 -84.2310 0.0000 0.0000 -21.4427
0.6585 17.5486 12.4942 -4.3326 5.2355 4.0460 0.0000 0.0000 0.0000 -10.7444 -12.5505 -40.6968 17.5059 19.8502 82.6903 -0.1308 -6.8054 0.0208 0.2780 -3.3912 -9.3700 0.0000 0.0000 0.0000 34.5848 4.1992 -3.2750 -5.6080 -14.0374 43.3875 -0.5830 -7.6900 -19.2290 -1.0562 6.5347 -18.3439 5.7260 1.5462 14.6805 2.0335 3.2330 -0.5609 -1.7516 1.3486 -8.6715 -1.9765 -4.7874 -18.8964 2.2052 -6.3217 12.4367 0.3140 -2.9252 7.0210 0.0000 0.0000 0.0000 -82.6924 26.1118 48.6714 119.2780 -56.4993 -85.0575 0.0000 0.0000 -32.6948 0.0000 0.0000 0.0000 88.3028 0.9336 42.0806 -121.5984 55.8687 -86.9855 0.0000 0.0000 -20.9774
0.7934 17.9472 14.3989 -3.6603 8.9850 2.7386 0.0000 0.0000 0.0000 -12.6510 -16.1618 -39.2712 12.1846 18.4676 66.5727 -0.2834 -9.8827 0.3298 0.5852 -4.8979 -13.6176 0.0000 0.0000 0.0000 33.6872 -0.6156 3.6765 -4.2390 -12.4718 37.4222 0.1910 -7.7241 -2.9558 -0.4978 4.5233 -12.5538 6.2422 1.0562 15.4456 1.6764 2.7112 -0.6572 -2.3417 1.0448 -9.2084 -2.1722 -4.8223 -18.2425 1.9604 -6.3102 13.1408 0.2723 -2.9523 7.1401 0.0000 0.0000 0.0000 -82.8357 29.7689 47.3785 119.5336 -56.4330 -85.2705 0.0000 0.0000 -32.1617 0.0000 0.0000 0.0000 87.9553 1.9955 41.0751 -121.3693 55.9339 -86.7958 0.0000 0.0000 -20.2582
0.9893 18.3699 16.5113 -2.4781 10.1021 3.0024 0.0000 0.0000 0.0000 -15.4816 -16.5113 -35.4731 6.4150 14.8188 46.6256 -0.5857 -13.4321 5.7990 0.7722 -5.6109 -15.6596 0.0000 0.0000 0.0000 31.4913 -2.3590 11.2185 -2.7723 -10.3169 30.0093 -0.5799 -10.8177 14.5310 -0.0018 -0.2747 0.7547 6.1546 1.6258 13.1290 0.8764 3.2254 -1.1891 -3.1758 1.2993 -8.3789 -2.3794 -4.9927 -16.2996 2.2421 -6.6016 13.7703 0.4000 -3.0911 7.0419 0.0000 0.0000 0.0000 -82.8184 33.6652 45.8787 120.0144 -56.3061 -85.6709 0.0000 0.0000 -31.4900 0.0000 0.0000 0.0000 87.5472 0.9012 40.4057 -119.7084 56.3872 -85.4161 0.0000 0.0000 -21.3732
1.1556 18.5595 18.5724 -3.1835 8.7751 4.1597 0.0000 0.0000 0.0000 -15.7324 -14.3593 -33.9736 2.8775 10.4940 30.5917 -0.6373 -15.3219 12.4346 0.6506 -5.1594 -14.3638 0.0000 0.0000 0.0000 32.1402 0.5875 15.5771 -2.6023 -10.0216 29.0468 -1.6273 -10.0608 22.9167 -1.5340 -7.8192 22.1664 6.7654 2.7759 10.1017 0.6495 4.5987 -1.4579 -3.8171 2.0027 -6.7422 -2.4800 -5.2710 -17.7289 2.4583 -7.0309 15.7903 0.3740 -3.2403 7.9751 0.0000 0.0000 0.0000 -82.9757 35.9244 44.1267 122.1851 -55.6990 -87.4706 0.0000 0.0000 -30.7197 0.0000 0.0000 0.0000 87.0104 0.8853 40.5274 -117.5681 56.9239 -83.6282 0.0000 0.0000 -21.3424
1.3259 18.5201 20.4805 -3.4279 9.2312 3.8653 0.0000 0.0000 0.0000 -17.4472 -12.7684 -32.2402 1.4977 7.7304 21.8982 -0.1818 -12.0055 14.3356 0.8508 -5.8827 -16.4444 0.0000 0.0000 0.0000 32.3953 1.5969 17.6348 -3.1659 -10.9589 32.1414 -1.4827 -6.3477 21.8225 -0.6351 -5.0989 14.1910 7.6052 2.8290 10.5320 0.3967 4.8117 -1.7229 -4.6222 2.0411 -7.1646 -2.4873 -5.0476 -18.4034 2.3229 -6.7119 16.7150 0.3422 -3.0843 8.3903 0.0000 0.0000 0.0000 -83.6819 37.4599 42.6517 125.1470 -54.7747 -89.9041 0.0000 0.0000 -29.2166 0.0000 0.0000 0.0000 86.8776 -0.0372 41.3035 -116.4302 57.1885 -82.6732 0.0000 0.0000 -20.8645
1.4687 18.2751 22.3533 -3.7432 9.1494 3.1730 0.0000 0.0000 0.0000 -18.0939 -11.7932 -30.9014 1.4719 7.6665 21.7057 -0.3613 -13.7008 14.3265 0.9813 -6.3057 -17.6739 0.0000 0.0000 0.0000 32.2321 2.3221 16.4544 -4.7197 -13.0610 39.5971 -0.9675 -3.4445 17.7523 -0.1148 -2.1845 6.0158 7.8236 2.8514 11.4870 0.4910 4.9506 -1.4577 -4.7233 2.0945 -7.3977 -2.8000 -4.9210 -18.7368 2.2501 -6.3996 15.8235 0.4108 -2.9701 8.1477 0.0000 0.0000 0.0000 -85.1859 37.0065 41.4871 127.2772 -54.0363 -91.6364 0.0000 0.0000 -28.3462 0.0000 0.0000 0.0000 86.6491 -0.4962 42.2946 -114.3598 57.6346 -80.9287 0.0000 0.0000 -20.8665
1.5415 17.8243 24.1905 -3.3495 9.3213 1.5268 0.0000 0.0000 0.0000 -18.9878 -10.6105 -29.4479 2.5926 10.0044 28.9908 -1.0254 -17.7925 9.6458 0.0039 0.4058 1.1149 0.0000 0.0000 0.0000 30.3396 1.2141 12.6085 -7.6443 -15.8513 51.2710 -0.4129 -3.3106 11.4543 -0.0028 -0.3433 0.9432 6.2575 2.7827 13.4478 0.6689 4.7674 -0.8290 -3.7489 2.0580 -7.9917 -3.0662 -4.8782 -18.3903 2.6824 -6.3247 14.6084 0.6267 -2.9220 7.7049 0.0000 0.0000 0.0000 -86.5862 34.8534 41.5099 128.6055 -53.5427 -92.7081 0.0000 0.0000 -28.3914 0.0000 0.0000 0.0000 87.0801 -1.5959 42.4186 -111.1774 58.2357 -78.2315 0.0000 0.0000 -20.4055
1.6401 17.3749 26.0160 -2.9312 7.5543 0.5095 0.0000 0.0000 0.0000 -19.9066 -9.4473 -27.5972 4.9710 13.3511 40.6974 -0.6251 -18.3798 -6.2002 0.2192 3.0138 8.3171 0.0000 0.0000 0.0000 28.2805 2.9996 7.0113 -11.5282 -18.1840 64.4852 -0.0370 -5.9707 5.1482 -0.0461 1.3863 -3.8123 4.7498 3.1488 14.8680 0.4650 5.0489 -0.2472 -3.2587 2.2502 -8.2396 -2.7827 -4.8929 -18.6111 3.2674 -6.5035 14.0408 0.7527 -2.9366 7.5718 0.0000 0.0000 0.0000 -87.6320 30.4384 42.5949 129.0904 -53.3558 -93.0977 0.0000 0.0000 -29.0415 0.0000 0.0000 0.0000 88.7825 -3.2213 42.1831 -106.1650 58.9892 -73.9518 0.0000 0.0000 -19.2638
1.7272 16.9522 27.7372 1.5564 8.0314 1.1044 0.0000 0.0000 0.0000 -26.2667 -11.1855 -22.3823 6.2962 14.7094 46.1593 0.9952 -11.2185 -18.3273 0.0015 -0.2504 -0.6880 0.0000 0.0000 0.0000 20.6718 3.4685 -3.1892 -16.0108 -19.6141 78.2640 0.0845 -6.0536 1.1843 -0.0041 0.4140 -1.1374 -0.1168 2.7770 15.5437 -0.9540 3.5791 0.2154 -1.7612 1.7087 -8.4388 -2.3539 -4.7580 -19.3082 3.5302 -6.4527 13.6496 0.7666 -2.8586 7.5544 0.0000 0.0000 0.0000 -87.8959 22.9867 44.5976 128.0090 -53.7676 -92.2277 0.0000 0.0000 -31.5883 0.0000 0.0000 0.0000 91.3785 -6.3253 40.9865 -102.5801 59.3935 -70.8725 0.0000 0.0000 -19.0631
1.7891 16.7469 29.3464 1.7205 6.9997 2.3162 0.0000 0.0000 0.0000 -26.6461 -10.4780 -18.6101 6.9361 15.2778 48.6322 1.7548 -10.1509 -23.7954 0.0061 0.5063 1.3912 0.0000 0.0000 0.0000 18.1802 6.3118 -16.2678 -19.4348 -19.9923 88.3472 0.1506 -7.0242 -4.1632 -0.0578 -1.5509 4.2660 -1.0026 2.5082 16.0215 -1.1020 3.0390 0.1219 -1.3275 1.4763 -8.8610 -2.2787 -4.7582 -20.3329 3.9529 -6.5164 13.2895 0.8688 -2.8329 7.6224 0.0000 0.0000 0.0000 -87.4068 13.6711 47.0737 126.5301 -54.3026 -91.0307 0.0000 0.0000 -32.1091 0.0000 0.0000 0.0000 92.8870 -10.7096 40.0130 -102.3143 59.4192 -70.6437 0.0000 0.0000 -19.4661
1.8908 16.8298 31.0368 1.0780 5.6675 3.9162 0.0000 0.0000 0.0000 -26.7179 -8.1346 -13.2326 6.5238 14.9174 47.0495 1.9895 -7.8774 -25.3251 0.1265 -2.2923 -6.3142 0.0000 0.0000 0.0000 17.0879 9.1016 -28.5891 -20.3521 -19.9970 91.0296 0.1549 -7.4346 -5.5072 -0.0120 -0.7083 1.9465 -0.6957 1.8389 15.4717 -0.9586 2.2255 -0.4114 -1.1508 1.0745 -9.1337 -2.1742 -4.2938 -20.5286 3.9068 -5.8966 13.1228 0.9140 -2.5370 7.5754 0.0000 0.0000 0.0000 -87.5986 7.0415 47.6736 127.2772 -54.0363 -91.6364 0.0000 0.0000 -29.7422 0.0000 0.0000 0.0000 93.2606 -16.1754 40.2756 -106.1925 58.9857 -73.9754 0.0000 0.0000 -19.8890
2.0312 17.3139 32.8434 1.5622 5.4673 4.6501 0.0000 0.0000 0.0000 -28.4240 -6.2675 -1.6043 5.0552 13.4456 41.0606 1.3802 -8.2319 -11.9695 0.2319 -3.0991 -8.5548 0.0000 0.0000 0.0000 16.8353 8.6153 -36.6152 -15.8926 -19.5906 77.9113 0.0271 -5.9074 -6.9685 -0.0177 0.8581 -2.3583 -1.3681 -0.1798 14.5849 -0.1825 -0.4949 -0.5339 0.6736 -0.1793 -8.7548 -2.3487 -3.0774 -19.9808 3.1389 -4.0453 12.3886 0.9309 -1.7536 7.1682 0.0000 0.0000 0.0000 -87.7999 3.7509 46.0823 131.6178 -52.3218 -95.1121 0.0000 0.0000 -32.5333 0.0000 0.0000 0.0000 90.5066 -22.3392 41.8715 -111.4170 58.1939 -78.4352 0.0000 0.0000 -20.3021
2.1350 17.8187 34.7435 1.1945 4.0615 5.0093 0.0000 0.0000 0.0000 -27.9534 -2.6926 5.9485 3.8704 11.9859 35.6822 0.6506 -9.7182 5.0528 1.3964 -7.4756 -21.1324 0.0000 0.0000 0.0000 18.5891 9.6956 -39.7099 -10.4094 -17.6338 60.8483 -0.0201 -4.8257 -6.7232 -0.1919 2.8209 -7.7807 -1.7631 -1.0062 14.1008 0.7669 -1.5712 -0.9618 2.1446 -0.6517 -8.8900 -2.3499 -2.7408 -19.6900 2.2816 -3.4484 12.4199 0.7243 -1.5536 7.0972 0.0000 0.0000 0.0000 -86.9559 2.5538 46.0874 133.1041 -51.6642 -96.2833 0.0000 0.0000 -34.1324 0.0000 0.0000 0.0000 88.8686 -28.1124 41.1114 -115.2997 57.4376 -81.7217 0.0000 0.0000 -19.9413
2.2824 18.2054 36.7294 0.3603 1.9479 5.1958 0.0000 0.0000 0.0000 -26.9109 -0.2731 11.1309 3.1270 10.8979 31.9362 1.1595 -9.3167 23.3106 0.7742 -5.6182 -15.6805 0.0000 0.0000 0.0000 20.7270 11.1365 -39.5664 -5.9793 -14.4083 44.8986 0.0460 -3.6003 -3.5583 -0.4585 4.3434 -12.0449 -1.1169 -1.2281 12.9726 1.3599 -1.6960 -1.0180 2.4110 -0.7385 -8.2922 -2.7124 -2.5760 -19.1790 2.5883 -3.1937 12.4102 0.9163 -1.4239 7.0147 0.0000 0.0000 0.0000 -85.7173 2.4304 46.2566 132.7857 -51.8083 -96.0333 0.0000 0.0000 -32.2234 0.0000 0.0000 0.0000 88.6566 -31.5052 39.2052 -116.6481 57.1389 -82.8563 0.0000 0.0000 -18.7508
2.4128 18.3602 38.7125 0.6615 0.4215 5.3193 0.0000 0.0000 0.0000 -27.5141 0.4080 14.5404 2.9158 10.5577 30.8020 2.2043 -8.6033 31.9796 0.3286 -3.6840 -10.1894 0.0000 0.0000 0.0000 21.2796 11.8641 -38.4856 -3.4803 -11.4348 33.7607 0.0336 -3.0819 -0.3659 -0.7684 5.5974 -15.6207 -1.5770 -1.3317 12.4485 1.4928 -1.8890 -1.1976 2.8389 -0.8107 -8.1607 -2.8228 -2.6692 -19.2345 2.6274 -3.3097 13.0862 0.9344 -1.4793 7.2508 0.0000 0.0000 0.0000 -84.8334 3.2034 46.1734 132.2899 -52.0292 -95.6430 0.0000 0.0000 -31.2767 0.0000 0.0000 0.0000 88.6289 -33.1336 38.1411 -117.4755 56.9459 -83.5505 0.0000 0.0000 -18.2877
2.5317 18.3687 40.6879 1.5362 -0.1305 5.0855 0.0000 0.0000 0.0000 -28.6975 0.3017 15.6142 3.4296 11.3600 33.5037 2.2863 -9.3395 33.0498 0.1647 -2.6147 -7.2080 0.0000 0.0000 0.0000 21.3255 10.9498 -37.5774 -2.4604 -9.7656 28.2208 0.0097 -4.0209 0.3164 -0.9346 6.1579 -17.2434 -2.3607 -1.4360 12.1360 1.2485 -2.1624 -1.0994 3.0627 -0.9210 -7.8479 -2.8964 -2.9777 -19.1945 2.9340 -3.7665 13.2173 0.9942 -1.6718 7.3065 0.0000 0.0000 0.0000 -84.2001 3.6708 46.1107 131.4614 -52.3888 -94.9882 0.0000 0.0000 -31.7882 0.0000 0.0000 0.0000 89.1424 -33.5251 37.2618 -118.2030 56.7701 -84.1596 0.0000 0.0000 -17.7441
