HIERARCHY
ROOT Hips
{
	OFFSET 0.00000 0.00000 0.00000
	CHANNELS 6 Xposition Yposition Zposition Zrotation Yrotation Xrotation
	JOINT LHipJoint
	{
		OFFSET 0.00000 0.00000 0.00000
		CHANNELS 3 Zrotation Yrotation Xrotation
		JOINT LeftUpLeg
		{
			OFFSET 1.58895 -1.83665 0.71753
			CHANNELS 3 Zrotation Yrotation Xrotation
			JOINT LeftLeg
			{
				OFFSET 2.50528 -6.88321 0.00000
				CHANNELS 3 Zrotation Yrotation Xrotation
				JOINT LeftFoot
				{
					OFFSET 2.63244 -7.23257 0.00000
					CHANNELS 3 Zrotation Yrotation Xrotation
					JOINT LeftToeBase
					{
						OFFSET 0.23691 -0.65090 1.72750
						CHANNELS 3 Zrotation Yrotation Xrotation
						End Site
						{
							OFFSET 0.00000 -0.00000 0.92561
						}
					}
				}
			}
		}
	}
	JOINT RHipJoint
	{
		OFFSET 0.00000 0.00000 0.00000
		CHANNELS 3 Zrotation Yrotation Xrotation
		JOINT RightUpLeg
		{
			OFFSET -1.51435 -1.83665 0.71753
			CHANNELS 3 Zrotation Yrotation Xrotation
			JOINT RightLeg
			{
				OFFSET -2.54551 -6.99375 0.00000
				CHANNELS 3 Zrotation Yrotation Xrotation
				JOINT RightFoot
				{
					OFFSET -2.66027 -7.30903 0.00000
					CHANNELS 3 Zrotation Yrotation Xrotation
					JOINT RightToeBase
					{
						OFFSET -0.22981 -0.63138 2.03959
						CHANNELS 3 Zrotation Yrotation Xrotation
						End Site
						{
							OFFSET -0.00000 -0.00000 1.07060
						}
					}
				}
			}
		}
	}
	JOINT LowerBack
	{
		OFFSET 0.00000 0.00000 0.00000
		CHANNELS 3 Zrotation Yrotation Xrotation
		JOINT Spine
		{
			OFFSET -0.02651 1.86275 -0.11152
			CHANNELS 3 Zrotation Yrotation Xrotation
			JOINT Spine1
			{
				OFFSET 0.01019 1.86224 0.04087
				CHANNELS 3 Zrotation Yrotation Xrotation
				JOINT Neck
				{
					OFFSET 0.00000 0.00000 0.00000
					CHANNELS 3 Zrotation Yrotation Xrotation
					JOINT Neck1
					{
						OFFSET -0.01926 1.80512 0.08867
						CHANNELS 3 Zrotation Yrotation Xrotation
						JOINT Head
						{
							OFFSET 0.05516 1.76451 -0.38475
							CHANNELS 3 Zrotation Yrotation Xrotation
							End Site
							{
								OFFSET 0.01592 1.82587 -0.14001
							}
						}
					}
				}
				JOINT LeftShoulder
				{
					OFFSET 0.00000 0.00000 0.00000
					CHANNELS 3 Zrotation Yrotation Xrotation
					JOINT LeftArm
					{
						OFFSET 3.47116 1.51376 0.14491
						CHANNELS 3 Zrotation Yrotation Xrotation
						JOINT LeftForeArm
						{
							OFFSET 4.78095 -0.00000 0.00000
							CHANNELS 3 Zrotation Yrotation Xrotation
							JOINT LeftHand
							{
								OFFSET 3.58615 -0.00000 -0.00000
								CHANNELS 3 Zrotation Yrotation Xrotation
								End Site
								{
									OFFSET 0.00000 0.60000 0.00000
								}
							}
						}
					}
				}
				JOINT RightShoulder
				{
					OFFSET 0.00000 0.00000 0.00000
					CHANNELS 3 Zrotation Yrotation Xrotation
					JOINT RightArm
					{
						OFFSET -3.31725 1.61216 0.35156
						CHANNELS 3 Zrotation Yrotation Xrotation
						JOINT RightForeArm
						{
							OFFSET -4.48913 -0.00000 0.00000
							CHANNELS 3 Zrotation Yrotation Xrotation
							JOINT RightHand
							{
								OFFSET -3.70510 -0.00000 0.00000
								CHANNELS 3 Zrotation Yrotation Xrotation
								End Site
								{
									OFFSET 0.00000 0.60000 0.00000
								}
							}
						}
					}
				}
			}
		}
	}
}
MOTION
Frames: 121
Frame Time: 0.0333333
0.0000 18.6375 0.0000 -4.0205 0.0000 -0.2930 0.0000 0.0000 0.0000 -9.9602 -8.2884 1.4364 1.3283 7.2985 20.6028 1.7110 5.8263 -27.3857 8.6629 -16.5858 -54.9169 0.0000 0.0000 0.0000 0.0000 0.0000 0.0000 0.0000 0.0000 0.0000 -0.0000 -0.0000 0.0000 -0.0000 -0.0000 0.0000 4.4211 0.6208 2.3100 2.5885 0.9423 0.7454 0.1538 0.4694 -0.5022 -0.9450 -4.3021 -2.9483 8.8262 -10.3106 42.8622 2.6708 -3.4723 16.6580 0.0000 0.0000 0.0000 -90.3554 15.3800 29.1797 23.8305 -34.9845 -7.6092 -0.0000 -0.0000 13.4520 0.0000 0.0000 0.0000 70.4691 -6.2152 39.4677 -146.5497 43.6733 -106.2680 0.0000 -0.0000 -4.5330
-0.0520 18.6381 0.0111 -4.0704 0.0950 -0.3258 0.0000 0.0000 0.0000 -9.6677 -8.0198 1.3589 1.3246 7.2887 20.5734 1.6556 5.8652 -27.0211 8.7738 -16.6600 -55.3046 0.0000 0.0000 0.0000 0.0000 0.0000 0.0000 0.0000 0.0000 0.0000 0.0000 0.0000 0.0000 0.0000 0.0000 0.0000 4.8814 0.5282 2.4969 2.7633 0.8299 1.0062 0.0796 0.4189 -0.3378 -0.7120 -4.5983 -2.1226 8.7197 -10.8375 43.4484 2.5537 -3.6778 16.8302 0.0000 0.0000 0.0000 -90.5024 15.7804 29.2307 24.1547 -35.3275 -7.7958 0.0000 0.0000 12.8973 0.0000 0.0000 0.0000 68.0440 -2.8525 40.5444 -150.9751 40.0428 -109.2233 0.0000 0.0000 -5.7676
-0.1039 18.6399 0.0193 -4.1101 0.2766 -0.2353 0.0000 0.0000 0.0000 -9.4219 -8.0418 1.2336 1.3194 7.2751 20.5328 1.6056 5.9894 -26.7387 8.8809 -16.7304 -55.6772 0.0000 0.0000 0.0000 0.0000 0.0000 0.0000 0.0000 0.0000 0.0000 0.0000 0.0000 0.0000 0.0000 0.0000 0.0000 5.3389 0.4591 2.6551 2.9488 0.7492 1.2257 0.0177 0.3844 -0.1992 -0.5886 -4.7962 -1.4816 8.7922 -11.2323 43.8332 2.5466 -3.8212 16.9453 0.0000 0.0000 0.0000 -90.8118 16.0287 29.3024 24.4917 -35.6800 -7.9916 0.0000 0.0000 12.5470 0.0000 0.0000 0.0000 65.8402 0.4198 41.5847 -154.2572 36.9536 -111.2675 0.0000 0.0000 -7.1935
-0.1581 18.6416 0.0319 -4.1160 0.4406 -0.1917 0.0000 0.0000 0.0000 -9.2358 -8.1450 1.2512 1.3112 7.2532 20.4678 1.5727 6.2085 -26.6329 8.9623 -16.7834 -55.9597 0.0000 0.0000 0.0000 0.0000 0.0000 0.0000 0.0000 0.0000 0.0000 0.0000 0.0000 0.0000 0.0000 0.0000 0.0000 5.6341 0.4279 2.8375 3.1692 0.7155 1.4748 0.0812 0.3743 -0.0445 -0.5309 -4.8871 -1.1732 8.9376 -11.4981 44.2706 2.5982 -3.8960 17.1782 0.0000 0.0000 0.0000 -91.0622 16.1109 29.5343 24.9812 -36.1848 -8.2788 0.0000 0.0000 11.8568 0.0000 0.0000 0.0000 63.9340 3.4497 42.0871 -156.4039 34.7342 -112.5248 0.0000 0.0000 -7.9324
-0.2108 18.6391 0.0443 -4.1615 0.6273 -0.1513 0.0000 0.0000 0.0000 -9.0104 -8.2820 1.2840 1.3031 7.2318 20.4038 1.5744 6.1779 -26.6271 8.9366 -16.7667 -55.8706 0.0000 0.0000 0.0000 0.0000 0.0000 0.0000 0.0000 0.0000 0.0000 0.0000 0.0000 0.0000 0.0000 0.0000 0.0000 5.9834 0.3825 3.2538 3.4059 0.6946 1.5742 0.1284 0.3631 -0.1740 -0.3530 -4.8935 -0.8285 8.7898 -11.4475 44.2714 2.5180 -3.8674 17.0592 0.0000 0.0000 0.0000 -91.1584 16.2319 30.0103 25.4220 -36.6322 -8.5404 0.0000 0.0000 11.3361 0.0000 0.0000 0.0000 62.8193 5.1478 42.4947 -158.0965 32.8678 -113.4666 0.0000 0.0000 -8.5622
-0.2662 18.6405 0.0573 -4.1513 0.8972 -0.0270 0.0000 0.0000 0.0000 -8.8150 -8.4987 1.2697 1.2782 7.1649 20.2050 1.5499 6.2922 -26.5189 8.9479 -16.7741 -55.9099 0.0000 0.0000 0.0000 0.0000 0.0000 0.0000 0.0000 0.0000 0.0000 0.0000 0.0000 0.0000 0.0000 0.0000 0.0000 6.2365 0.3233 3.5242 3.6417 0.6398 1.7147 0.2315 0.3378 -0.1820 -0.1959 -4.8344 -0.7167 8.6315 -11.3029 44.3184 2.4448 -3.7929 17.0170 0.0000 0.0000 0.0000 -91.2615 16.0145 30.3973 25.6885 -36.8994 -8.6999 0.0000 0.0000 10.8687 0.0000 0.0000 0.0000 61.6326 6.6901 42.0973 -159.3211 31.4516 -114.1185 0.0000 0.0000 -9.4732
-0.3197 18.6407 0.0682 -4.2658 0.9790 0.0136 0.0000 0.0000 0.0000 -8.5253 -8.6761 1.4012 1.2572 7.1082 20.0362 1.5344 6.4598 -26.5090 8.9782 -16.7937 -56.0147 0.0000 0.0000 0.0000 0.0000 0.0000 0.0000 0.0000 0.0000 0.0000 0.0000 0.0000 0.0000 0.0000 0.0000 0.0000 6.7392 0.2715 3.9543 3.8148 0.6162 1.9040 0.1303 0.3297 -0.2230 -0.1402 -4.7168 -0.5888 8.8645 -11.2415 44.4952 2.5660 -3.7240 17.1128 0.0000 0.0000 0.0000 -91.1897 15.9232 30.8684 26.1401 -37.3467 -8.9725 0.0000 0.0000 10.4746 0.0000 0.0000 0.0000 61.1768 7.5918 42.1764 -159.9996 30.6428 -114.4684 0.0000 0.0000 -9.3580
-0.3736 18.6405 0.0738 -4.3416 0.9683 0.1179 0.0000 0.0000 0.0000 -8.1804 -8.4357 1.2492 1.2460 7.0775 19.9453 1.5181 6.3495 -26.3237 9.0357 -16.8306 -56.2135 0.0000 0.0000 0.0000 0.0000 0.0000 0.0000 0.0000 0.0000 0.0000 0.0000 0.0000 0.0000 0.0000 0.0000 0.0000 7.1689 0.1828 4.4578 4.0350 0.5527 2.0957 0.1204 0.3003 -0.3058 0.0268 -4.5578 -0.4119 8.7302 -10.9809 44.6841 2.5253 -3.5972 17.1336 0.0000 0.0000 0.0000 -91.2614 15.8494 31.3870 26.5935 -37.7887 -9.2489 0.0000 0.0000 9.9613 0.0000 0.0000 0.0000 60.4621 8.2788 41.5874 -160.2890 30.2926 -114.6152 0.0000 0.0000 -9.4810
-0.4318 18.6466 0.0712 -4.3271 0.9401 0.2775 0.0000 0.0000 0.0000 -7.9836 -8.5534 1.1538 1.2324 7.0403 19.8349 1.5094 6.4597 -26.3274 8.9758 -16.7921 -56.0063 0.0000 0.0000 0.0000 0.0000 0.0000 0.0000 0.0000 0.0000 0.0000 0.0000 0.0000 0.0000 0.0000 0.0000 0.0000 7.5215 0.1073 5.0430 4.2104 0.5111 2.3560 0.1073 0.2834 -0.3620 0.3689 -4.3428 -0.5377 8.4846 -10.6282 44.8720 2.4041 -3.4040 17.1985 0.0000 0.0000 0.0000 -91.3675 15.4635 31.6578 26.7156 -37.9066 -9.3239 0.0000 0.0000 9.8376 0.0000 0.0000 0.0000 59.7481 8.7744 40.6778 -160.3968 30.1613 -114.6695 0.0000 0.0000 -9.8712
-0.4891 18.6565 0.0686 -4.3369 1.0276 0.6216 0.0000 0.0000 0.0000 -7.6597 -8.4042 0.6852 1.2248 7.0193 19.7724 1.4337 6.5589 -25.8323 9.1327 -16.8923 -56.5479 0.0000 0.0000 0.0000 0.0000 0.0000 0.0000 0.0000 0.0000 0.0000 0.0000 0.0000 0.0000 0.0000 0.0000 0.0000 7.7366 -0.3299 5.3989 4.7454 -0.0201 2.4195 0.5719 0.0138 -0.5214 -0.1057 -3.5748 0.0948 8.4548 -9.3562 45.0313 2.6726 -2.9703 17.0389 0.0000 0.0000 0.0000 -92.4725 15.7617 30.8459 27.0367 -38.2141 -9.5218 0.0000 0.0000 9.5541 0.0000 0.0000 0.0000 58.4973 9.4244 41.2115 -160.6203 29.8878 -114.7813 0.0000 0.0000 -10.3941
-0.5551 18.6649 0.0564 -4.3135 1.2649 0.9363 0.0000 0.0000 0.0000 -7.3170 -8.3673 0.1733 1.2133 6.9874 19.6781 1.3628 6.5220 -25.2759 9.1676 -16.9144 -56.6680 0.0000 0.0000 0.0000 0.0000 0.0000 0.0000 0.0000 0.0000 0.0000 0.0000 0.0000 0.0000 0.0000 0.0000 0.0000 8.0080 -0.5154 6.1330 5.0281 -0.1845 2.6798 0.7300 -0.0677 -0.6661 1.0521 -2.9401 -0.0291 7.9769 -8.3637 45.1076 2.3713 -2.4006 16.9344 0.0000 0.0000 0.0000 -92.7659 15.4912 30.7167 27.2816 -38.4464 -9.6737 0.0000 0.0000 9.3065 0.0000 0.0000 0.0000 57.7925 10.3174 40.9971 -160.8087 29.6556 -114.8749 0.0000 0.0000 -11.0287
-0.6235 18.6757 0.0489 -4.3066 1.6409 1.3272 0.0000 0.0000 0.0000 -6.9901 -8.6149 -0.3278 1.2026 6.9576 19.5899 1.3167 6.5179 -24.9195 9.1287 -16.8898 -56.5340 0.0000 0.0000 0.0000 0.0000 0.0000 0.0000 0.0000 0.0000 0.0000 0.0000 0.0000 0.0000 0.0000 0.0000 0.0000 8.7782 -0.1882 6.6579 4.7991 0.3133 3.1624 0.0364 0.2039 -0.4219 3.2931 -2.8360 -1.1656 8.0910 -8.6263 44.9192 1.9563 -2.0787 17.0570 0.0000 0.0000 0.0000 -91.4099 14.5962 32.4865 27.3365 -38.4982 -9.7078 0.0000 0.0000 8.7244 0.0000 0.0000 0.0000 59.1782 8.9856 41.7603 -161.5027 28.7893 -115.2136 0.0000 0.0000 -8.5718
-0.6924 18.6823 0.0405 -4.3702 2.2484 1.5611 0.0000 0.0000 0.0000 -6.5770 -8.8408 -0.7710 1.1957 6.9384 19.5329 1.2603 6.4509 -24.4364 9.1442 -16.8996 -56.5876 0.0000 0.0000 0.0000 0.0000 0.0000 0.0000 0.0000 0.0000 0.0000 0.0000 0.0000 0.0000 0.0000 0.0000 0.0000 9.3649 -0.0988 7.3326 4.8992 0.5369 3.4023 -0.1979 0.3217 -0.5229 4.8195 -2.5079 -1.6089 8.1803 -8.3845 44.6241 1.7367 -1.6981 16.9422 0.0000 0.0000 0.0000 -90.9401 14.3333 33.4060 27.4241 -38.5806 -9.7624 0.0000 0.0000 8.2681 0.0000 0.0000 0.0000 59.0212 9.3752 40.8350 -161.3147 29.0257 -115.1228 0.0000 0.0000 -8.8181
-0.7623 18.6930 0.0326 -4.4053 2.9793 1.7131 0.0000 0.0000 0.0000 -6.1746 -9.0395 -1.2457 1.2001 6.9506 19.5690 1.1835 6.3918 -23.7820 9.2224 -16.9487 -56.8560 0.0000 0.0000 0.0000 0.0000 0.0000 0.0000 0.0000 0.0000 0.0000 0.0000 0.0000 0.0000 0.0000 0.0000 0.0000 9.7415 -0.2199 8.0407 5.2204 0.4889 3.5854 -0.0664 0.2963 -0.7239 5.6797 -1.9087 -1.8152 8.3756 -7.6818 44.5193 1.7611 -1.2259 16.8973 0.0000 0.0000 0.0000 -91.1492 14.3820 33.4934 27.5663 -38.7139 -9.8512 0.0000 0.0000 7.9810 0.0000 0.0000 0.0000 58.5011 10.4222 39.9087 -161.0852 29.3127 -115.0109 0.0000 0.0000 -10.9500
-0.8242 18.6987 0.0267 -4.4371 3.8254 1.7750 0.0000 0.0000 0.0000 -5.8115 -9.2885 -1.6516 1.2049 6.9639 19.6086 1.1211 6.1949 -23.1390 9.3410 -17.0222 -57.2621 0.0000 0.0000 0.0000 0.0000 0.0000 0.0000 0.0000 0.0000 0.0000 0.0000 0.0000 0.0000 0.0000 0.0000 0.0000 10.1418 -0.3179 8.6636 5.5255 0.4676 3.7749 0.0357 0.2870 -0.8670 6.2961 -1.4020 -1.8102 8.8138 -7.1369 44.3249 1.9184 -0.8419 16.7880 0.0000 0.0000 0.0000 -91.4269 14.3881 33.5867 27.6418 -38.7843 -9.8985 0.0000 0.0000 7.5724 0.0000 0.0000 0.0000 57.7376 11.7130 38.5047 -160.6974 29.7930 -114.8196 0.0000 0.0000 -11.9607
-0.8749 18.7098 0.0122 -4.3587 4.7795 1.8933 0.0000 0.0000 0.0000 -5.5467 -9.2576 -2.3950 1.2260 7.0227 19.7825 1.0561 5.6111 -22.2078 9.3444 -17.0243 -57.2737 0.0000 0.0000 0.0000 0.0000 0.0000 0.0000 0.0000 0.0000 0.0000 0.0000 0.0000 0.0000 0.0000 0.0000 0.0000 10.5498 -0.3961 9.3054 5.6999 0.4841 3.9348 -0.0053 0.2955 -1.0463 6.7370 -1.0327 -1.9834 9.4980 -6.9080 44.2252 2.1836 -0.5808 16.8207 0.0000 0.0000 0.0000 -91.4673 14.3689 33.8709 27.8202 -38.9502 -10.0104 0.0000 0.0000 7.2156 0.0000 0.0000 0.0000 57.5308 12.3906 37.8859 -160.6336 29.8715 -114.7879 0.0000 0.0000 -11.7419
-0.8911 18.7312 -0.0243 -4.3724 5.0481 2.5192 0.0000 0.0000 0.0000 -5.3717 -9.5501 -3.4887 1.2587 7.1123 20.0484 1.0304 5.5825 -21.9647 9.2799 -16.9845 -57.0531 0.0000 0.0000 0.0000 0.0000 0.0000 0.0000 0.0000 0.0000 0.0000 0.0000 0.0000 0.0000 0.0000 0.0000 0.0000 11.3126 -0.2329 9.6928 5.7910 0.8272 3.9554 -0.3602 0.4657 -1.1950 6.9836 -0.8153 -2.0324 9.8886 -6.7489 44.2080 2.3453 -0.4145 16.8495 0.0000 0.0000 0.0000 -91.9468 13.9575 33.2474 27.5788 -38.7256 -9.8591 0.0000 0.0000 7.6384 0.0000 0.0000 0.0000 56.9155 12.4809 37.3368 -160.5850 29.9311 -114.7637 0.0000 0.0000 -11.7383
-0.9223 18.7468 -0.0460 -4.2098 5.8562 2.7533 0.0000 0.0000 0.0000 -5.3008 -9.7714 -4.2345 1.2794 7.1683 20.2148 0.9695 5.2896 -21.2328 9.2433 -16.9617 -56.9276 0.0000 0.0000 0.0000 0.0000 0.0000 0.0000 0.0000 0.0000 0.0000 0.0000 0.0000 0.0000 0.0000 0.0000 0.0000 11.6214 -0.3104 9.5711 5.7912 0.6824 4.4063 -0.5093 0.4336 -0.6542 7.5373 -0.7530 -1.8874 9.3130 -6.4110 43.8443 2.0013 -0.2686 16.5314 0.0000 0.0000 0.0000 -91.6096 13.4734 34.0264 27.8360 -38.9648 -10.0204 0.0000 0.0000 6.5745 0.0000 0.0000 0.0000 57.0876 13.1399 36.7555 -160.5990 29.9139 -114.7707 0.0000 0.0000 -11.7751
-0.9365 18.7624 -0.0695 -4.1097 6.3383 3.0128 0.0000 0.0000 0.0000 -5.2135 -9.8049 -4.9672 1.3066 7.2410 20.4313 0.8980 5.0579 -20.4216 9.2907 -16.9912 -57.0900 0.0000 0.0000 0.0000 0.0000 0.0000 0.0000 0.0000 0.0000 0.0000 0.0000 0.0000 0.0000 0.0000 0.0000 0.0000 11.6423 -0.3130 9.4737 5.8320 0.6189 4.8156 -0.4679 0.4349 -0.1708 7.2815 -0.6851 -2.1073 9.3208 -6.2985 44.0185 2.0766 -0.2424 16.6817 0.0000 0.0000 0.0000 -91.7121 12.9650 33.8695 27.9328 -39.0543 -10.0813 0.0000 0.0000 5.9851 0.0000 0.0000 0.0000 56.6498 14.0933 36.2413 -160.4443 30.1034 -114.6933 0.0000 0.0000 -13.4792
-0.9329 18.7760 -0.0934 -3.9533 6.3993 3.3117 0.0000 0.0000 0.0000 -5.3009 -9.8673 -5.4489 1.3164 7.2670 20.5088 0.8798 4.9690 -20.1918 9.3058 -17.0005 -57.1418 0.0000 0.0000 0.0000 0.0000 0.0000 0.0000 0.0000 0.0000 0.0000 0.0000 0.0000 0.0000 0.0000 0.0000 0.0000 11.8192 -0.2301 10.1118 5.4464 0.8516 4.7475 -0.9958 0.5379 -0.5624 7.5161 -0.9430 -1.6892 8.9792 -6.5397 44.2515 1.8633 -0.3428 16.6995 0.0000 0.0000 0.0000 -91.2333 13.0198 33.8548 27.9589 -39.0784 -10.0978 0.0000 0.0000 5.4771 0.0000 0.0000 0.0000 56.8492 13.6362 36.5177 -160.4737 30.0674 -114.7080 0.0000 0.0000 -15.6597
-0.9137 18.7890 -0.1278 -4.1386 6.0348 3.6836 0.0000 0.0000 0.0000 -5.0929 -9.9928 -5.9433 1.3425 7.3358 20.7142 0.8778 5.0847 -20.2470 9.2378 -16.9584 -56.9091 0.0000 0.0000 0.0000 0.0000 0.0000 0.0000 0.0000 0.0000 0.0000 0.0000 0.0000 0.0000 0.0000 0.0000 0.0000 11.3779 -0.1637 9.9430 5.4303 0.8271 5.1304 -0.7654 0.5506 -0.0768 6.6641 -1.2314 -1.7294 8.3050 -6.5866 44.4595 1.7068 -0.5773 16.7745 0.0000 0.0000 0.0000 -91.4672 12.5920 33.2194 27.9123 -39.0354 -10.0684 0.0000 0.0000 5.1758 0.0000 0.0000 0.0000 55.8176 14.2861 36.3819 -160.4577 30.0870 -114.7000 0.0000 0.0000 -19.4018
-0.8748 18.7959 -0.1681 -4.3205 5.1299 3.9418 0.0000 0.0000 0.0000 -5.0402 -10.0022 -6.1026 1.3592 7.3794 20.8444 0.8881 5.5798 -20.6693 9.2402 -16.9598 -56.9172 0.0000 0.0000 0.0000 0.0000 0.0000 0.0000 0.0000 0.0000 0.0000 0.0000 0.0000 0.0000 0.0000 0.0000 0.0000 10.9450 -0.0666 10.7714 5.0708 1.0447 5.0608 -0.9375 0.6304 -0.5920 5.6784 -1.6981 -1.2241 7.6632 -6.8486 44.8113 1.5729 -0.9341 16.8218 0.0000 0.0000 0.0000 -91.3110 12.7862 32.4257 27.7409 -38.8766 -9.9606 0.0000 0.0000 5.2140 0.0000 0.0000 0.0000 55.1038 13.8593 36.3757 -160.6502 29.8510 -114.7962 0.0000 0.0000 -22.4737
-0.8137 18.7974 -0.2139 -4.6314 3.6214 4.4068 0.0000 0.0000 0.0000 -5.0118 -10.0336 -6.3156 1.3845 7.4451 21.0410 0.9671 6.4168 -21.9608 9.1095 -16.8777 -56.4681 0.0000 0.0000 0.0000 0.0000 0.0000 0.0000 0.0000 0.0000 0.0000 0.0000 0.0000 0.0000 0.0000 0.0000 0.0000 10.2013 0.2037 11.2573 4.6432 1.3901 5.0152 -1.0244 0.7801 -0.8901 4.7810 -2.2340 -0.9215 6.8677 -7.2057 45.0979 1.3329 -1.3404 16.8770 0.0000 0.0000 0.0000 -91.0321 12.7748 31.8004 27.4467 -38.6019 -9.7766 0.0000 0.0000 5.1877 0.0000 0.0000 0.0000 54.6528 13.6573 36.3498 -160.7730 29.6998 -114.8572 0.0000 0.0000 -25.0687
-0.7581 18.7862 -0.2471 -4.9296 2.4595 4.3498 0.0000 0.0000 0.0000 -5.0023 -9.3452 -6.2031 1.4046 7.4967 21.1955 1.0312 6.7398 -22.7444 8.9914 -16.8022 -56.0604 0.0000 0.0000 0.0000 0.0000 0.0000 0.0000 0.0000 0.0000 0.0000 0.0000 0.0000 0.0000 0.0000 0.0000 0.0000 9.1065 0.1908 11.6584 4.1506 1.2801 5.2417 -0.9294 0.7196 -0.9049 3.9026 -2.7122 -0.7867 6.1272 -7.5320 45.2870 1.1086 -1.7364 16.9240 0.0000 0.0000 0.0000 -90.6275 12.5923 30.8694 27.1963 -38.3658 -9.6207 0.0000 0.0000 5.1903 0.0000 0.0000 0.0000 53.3879 14.0649 36.2365 -160.7624 29.7129 -114.8519 0.0000 0.0000 -27.9452
-0.6621 18.7810 -0.3055 -5.2845 0.5953 4.7050 0.0000 0.0000 0.0000 -5.1282 -9.1757 -6.2043 1.4282 7.5566 21.3753 1.1410 7.6468 -24.2962 8.8096 -16.6836 -55.4294 0.0000 0.0000 0.0000 0.0000 0.0000 0.0000 0.0000 0.0000 0.0000 0.0000 0.0000 0.0000 0.0000 0.0000 0.0000 8.0556 0.3380 11.8443 3.6197 1.3628 5.3159 -0.9158 0.7499 -0.9441 3.1256 -3.1174 -0.6638 5.3048 -7.7419 45.4438 0.8411 -2.0818 16.9454 0.0000 0.0000 0.0000 -90.0065 12.3367 30.7714 27.1494 -38.3213 -9.5916 0.0000 0.0000 4.8044 0.0000 0.0000 0.0000 52.9712 13.9984 36.9145 -160.9178 29.5206 -114.9287 0.0000 0.0000 -28.8056
-0.5481 18.7722 -0.3646 -5.6233 -1.2172 5.0062 0.0000 0.0000 0.0000 -5.3130 -8.7824 -6.2910 1.4522 7.6173 21.5575 1.2606 8.0855 -25.5466 8.5856 -16.5335 -54.6457 0.0000 0.0000 0.0000 0.0000 0.0000 0.0000 0.0000 0.0000 0.0000 0.0000 0.0000 0.0000 0.0000 0.0000 0.0000 7.0141 0.4863 12.0193 3.0531 1.4487 5.3100 -0.9429 0.7789 -1.0604 2.1559 -3.4080 -0.6353 5.2497 -8.0608 45.4900 0.9393 -2.4187 17.0076 0.0000 0.0000 0.0000 -89.7479 11.7183 29.3547 26.7488 -37.9386 -9.3443 0.0000 0.0000 5.8229 0.0000 0.0000 0.0000 52.7838 13.8334 37.2958 -161.0280 29.3839 -114.9829 0.0000 0.0000 -29.0272
-0.4147 18.7655 -0.4257 -5.9516 -2.9297 5.0906 0.0000 0.0000 0.0000 -5.4936 -7.8463 -6.4344 1.4921 7.7165 21.8562 1.3538 8.1374 -26.2841 8.5374 -16.5007 -54.4762 0.0000 0.0000 0.0000 0.0000 0.0000 0.0000 0.0000 0.0000 0.0000 0.0000 0.0000 0.0000 0.0000 0.0000 0.0000 5.9155 0.4439 11.9312 2.7572 1.2453 5.4944 -0.6113 0.6715 -0.8590 0.9992 -3.3791 -0.6787 5.1529 -7.8129 45.1181 1.1166 -2.5657 16.8151 0.0000 0.0000 0.0000 -89.8150 11.0716 28.2789 26.6788 -37.8712 -9.3013 0.0000 0.0000 6.1381 0.0000 0.0000 0.0000 51.9263 14.6259 37.2843 -161.0326 29.3782 -114.9851 0.0000 0.0000 -29.4565
-0.2852 18.7619 -0.4744 -6.0394 -4.5357 5.1903 0.0000 0.0000 0.0000 -5.9725 -7.3692 -6.2989 1.4852 7.6995 21.8050 1.4600 8.4731 -27.2877 8.3142 -16.3455 -53.6865 0.0000 0.0000 0.0000 0.0000 0.0000 0.0000 0.0000 0.0000 0.0000 0.0000 0.0000 0.0000 0.0000 0.0000 0.0000 4.8739 0.8015 11.7623 2.0712 1.5749 5.5739 -0.7780 0.8313 -0.6833 2.0414 -3.7461 -0.8579 4.2349 -8.1283 44.4128 0.4538 -2.6770 16.3367 0.0000 0.0000 0.0000 -88.6347 10.1351 28.6300 26.4259 -37.6262 -9.1465 0.0000 0.0000 6.2244 0.0000 0.0000 0.0000 51.2988 15.1695 35.4313 -160.9053 29.5362 -114.9226 0.0000 0.0000 -30.6356
-0.1483 18.7657 -0.5151 -6.0936 -5.9412 5.1864 0.0000 0.0000 0.0000 -6.5082 -6.7805 -6.2563 1.5041 7.7461 21.9456 1.5483 8.7191 -28.0765 8.2336 -16.2884 -53.3999 0.0000 0.0000 0.0000 0.0000 0.0000 0.0000 0.0000 0.0000 0.0000 0.0000 0.0000 0.0000 0.0000 0.0000 0.0000 3.9891 1.1252 11.7665 1.4323 1.8878 5.7770 -0.9791 0.9851 -0.4702 3.3795 -3.9800 -1.9865 3.5250 -8.4109 43.4152 -0.1756 -2.6940 15.9263 0.0000 0.0000 0.0000 -87.3857 9.1007 29.4140 26.6987 -37.8904 -9.3135 0.0000 0.0000 5.9639 0.0000 0.0000 0.0000 51.3366 15.8965 34.8702 -160.8081 29.6565 -114.8745 0.0000 0.0000 -30.3477
-0.0149 18.7711 -0.5530 -5.8547 -7.0182 5.1764 0.0000 0.0000 0.0000 -7.2555 -5.8305 -6.5631 1.5289 7.8069 22.1291 1.5803 8.5712 -28.1955 8.1781 -16.2487 -53.2017 0.0000 0.0000 0.0000 0.0000 0.0000 0.0000 0.0000 0.0000 0.0000 0.0000 0.0000 0.0000 0.0000 0.0000 0.0000 2.6688 0.8413 11.5067 1.3210 1.3760 5.4699 -0.2946 0.7021 -0.7089 2.0453 -3.2825 -1.1832 4.0137 -7.1143 41.3515 0.4425 -2.4014 14.6932 0.0000 0.0000 0.0000 -87.9713 9.3561 28.1700 26.8894 -38.0735 -9.4308 0.0000 0.0000 6.0411 0.0000 0.0000 0.0000 50.1427 17.1849 35.8866 -160.7478 29.7309 -114.8447 0.0000 0.0000 -30.2690
0.1072 18.7723 -0.5957 -5.7740 -7.6842 5.1325 0.0000 0.0000 0.0000 -7.7841 -5.4717 -6.7533 1.5499 7.8578 22.2830 1.5838 8.6774 -28.2915 8.1386 -16.2202 -53.0603 0.0000 0.0000 0.0000 0.0000 0.0000 0.0000 0.0000 0.0000 0.0000 0.0000 0.0000 0.0000 0.0000 0.0000 0.0000 1.8523 0.7719 11.4382 0.9240 1.1940 5.3981 -0.2258 0.6018 -0.7619 2.1530 -2.8951 -1.1457 4.0417 -6.3035 38.4758 0.5112 -2.1229 13.2609 0.0000 0.0000 0.0000 -87.4257 8.9662 27.9977 27.1035 -38.2778 -9.5632 0.0000 0.0000 5.8353 0.0000 0.0000 0.0000 49.0939 18.8101 35.3187 -160.6163 29.8927 -114.7793 0.0000 0.0000 -30.0979
0.2127 18.7733 -0.6342 -5.6427 -8.3254 4.9583 0.0000 0.0000 0.0000 -8.2928 -4.8830 -6.9034 1.5735 7.9145 22.4548 1.6193 8.5179 -28.4253 8.0486 -16.1549 -52.7377 0.0000 0.0000 0.0000 0.0000 0.0000 0.0000 0.0000 0.0000 0.0000 0.0000 0.0000 0.0000 0.0000 0.0000 0.0000 1.0861 0.8545 11.5217 0.5202 1.2185 5.3911 -0.2177 0.6056 -0.8227 2.0271 -2.4828 -1.3063 4.2883 -5.4846 35.1560 0.6933 -1.8347 11.8232 0.0000 0.0000 0.0000 -86.8649 8.4718 27.9018 27.1618 -38.3330 -9.5993 0.0000 0.0000 5.9634 0.0000 0.0000 0.0000 48.8898 19.6010 35.9505 -161.0708 29.3307 -115.0039 0.0000 0.0000 -27.6357
0.2984 18.7763 -0.6684 -5.6329 -8.8744 4.9122 0.0000 0.0000 0.0000 -8.6020 -4.5710 -7.0323 1.5898 7.9535 22.5729 1.6476 8.4770 -28.5891 7.9739 -16.1001 -52.4688 0.0000 0.0000 0.0000 0.0000 0.0000 0.0000 0.0000 0.0000 0.0000 0.0000 0.0000 0.0000 0.0000 0.0000 0.0000 0.3413 0.9431 11.3340 0.1960 1.2521 5.3751 -0.1354 0.6142 -0.7468 1.8697 -1.9711 -1.5696 4.4659 -4.5519 32.1055 0.8533 -1.4821 10.6279 0.0000 0.0000 0.0000 -86.4906 8.0642 27.2847 27.1759 -38.3464 -9.6081 0.0000 0.0000 6.1218 0.0000 0.0000 0.0000 46.6854 23.1039 32.9673 -160.3286 30.2445 -114.6351 0.0000 0.0000 -28.0488
0.3623 18.7785 -0.7001 -5.5708 -9.3031 4.7497 0.0000 0.0000 0.0000 -8.9152 -4.3072 -7.0530 1.6098 8.0010 22.7172 1.6695 8.5096 -28.7584 7.9170 -16.0579 -52.2632 0.0000 0.0000 0.0000 0.0000 0.0000 0.0000 0.0000 0.0000 0.0000 0.0000 0.0000 0.0000 0.0000 0.0000 0.0000 -0.3507 1.1068 11.3604 -0.1322 1.3922 5.2883 -0.1040 0.6766 -0.8590 2.2743 -1.4907 -1.6039 3.9223 -3.5475 29.0240 0.6625 -1.0969 9.4350 0.0000 0.0000 0.0000 -86.0500 7.9759 27.1162 27.2092 -38.3779 -9.6287 0.0000 0.0000 5.9266 0.0000 0.0000 0.0000 45.2707 25.3896 31.3782 -160.1109 30.5085 -114.5251 0.0000 0.0000 -27.7808
0.3992 18.7787 -0.7305 -5.5706 -9.4189 4.7828 0.0000 0.0000 0.0000 -9.0300 -4.4404 -7.1916 1.6227 8.0315 22.8098 1.6919 8.5486 -28.9341 7.8404 -16.0006 -51.9856 0.0000 0.0000 0.0000 0.0000 0.0000 0.0000 0.0000 0.0000 0.0000 0.0000 0.0000 0.0000 0.0000 0.0000 0.0000 -0.9099 1.3126 11.1396 -0.4580 1.6044 5.1677 -0.1486 0.7780 -0.8704 2.6553 -1.2272 -1.5412 3.5547 -2.9388 26.1157 0.5121 -0.8699 8.3729 0.0000 0.0000 0.0000 -85.6352 7.6725 26.7961 26.8655 -38.0506 -9.4161 0.0000 0.0000 6.2758 0.0000 0.0000 0.0000 43.8788 27.2857 29.7805 -159.8392 30.8356 -114.3865 0.0000 0.0000 -27.0944
0.4158 18.7786 -0.7544 -5.6370 -9.4259 4.5940 0.0000 0.0000 0.0000 -9.0456 -4.6960 -6.9695 1.6317 8.0528 22.8744 1.7271 8.6143 -29.2109 7.7657 -15.9442 -51.7143 0.0000 0.0000 0.0000 0.0000 0.0000 0.0000 0.0000 0.0000 0.0000 0.0000 0.0000 0.0000 0.0000 0.0000 0.0000 -1.3173 1.5218 11.0043 -0.7522 1.8375 5.1958 -0.2474 0.8908 -0.7710 2.9084 -1.0268 -1.9362 3.1264 -2.4896 24.1337 0.3538 -0.7059 7.7557 0.0000 0.0000 0.0000 -85.3131 7.3334 26.3682 26.5265 -37.7239 -9.2079 0.0000 0.0000 6.4931 0.0000 0.0000 0.0000 42.5114 28.9228 27.6146 -159.5574 31.1719 -114.2413 0.0000 0.0000 -26.8603
0.4201 18.7769 -0.7656 -5.6857 -9.5220 4.4444 0.0000 0.0000 0.0000 -9.1041 -5.0960 -6.6583 1.6355 8.0615 22.9011 1.7658 8.8770 -29.6389 7.7429 -15.9269 -51.6314 0.0000 0.0000 0.0000 0.0000 0.0000 0.0000 0.0000 0.0000 0.0000 0.0000 0.0000 0.0000 0.0000 0.0000 0.0000 -1.6028 1.6644 10.7525 -0.9985 1.9993 5.1153 -0.3543 0.9701 -0.7190 3.0292 -0.8863 -1.8394 2.2354 -2.0377 22.6068 0.0740 -0.5837 7.2152 0.0000 0.0000 0.0000 -85.2334 7.6037 25.7515 26.4747 -37.6736 -9.1762 0.0000 0.0000 6.7923 0.0000 0.0000 0.0000 41.1743 30.2893 26.1682 -159.2709 31.5108 -114.0923 0.0000 0.0000 -26.2443
0.3966 18.7781 -0.7938 -5.8378 -9.1283 4.5749 0.0000 0.0000 0.0000 -8.7511 -5.1882 -7.0200 1.6467 8.0879 22.9813 1.7176 8.8048 -29.2756 7.7932 -15.9651 -51.8145 0.0000 0.0000 0.0000 0.0000 0.0000 0.0000 0.0000 0.0000 0.0000 0.0000 0.0000 0.0000 0.0000 0.0000 0.0000 -1.9247 1.6734 10.5138 -1.2368 1.9832 5.0081 -0.4131 0.9606 -0.7020 3.1714 -0.8412 -1.9821 1.7095 -1.8395 21.4209 -0.1055 -0.5375 6.8452 0.0000 0.0000 0.0000 -85.0028 7.6128 25.1600 26.1754 -37.3814 -8.9939 0.0000 0.0000 7.0593 0.0000 0.0000 0.0000 40.2531 31.3389 24.8734 -158.9664 31.8676 -113.9323 0.0000 0.0000 -24.0334
0.3589 18.7794 -0.8215 -5.9176 -8.7416 4.7118 0.0000 0.0000 0.0000 -8.4822 -5.6354 -7.2014 1.6483 8.0916 22.9926 1.6926 8.9025 -29.1766 7.8680 -16.0213 -52.0860 0.0000 0.0000 0.0000 0.0000 0.0000 0.0000 0.0000 0.0000 0.0000 0.0000 0.0000 0.0000 0.0000 0.0000 0.0000 -2.2766 1.6677 10.3924 -1.3731 1.9418 4.7966 -0.3524 0.9389 -0.8613 2.7761 -0.9156 -2.1358 1.2015 -1.8017 21.2186 -0.2004 -0.5898 6.8013 0.0000 0.0000 0.0000 -85.0420 7.7403 24.6414 25.8616 -37.0717 -8.8041 0.0000 0.0000 7.4201 0.0000 0.0000 0.0000 39.9454 31.5878 24.5099 -158.8942 31.9516 -113.8942 0.0000 0.0000 -21.6356
0.3149 18.7801 -0.8475 -5.8871 -8.3543 4.8350 0.0000 0.0000 0.0000 -8.2774 -5.8125 -7.4330 1.6371 8.0654 22.9129 1.6578 8.8186 -28.8878 7.8905 -16.0381 -52.1672 0.0000 0.0000 0.0000 0.0000 0.0000 0.0000 0.0000 0.0000 0.0000 0.0000 0.0000 0.0000 0.0000 0.0000 0.0000 -2.5704 1.7279 10.2884 -1.6013 1.9908 4.6323 -0.4289 0.9637 -0.9767 2.4454 -1.3011 -2.2681 0.7032 -2.2089 21.4955 -0.3333 -0.8435 6.9061 0.0000 0.0000 0.0000 -84.9925 7.8126 24.2591 25.6778 -36.8888 -8.6935 0.0000 0.0000 7.6574 0.0000 0.0000 0.0000 40.0848 31.2347 24.3453 -158.9989 31.8296 -113.9495 0.0000 0.0000 -21.1637
0.2702 18.7777 -0.8624 -5.9755 -8.2580 4.7464 0.0000 0.0000 0.0000 -8.0370 -5.9995 -7.2484 1.6263 8.0401 22.8359 1.6489 8.9428 -28.9134 7.8876 -16.0359 -52.1567 0.0000 0.0000 0.0000 0.0000 0.0000 0.0000 0.0000 0.0000 0.0000 0.0000 0.0000 0.0000 0.0000 0.0000 0.0000 -2.8200 1.7362 10.2068 -1.6683 1.9795 4.5659 -0.3559 0.9564 -1.0064 1.6061 -1.6991 -2.4542 0.4434 -2.6494 22.5651 -0.3138 -1.1291 7.2896 0.0000 0.0000 0.0000 -85.1750 8.1915 24.1619 25.7582 -36.9689 -8.7418 0.0000 0.0000 7.5321 0.0000 0.0000 0.0000 40.4217 31.2015 24.4163 -159.0723 31.7439 -113.9881 0.0000 0.0000 -21.3716
0.2314 18.7696 -0.8594 -6.0750 -8.5145 4.3239 0.0000 0.0000 0.0000 -7.9119 -6.0267 -6.5465 1.6160 8.0156 22.7615 1.6924 9.0908 -29.3032 7.8324 -15.9946 -51.9566 0.0000 0.0000 0.0000 0.0000 0.0000 0.0000 0.0000 0.0000 0.0000 0.0000 0.0000 0.0000 0.0000 0.0000 0.0000 -2.8772 1.8641 10.2895 -1.7104 2.1399 4.6492 -0.3863 1.0346 -0.9674 0.3604 -2.5309 -2.7992 -0.1310 -3.5780 24.3082 -0.3777 -1.7103 7.9369 0.0000 0.0000 0.0000 -85.3791 8.2605 24.1946 25.6634 -36.8744 -8.6849 0.0000 0.0000 7.5392 0.0000 0.0000 0.0000 40.8109 30.9263 24.2935 -159.1855 31.6112 -114.0476 0.0000 0.0000 -21.9451
0.1893 18.7615 -0.8684 -6.1873 -8.8217 4.1226 0.0000 0.0000 0.0000 -7.7236 -5.9656 -6.2043 1.6142 8.0114 22.7486 1.7063 9.2762 -29.5220 7.7983 -15.9689 -51.8329 0.0000 0.0000 0.0000 0.0000 0.0000 0.0000 0.0000 0.0000 0.0000 0.0000 0.0000 0.0000 0.0000 0.0000 0.0000 -2.8521 1.9227 10.2833 -1.7659 2.2197 4.7075 -0.4651 1.0739 -0.9015 -0.6988 -3.3864 -2.3421 -1.4487 -4.3581 25.3932 -0.6996 -2.2907 8.2151 0.0000 0.0000 0.0000 -85.4427 8.3204 24.0140 25.7105 -36.9214 -8.7132 0.0000 0.0000 7.6537 0.0000 0.0000 0.0000 41.2434 30.6768 24.1207 -159.2991 31.4775 -114.1070 0.0000 0.0000 -21.8698
0.1449 18.7575 -0.8766 -6.2875 -9.1532 4.0982 0.0000 0.0000 0.0000 -7.5061 -5.9212 -6.0297 1.6059 7.9917 22.6890 1.7179 9.4630 -29.7261 7.7852 -15.9590 -51.7854 0.0000 0.0000 0.0000 0.0000 0.0000 0.0000 0.0000 0.0000 0.0000 0.0000 0.0000 0.0000 0.0000 0.0000 0.0000 -2.8461 1.9471 10.1124 -1.8230 2.2577 4.6643 -0.5267 1.0933 -0.8510 -2.8327 -4.1689 -2.8607 -1.5286 -5.1813 28.0321 -0.4940 -2.8976 9.3023 0.0000 0.0000 0.0000 -85.1940 8.4638 24.0150 25.7911 -37.0017 -8.7616 0.0000 0.0000 7.7735 0.0000 0.0000 0.0000 41.7490 29.8864 24.6024 -159.6754 31.0314 -114.3023 0.0000 0.0000 -21.8213
0.1009 18.7505 -0.8881 -6.3882 -9.5526 3.9580 0.0000 0.0000 0.0000 -7.2622 -5.5365 -5.8943 1.6099 8.0013 22.7179 1.7222 9.4650 -29.7559 7.8108 -15.9783 -51.8784 0.0000 0.0000 0.0000 0.0000 0.0000 0.0000 0.0000 0.0000 0.0000 0.0000 0.0000 0.0000 0.0000 0.0000 0.0000 -2.9705 1.8838 10.0271 -1.8525 2.1684 4.7749 -0.4729 1.0447 -0.6915 -4.1586 -4.7370 -2.7188 -2.1365 -5.6628 30.0019 -0.5647 -3.3402 10.0378 0.0000 0.0000 0.0000 -84.9370 8.2994 23.8663 25.7216 -36.9324 -8.7198 0.0000 0.0000 7.6808 0.0000 0.0000 0.0000 41.2989 30.1402 23.8972 -159.3980 31.3609 -114.1586 0.0000 0.0000 -22.8971
0.0625 18.7444 -0.8926 -6.3911 -10.0497 3.8809 0.0000 0.0000 0.0000 -7.1971 -5.3619 -5.6932 1.6143 8.0117 22.7497 1.7431 9.6502 -30.0194 7.8266 -15.9902 -51.9357 0.0000 0.0000 0.0000 0.0000 0.0000 0.0000 0.0000 0.0000 0.0000 0.0000 0.0000 0.0000 0.0000 0.0000 0.0000 -3.1835 1.7975 9.8904 -1.9631 2.0390 4.7640 -0.4502 0.9773 -0.6289 -5.3936 -5.0872 -1.7518 -2.8199 -5.8684 31.3616 -0.6245 -3.6667 10.4086 0.0000 0.0000 0.0000 -84.7263 8.5098 23.5226 25.9035 -37.1132 -8.8293 0.0000 0.0000 7.6137 0.0000 0.0000 0.0000 41.5058 29.4530 24.4935 -159.6781 31.0282 -114.3037 0.0000 0.0000 -23.2044
0.0284 18.7409 -0.8950 -6.5575 -10.6109 3.7878 0.0000 0.0000 0.0000 -6.9324 -4.9402 -5.5565 1.6253 8.0376 22.8283 1.7544 9.7304 -30.1478 7.8327 -15.9948 -51.9577 0.0000 0.0000 0.0000 0.0000 0.0000 0.0000 0.0000 0.0000 0.0000 0.0000 0.0000 0.0000 0.0000 0.0000 0.0000 -3.2290 1.7843 9.8207 -2.1056 2.0184 4.7896 -0.5672 0.9663 -0.5600 -6.1578 -5.3378 -1.3534 -3.3289 -6.0027 33.0995 -0.7330 -3.9077 11.0372 0.0000 0.0000 0.0000 -84.3768 8.4316 23.4630 25.8605 -37.0706 -8.8034 0.0000 0.0000 7.6177 0.0000 0.0000 0.0000 41.5023 29.0751 24.3309 -159.6625 31.0469 -114.2956 0.0000 0.0000 -23.8623
0.0016 18.7323 -0.8908 -6.5667 -11.0520 3.6541 0.0000 0.0000 0.0000 -6.9251 -4.9461 -5.1538 1.6211 8.0278 22.7986 1.8109 9.8761 -30.6076 7.7811 -15.9559 -51.7705 0.0000 0.0000 0.0000 0.0000 0.0000 0.0000 0.0000 0.0000 0.0000 0.0000 0.0000 0.0000 0.0000 0.0000 0.0000 -3.4943 1.7179 9.7303 -2.2432 1.9106 4.8375 -0.5466 0.9079 -0.4622 -6.3790 -5.6575 -1.7587 -4.9242 -5.8790 35.6634 -1.3889 -4.1162 12.1345 0.0000 0.0000 0.0000 -84.2467 8.3201 23.2018 25.9025 -37.1123 -8.8288 0.0000 0.0000 7.6253 0.0000 0.0000 0.0000 41.3302 28.8680 24.3807 -159.7196 30.9786 -114.3251 0.0000 0.0000 -24.2984
-0.0252 18.7194 -0.8772 -6.6895 -11.4377 3.4733 0.0000 0.0000 0.0000 -6.7624 -4.6927 -4.8129 1.6270 8.0416 22.8404 1.8543 9.8494 -30.8614 7.7723 -15.9492 -51.7384 0.0000 0.0000 0.0000 0.0000 0.0000 0.0000 0.0000 0.0000 0.0000 0.0000 0.0000 0.0000 0.0000 0.0000 0.0000 -3.6744 1.7590 9.6059 -2.4569 1.9548 4.9101 -0.6663 0.9264 -0.3169 -7.0475 -5.6292 -1.8650 -5.4700 -5.5028 37.8981 -1.5611 -4.1605 13.1622 0.0000 0.0000 0.0000 -83.9532 8.1578 23.1525 25.9816 -37.1906 -8.8765 0.0000 0.0000 7.6354 0.0000 0.0000 0.0000 41.0530 28.6905 23.9909 -159.7788 30.9080 -114.3555 0.0000 0.0000 -24.9995
-0.0514 18.7076 -0.8443 -6.8064 -11.3360 3.0513 0.0000 0.0000 0.0000 -6.6085 -4.5983 -4.2326 1.6287 8.0455 22.8524 1.8596 9.7949 -30.8570 7.8264 -15.9901 -51.9349 0.0000 0.0000 0.0000 0.0000 0.0000 0.0000 0.0000 0.0000 0.0000 0.0000 0.0000 0.0000 0.0000 0.0000 0.0000 -3.8512 1.6957 9.5338 -2.6312 1.8628 5.0308 -0.7347 0.8761 -0.1492 -6.8117 -5.2585 -1.7467 -6.6650 -4.5431 39.5324 -2.0567 -3.8982 13.8550 0.0000 0.0000 0.0000 -83.7232 8.0766 23.1897 26.1663 -37.3725 -8.9884 0.0000 0.0000 7.4598 0.0000 0.0000 0.0000 40.5011 28.9020 23.8416 -159.6529 31.0582 -114.2907 0.0000 0.0000 -25.0145
-0.0886 18.6948 -0.8103 -6.9765 -10.8922 2.6613 0.0000 0.0000 0.0000 -6.3218 -4.7136 -3.7633 1.6412 8.0750 22.9422 1.8613 9.6698 -30.7819 7.8761 -16.0274 -52.1153 0.0000 0.0000 0.0000 0.0000 0.0000 0.0000 0.0000 0.0000 0.0000 0.0000 0.0000 0.0000 0.0000 0.0000 0.0000 -4.0468 1.8951 9.6381 -2.8821 2.1060 5.1797 -0.9099 0.9939 -0.0507 -5.4777 -4.6507 -2.0250 -7.5675 -3.4286 40.8905 -2.6241 -3.3662 14.5007 0.0000 0.0000 0.0000 -83.2304 7.4621 23.4961 26.2357 -37.4405 -9.0305 0.0000 0.0000 7.1899 0.0000 0.0000 0.0000 39.6457 28.6912 22.8348 -159.6284 31.0875 -114.2780 0.0000 0.0000 -24.6374
-0.1365 18.6826 -0.7546 -7.2311 -10.1838 2.2627 0.0000 0.0000 0.0000 -5.8674 -4.6749 -3.3995 1.6587 8.1156 23.0659 1.8072 9.4603 -30.2982 8.0216 -16.1351 -52.6405 0.0000 0.0000 0.0000 0.0000 0.0000 0.0000 0.0000 0.0000 0.0000 0.0000 0.0000 0.0000 0.0000 0.0000 0.0000 -4.1781 2.1035 9.5965 -3.0891 2.3710 5.1551 -1.0759 1.1268 -0.0523 -4.0848 -3.6403 -2.1873 -7.8743 -1.9398 42.0384 -2.9087 -2.5805 15.0989 0.0000 0.0000 0.0000 -82.7727 7.3576 23.9234 26.5985 -37.7936 -9.2520 0.0000 0.0000 6.4813 0.0000 0.0000 0.0000 39.1991 28.4813 22.8369 -159.6523 31.0590 -114.2903 0.0000 0.0000 -24.1529
-0.1853 18.6650 -0.6796 -7.4569 -8.9880 1.6459 0.0000 0.0000 0.0000 -5.4615 -4.9248 -2.8590 1.6889 8.1856 23.2792 1.7331 9.3209 -29.7270 8.2520 -16.3015 -53.4654 0.0000 0.0000 0.0000 0.0000 0.0000 0.0000 0.0000 0.0000 0.0000 0.0000 0.0000 0.0000 0.0000 0.0000 0.0000 -4.8727 1.7156 9.5929 -2.5574 1.8179 5.3015 -0.0824 0.8282 0.0733 -4.1056 -1.7478 -2.6451 -8.3402 1.1917 42.8617 -2.8020 -1.3355 15.7948 0.0000 0.0000 0.0000 -84.6317 7.8115 21.4324 27.1540 -38.3257 -9.5945 0.0000 0.0000 7.0657 0.0000 0.0000 0.0000 38.4675 29.5252 23.7402 -159.5164 31.2206 -114.2201 0.0000 0.0000 -23.8731
-0.2333 18.6451 -0.5866 -7.8123 -7.2768 1.1129 0.0000 0.0000 0.0000 -4.8491 -5.4397 -2.5508 1.7459 8.3155 23.6766 1.7172 8.5887 -29.1287 8.4033 -16.4080 -54.0027 0.0000 0.0000 0.0000 0.0000 0.0000 0.0000 0.0000 0.0000 0.0000 0.0000 0.0000 0.0000 0.0000 0.0000 0.0000 -5.3469 1.3757 9.6720 -2.0350 1.3367 5.3461 0.7678 0.5731 0.0732 -3.8280 0.0681 -2.9784 -8.0883 3.9302 43.6873 -2.4475 -0.1373 16.4706 0.0000 0.0000 0.0000 -85.9443 7.6246 19.5658 27.3548 -38.5154 -9.7192 0.0000 0.0000 6.7564 0.0000 0.0000 0.0000 36.5976 31.5042 24.1041 -159.3280 31.4435 -114.1221 0.0000 0.0000 -23.8607
-0.2803 18.6267 -0.4801 -8.0138 -5.2510 0.5171 0.0000 0.0000 0.0000 -4.4576 -6.1714 -2.1269 1.7836 8.4000 23.9358 1.6455 8.1229 -28.3406 8.6569 -16.5818 -54.8958 0.0000 0.0000 0.0000 0.0000 0.0000 0.0000 0.0000 0.0000 0.0000 0.0000 0.0000 0.0000 0.0000 0.0000 0.0000 -5.8410 1.3306 9.8647 -1.5623 1.2330 5.3783 1.5398 0.5085 -0.0090 -2.9607 1.9560 -3.2500 -6.5501 6.2425 44.9162 -1.6426 1.1169 17.2997 0.0000 0.0000 0.0000 -87.1961 7.6307 18.1772 27.8685 -38.9949 -10.0408 0.0000 0.0000 5.6309 0.0000 0.0000 0.0000 35.5354 33.0964 24.1974 -159.2585 31.5253 -114.0858 0.0000 0.0000 -24.3698
-0.3099 18.6120 -0.3572 -8.1128 -2.8329 -0.0089 0.0000 0.0000 0.0000 -4.2389 -7.2604 -1.8277 1.8236 8.4886 24.2081 1.6101 7.4508 -27.6621 8.8152 -16.6873 -55.4487 0.0000 0.0000 0.0000 0.0000 0.0000 0.0000 0.0000 0.0000 0.0000 0.0000 0.0000 0.0000 0.0000 0.0000 0.0000 -5.8368 1.4756 10.2943 -1.2645 1.3928 5.1792 1.8195 0.6021 -0.4695 -1.6940 3.4354 -2.6716 -4.4317 7.5513 45.8764 -0.7301 2.1307 17.6727 0.0000 0.0000 0.0000 -87.9071 8.0264 17.6376 28.1864 -39.2873 -10.2415 0.0000 0.0000 5.1445 0.0000 0.0000 0.0000 36.1486 34.0351 24.7551 -159.1924 31.6031 -114.0512 0.0000 0.0000 -24.9040
-0.3260 18.5960 -0.2337 -8.0714 0.0346 -0.5974 0.0000 0.0000 0.0000 -4.1208 -8.1855 -1.8050 1.8815 8.6148 24.5976 1.5640 6.1898 -26.5596 8.9755 -16.7919 -56.0053 0.0000 0.0000 0.0000 0.0000 0.0000 0.0000 0.0000 0.0000 0.0000 0.0000 0.0000 0.0000 0.0000 0.0000 0.0000 -5.6621 1.7431 10.7491 -0.8829 1.7424 5.2195 2.0689 0.7827 -0.7084 -0.2791 4.3175 -2.4775 -2.3525 7.9506 46.6294 0.0482 2.8102 17.9994 0.0000 0.0000 0.0000 -88.3984 8.0997 17.2589 27.9306 -39.0523 -10.0799 0.0000 0.0000 5.1239 0.0000 0.0000 0.0000 37.3857 34.3495 25.5870 -158.9414 31.8967 -113.9191 0.0000 0.0000 -25.5419
-0.3189 18.5827 -0.1112 -7.7965 3.0360 -1.1189 0.0000 0.0000 0.0000 -4.3549 -9.0885 -1.9818 1.9508 8.7629 25.0565 1.5018 4.9489 -25.3922 9.1794 -16.9218 -56.7085 0.0000 0.0000 0.0000 0.0000 0.0000 0.0000 0.0000 0.0000 0.0000 0.0000 0.0000 0.0000 0.0000 0.0000 0.0000 -5.2237 2.1198 11.1636 -0.5530 2.2695 5.3041 2.0926 1.0544 -0.8851 1.4185 4.6844 -2.1068 -0.2322 7.4459 47.1163 0.6769 3.1999 18.1268 0.0000 0.0000 0.0000 -88.7925 8.3064 17.4053 28.1124 -39.2195 -10.1947 0.0000 0.0000 4.9017 0.0000 0.0000 0.0000 39.7705 33.0134 26.7574 -159.0218 31.8029 -113.9616 0.0000 0.0000 -26.0846
-0.2762 18.5792 0.0036 -7.3529 5.7213 -1.3789 0.0000 0.0000 0.0000 -4.9338 -9.9418 -2.3405 2.0153 8.8979 25.4766 1.4629 3.7394 -24.4596 9.2214 -16.9481 -56.8528 0.0000 0.0000 0.0000 0.0000 0.0000 0.0000 0.0000 0.0000 0.0000 0.0000 0.0000 0.0000 0.0000 0.0000 0.0000 -4.0947 2.6029 11.3472 -0.4075 3.0200 5.3296 1.5119 1.4486 -0.9716 3.3086 4.6379 -1.5164 1.9865 6.2113 47.2566 1.2052 3.3531 18.0159 0.0000 0.0000 0.0000 -88.5213 8.9479 18.6991 28.5035 -39.5756 -10.4429 0.0000 0.0000 4.2322 0.0000 0.0000 0.0000 43.2333 31.4214 27.6262 -159.0827 31.7317 -113.9936 0.0000 0.0000 -27.0755
-0.2408 18.5770 0.1255 -7.0694 8.6731 -1.7699 0.0000 0.0000 0.0000 -5.2870 -10.7120 -2.6286 2.0838 9.0385 25.9159 1.4130 2.3653 -23.4174 9.3226 -17.0109 -57.1993 0.0000 0.0000 0.0000 0.0000 0.0000 0.0000 0.0000 0.0000 0.0000 0.0000 0.0000 0.0000 0.0000 0.0000 0.0000 -2.7490 3.1088 11.4480 -0.1042 3.8367 5.4674 0.9712 1.8746 -0.8683 4.8974 3.8492 -1.1029 4.2823 3.8718 47.1385 1.6726 3.0088 17.8317 0.0000 0.0000 0.0000 -87.8778 9.6582 20.1302 28.1171 -39.2238 -10.1977 0.0000 0.0000 4.0366 0.0000 0.0000 0.0000 46.9256 28.7843 28.3288 -159.3959 31.3633 -114.1575 0.0000 0.0000 -27.4307
-0.2029 18.5759 0.2312 -6.6780 11.0111 -2.0544 0.0000 0.0000 0.0000 -5.7854 -11.1781 -2.8001 2.1277 9.1272 26.1941 1.3694 1.2541 -22.6012 9.4030 -17.0602 -57.4736 0.0000 0.0000 0.0000 0.0000 0.0000 0.0000 0.0000 0.0000 0.0000 0.0000 0.0000 0.0000 0.0000 0.0000 0.0000 -1.2528 3.6157 11.7797 0.1236 4.6626 5.4837 0.2513 2.3114 -0.9663 6.4400 2.5683 -0.9204 5.6527 1.1731 46.9442 1.6792 2.3838 17.7534 0.0000 0.0000 0.0000 -86.7269 10.8866 22.4701 28.2366 -39.3331 -10.2733 0.0000 0.0000 3.7100 0.0000 0.0000 0.0000 49.3312 26.8366 27.5116 -159.5588 31.1703 -114.2420 0.0000 0.0000 -28.4290
-0.1644 18.5847 0.3172 -6.2296 12.6587 -2.0208 0.0000 0.0000 0.0000 -6.2996 -11.3577 -3.0837 2.1423 9.1563 26.2855 1.3060 0.4144 -21.7645 9.4622 -17.0961 -57.6753 0.0000 0.0000 0.0000 0.0000 0.0000 0.0000 0.0000 0.0000 0.0000 0.0000 0.0000 0.0000 0.0000 0.0000 0.0000 -0.3438 3.4384 11.9359 0.9670 4.5449 5.6114 0.6260 2.2595 -0.9162 5.7726 1.8126 -1.0151 6.5144 -0.2182 46.7670 2.0209 1.8301 17.6751 0.0000 0.0000 0.0000 -87.7148 12.2425 22.2957 28.1586 -39.2619 -10.2239 0.0000 0.0000 4.0645 0.0000 0.0000 0.0000 52.8563 25.4297 28.7497 -159.6999 31.0022 -114.3149 0.0000 0.0000 -28.9213
-0.1384 18.5941 0.3869 -5.9451 13.6164 -1.8623 0.0000 0.0000 0.0000 -6.6236 -11.5962 -3.2292 2.1436 9.1589 26.2937 1.2752 -0.1467 -21.3129 9.4496 -17.0885 -57.6324 0.0000 0.0000 0.0000 0.0000 0.0000 0.0000 0.0000 0.0000 0.0000 0.0000 0.0000 0.0000 0.0000 0.0000 0.0000 1.0643 3.7289 12.1883 1.3088 5.0898 5.6584 0.1147 2.5514 -0.9204 6.0236 0.3799 -1.4336 7.7078 -2.9520 46.3072 2.1652 0.9125 17.6304 0.0000 0.0000 0.0000 -87.1502 13.1635 23.9534 27.9183 -39.0409 -10.0722 0.0000 0.0000 3.9954 0.0000 0.0000 0.0000 56.8769 22.7384 28.4173 -160.0334 30.6021 -114.4856 0.0000 0.0000 -29.8553
-0.1176 18.6080 0.4338 -5.6538 13.7440 -1.4698 0.0000 0.0000 0.0000 -6.9280 -11.5257 -3.4188 2.1176 9.1069 26.1304 1.2690 -0.3020 -21.2103 9.4275 -17.0751 -57.5572 0.0000 0.0000 0.0000 0.0000 0.0000 0.0000 0.0000 0.0000 0.0000 0.0000 0.0000 0.0000 0.0000 0.0000 0.0000 2.3621 3.8678 12.5060 1.6394 5.4324 5.5605 -0.3317 2.7358 -1.1024 6.0132 -1.0229 -1.5413 8.8161 -5.5427 45.7375 2.3174 -0.0324 17.4907 0.0000 0.0000 0.0000 -87.0512 14.2232 24.5254 27.5200 -38.6706 -9.8223 0.0000 0.0000 3.6244 0.0000 0.0000 0.0000 60.1965 20.4593 28.1787 -160.3379 30.2331 -114.6399 0.0000 0.0000 -31.2307
-0.1110 18.6181 0.4672 -5.3165 13.4685 -1.0891 0.0000 0.0000 0.0000 -7.2792 -11.4511 -3.3990 2.0750 9.0206 25.8599 1.2698 -0.1571 -21.2640 9.3896 -17.0520 -57.4281 0.0000 0.0000 0.0000 0.0000 0.0000 0.0000 0.0000 0.0000 0.0000 0.0000 0.0000 0.0000 0.0000 0.0000 0.0000 3.1568 3.6731 12.6939 2.2188 5.2809 5.7003 -0.1604 2.6672 -1.0418 4.8884 -2.1335 -1.8603 9.7799 -7.5032 45.2657 2.6851 -0.9341 17.4902 0.0000 0.0000 0.0000 -87.7972 15.0139 26.1844 28.3671 -39.4520 -10.3561 0.0000 0.0000 3.4254 0.0000 0.0000 0.0000 62.4743 19.4412 28.0627 -160.5977 29.9156 -114.7700 0.0000 0.0000 -32.8660
-0.1154 18.6314 0.4825 -5.0948 13.0130 -0.7010 0.0000 0.0000 0.0000 -7.4476 -11.3017 -3.4493 2.0225 8.9128 25.5231 1.2390 0.1561 -21.1090 9.3596 -17.0336 -57.3255 0.0000 0.0000 0.0000 0.0000 0.0000 0.0000 0.0000 0.0000 0.0000 0.0000 0.0000 0.0000 0.0000 0.0000 0.0000 3.9180 3.1795 13.0353 2.9677 4.7515 5.7245 0.2397 2.4029 -1.2118 2.6860 -3.1557 -1.7856 10.6677 -9.0839 44.8060 3.2628 -1.8896 17.4613 0.0000 0.0000 0.0000 -89.0505 15.8235 27.1983 29.2776 -40.2661 -10.9397 0.0000 0.0000 2.5824 0.0000 0.0000 0.0000 64.3677 17.4514 27.8975 -160.8451 29.6107 -114.8929 0.0000 0.0000 -34.7281
-0.1281 18.6460 0.4871 -4.9061 12.5423 -0.2805 0.0000 0.0000 0.0000 -7.5427 -11.1726 -3.6092 1.9753 8.8144 25.2164 1.2322 0.3263 -21.1114 9.2512 -16.9667 -56.9549 0.0000 0.0000 0.0000 0.0000 0.0000 0.0000 0.0000 0.0000 0.0000 0.0000 0.0000 0.0000 0.0000 0.0000 0.0000 4.7551 2.7268 13.1146 3.5478 4.2678 5.8019 0.4407 2.1687 -1.1630 0.6730 -4.4986 -1.7069 11.2107 -11.0367 44.2238 3.5769 -3.0124 17.4424 0.0000 0.0000 0.0000 -89.6558 15.9740 28.9531 30.2403 -41.0985 -11.5673 0.0000 0.0000 1.5424 0.0000 0.0000 0.0000 67.0290 15.4050 26.7572 -160.9258 29.5108 -114.9326 0.0000 0.0000 -36.2953
-0.1450 18.6535 0.4873 -4.8251 11.9187 -0.1727 0.0000 0.0000 0.0000 -7.5553 -10.7123 -3.5212 1.9341 8.7274 24.9462 1.2184 0.5152 -21.0614 9.2818 -16.9857 -57.0597 0.0000 0.0000 0.0000 0.0000 0.0000 0.0000 0.0000 0.0000 0.0000 0.0000 0.0000 0.0000 0.0000 0.0000 0.0000 5.6162 2.2220 13.2584 4.2202 3.7264 5.8914 0.7319 1.9050 -1.1437 -1.4286 -5.8494 -1.1628 11.4983 -12.8446 43.4966 3.7974 -4.1387 17.2602 0.0000 0.0000 0.0000 -90.3613 15.7086 30.6342 31.1412 -41.8517 -12.1640 0.0000 0.0000 0.4976 0.0000 0.0000 0.0000 69.5572 13.1272 25.1496 -160.4276 30.1238 -114.6849 0.0000 0.0000 -36.6225
-0.1618 18.6567 0.4768 -4.6001 11.2251 -0.0860 0.0000 0.0000 0.0000 -7.7140 -10.0402 -3.4378 1.8904 8.6339 24.6566 1.2138 0.6178 -21.0595 9.2821 -16.9858 -57.0606 0.0000 0.0000 0.0000 0.0000 0.0000 0.0000 0.0000 0.0000 0.0000 0.0000 0.0000 0.0000 0.0000 0.0000 0.0000 6.2433 1.8741 13.4735 4.6903 3.3743 5.8775 0.9140 1.7295 -1.2704 -2.9174 -7.3718 -0.7233 11.9718 -15.1169 42.7881 3.9166 -5.3305 17.2480 0.0000 0.0000 0.0000 -90.4242 15.4825 32.8151 32.5035 -42.9449 -13.0826 0.0000 0.0000 -0.8363 0.0000 0.0000 0.0000 71.6810 10.3335 22.9079 -158.9178 31.9242 -113.9067 0.0000 0.0000 -37.5637
-0.1808 18.6520 0.4624 -4.4646 10.3754 -0.0668 0.0000 0.0000 0.0000 -7.7911 -9.3990 -3.2721 1.8530 8.5530 24.4068 1.2311 0.7640 -21.2629 9.2593 -16.9717 -56.9827 0.0000 0.0000 0.0000 0.0000 0.0000 0.0000 0.0000 0.0000 0.0000 0.0000 0.0000 0.0000 0.0000 0.0000 0.0000 6.7287 1.4176 13.4598 5.3343 2.8581 5.7421 1.3888 1.4661 -1.4247 -4.4591 -8.6301 0.2050 12.3109 -16.9034 41.8989 4.0520 -6.3740 16.9841 0.0000 0.0000 0.0000 -91.2453 15.5693 33.8935 33.9688 -44.0616 -14.0914 0.0000 0.0000 -1.9228 0.0000 0.0000 0.0000 73.0719 7.6767 21.7487 -155.7957 35.3795 -112.1755 0.0000 0.0000 -36.6103
-0.1848 18.6545 0.4419 -4.2450 9.4383 0.0511 0.0000 0.0000 0.0000 -8.0598 -8.9295 -3.1222 1.8114 8.4616 24.1252 1.2342 1.1813 -21.4518 9.2052 -16.9380 -56.7971 0.0000 0.0000 0.0000 0.0000 0.0000 0.0000 0.0000 0.0000 0.0000 0.0000 0.0000 0.0000 0.0000 0.0000 0.0000 7.2589 1.0567 13.2144 5.8288 2.4450 5.5848 1.6765 1.2582 -1.4622 -6.0282 -9.7484 1.1680 13.5277 -18.7671 40.6084 4.5597 -7.3866 16.7226 0.0000 0.0000 0.0000 -91.8659 15.4231 34.5907 34.3287 -44.3268 -14.3423 0.0000 0.0000 -2.1510 0.0000 0.0000 0.0000 74.2086 5.1798 20.8033 -150.4676 40.4892 -108.8952 0.0000 0.0000 -35.1254
-0.1914 18.6492 0.4131 -4.1646 8.2838 -0.3315 0.0000 0.0000 0.0000 -8.2339 -8.0883 -2.5466 1.7816 8.3954 23.9217 1.2503 1.5998 -21.7588 9.2343 -16.9562 -56.8969 0.0000 0.0000 0.0000 0.0000 0.0000 0.0000 0.0000 0.0000 0.0000 0.0000 0.0000 0.0000 0.0000 0.0000 0.0000 7.7343 0.6720 13.3654 6.4289 2.0316 5.5469 2.1025 1.0470 -1.5927 -7.0816 -10.7865 1.7810 14.2056 -20.3499 39.2053 4.7315 -8.2458 16.3380 0.0000 0.0000 0.0000 -92.5457 15.6387 35.1753 34.9098 -44.7476 -14.7498 0.0000 0.0000 -2.2577 0.0000 0.0000 0.0000 74.7475 3.5112 19.7489 -142.3839 46.5923 -103.3139 0.0000 0.0000 -32.1209
-0.2022 18.6469 0.3814 -3.9883 7.1594 -0.4918 0.0000 0.0000 0.0000 -8.3463 -6.8741 -2.3847 1.7488 8.3220 23.6965 1.2435 1.6656 -21.7291 9.2843 -16.9872 -57.0682 0.0000 0.0000 0.0000 0.0000 0.0000 0.0000 0.0000 0.0000 0.0000 0.0000 0.0000 0.0000 0.0000 0.0000 0.0000 8.1654 0.3796 13.2549 6.8665 1.7046 5.4390 2.3755 0.8804 -1.6488 -8.1052 -11.8137 2.1647 15.5555 -22.1321 37.6077 5.1271 -9.1228 16.1349 0.0000 0.0000 0.0000 -92.5551 15.5309 36.3887 34.4666 -44.4275 -14.4387 0.0000 0.0000 -2.3838 0.0000 0.0000 0.0000 75.4454 2.3442 19.3367 -130.4543 52.8106 -94.1882 0.0000 0.0000 -28.3414
-0.2294 18.6318 0.3686 -3.8933 6.4292 -1.0333 0.0000 0.0000 0.0000 -8.2659 -5.7809 -1.6539 1.6851 8.1768 23.2524 1.2354 1.5099 -21.5955 9.2341 -16.9560 -56.8962 0.0000 0.0000 0.0000 0.0000 0.0000 0.0000 0.0000 0.0000 0.0000 0.0000 0.0000 0.0000 0.0000 0.0000 0.0000 8.2267 -0.1639 13.0384 7.4831 0.9928 5.3483 3.1018 0.5196 -1.6460 -9.0691 -12.6321 2.6195 16.6305 -23.4814 35.9762 5.4451 -9.8468 15.8042 0.0000 0.0000 0.0000 -93.0139 16.1034 36.2779 34.0435 -44.1169 -14.1433 0.0000 0.0000 -2.1324 0.0000 0.0000 0.0000 75.7432 1.1853 19.0008 -114.2061 57.6659 -80.7988 0.0000 0.0000 -26.7749
-0.2369 18.6251 0.3290 -3.8152 4.6270 -1.2838 0.0000 0.0000 0.0000 -8.3473 -4.5637 -1.1656 1.6440 8.0814 22.9615 1.2494 2.0417 -21.9415 9.1911 -16.9291 -56.7488 0.0000 0.0000 0.0000 0.0000 0.0000 0.0000 0.0000 0.0000 0.0000 0.0000 0.0000 0.0000 0.0000 0.0000 0.0000 8.6736 -0.3407 12.9005 7.9727 0.8019 5.3158 3.4061 0.4215 -1.6011 -9.7640 -13.5261 2.9375 17.6322 -24.8285 34.0613 5.6424 -10.5464 15.3487 0.0000 0.0000 0.0000 -93.3399 16.4501 36.0785 33.0195 -43.3450 -13.4355 0.0000 0.0000 -0.9969 0.0000 0.0000 0.0000 76.4124 0.2448 17.9511 -93.0508 59.9648 -62.6418 0.0000 0.0000 -23.2645
-0.2545 18.6160 0.2853 -3.9569 2.9133 -1.3796 0.0000 0.0000 0.0000 -8.1466 -3.6659 -0.8063 1.6110 8.0039 22.7261 1.2942 2.5230 -22.5320 9.1011 -16.8724 -56.4392 0.0000 0.0000 0.0000 0.0000 0.0000 0.0000 0.0000 0.0000 0.0000 0.0000 0.0000 0.0000 0.0000 0.0000 0.0000 9.1984 -0.6750 12.6880 8.4948 0.4174 5.1383 3.7318 0.2227 -1.6677 -10.6493 -14.2998 3.1218 18.7056 -26.0557 32.3437 5.9036 -11.2017 15.0988 0.0000 0.0000 0.0000 -93.4708 16.7979 35.5731 31.9783 -42.5299 -12.7262 0.0000 0.0000 0.0807 0.0000 0.0000 0.0000 77.2621 -0.8532 17.0248 -70.6702 58.5400 -43.3420 0.0000 0.0000 -18.4257
-0.2664 18.6091 0.2354 -4.0457 0.6923 -1.4149 0.0000 0.0000 0.0000 -8.0645 -2.4790 -0.6111 1.5986 7.9746 22.6371 1.3089 3.3122 -23.0305 9.1438 -16.8994 -56.5860 0.0000 0.0000 0.0000 0.0000 0.0000 0.0000 0.0000 0.0000 0.0000 0.0000 0.0000 0.0000 0.0000 0.0000 0.0000 9.9510 -0.8538 12.4622 8.7878 0.2458 4.9927 3.6560 0.1336 -1.6887 -11.2711 -15.0033 3.4029 19.8250 -27.1460 30.5187 6.1584 -11.7827 14.7523 0.0000 0.0000 0.0000 -93.4231 16.7250 34.8824 30.5905 -41.3942 -11.7981 0.0000 0.0000 1.4815 0.0000 0.0000 0.0000 78.3504 -3.0668 15.6686 -54.1763 54.5470 -29.5439 0.0000 0.0000 -15.7496
-0.3066 18.6014 0.2053 -3.9570 -0.8030 -1.7533 0.0000 0.0000 0.0000 -8.0162 -1.4956 0.0251 1.5535 7.8665 22.3092 1.3351 3.6247 -23.4001 9.1086 -16.8771 -56.4649 0.0000 0.0000 0.0000 0.0000 0.0000 0.0000 0.0000 0.0000 0.0000 0.0000 0.0000 0.0000 0.0000 0.0000 0.0000 10.2623 -1.2501 12.4015 9.0647 -0.2449 4.9242 3.8546 -0.1163 -1.7267 -11.7799 -15.6077 3.5593 21.1836 -28.0099 28.2612 6.4933 -12.2598 14.2459 0.0000 0.0000 0.0000 -93.3553 16.4508 34.4549 29.9385 -40.8406 -11.3694 0.0000 0.0000 2.4039 0.0000 0.0000 0.0000 78.4632 -3.9966 14.4444 -40.7296 48.4963 -18.9838 0.0000 0.0000 -10.9832
-0.3610 18.5916 0.1752 -3.7996 -2.1751 -1.9574 0.0000 0.0000 0.0000 -8.0128 -0.7191 0.6138 1.4927 7.7181 21.8611 1.3325 3.9816 -23.5636 9.0154 -16.8176 -56.1432 0.0000 0.0000 0.0000 0.0000 0.0000 0.0000 0.0000 0.0000 0.0000 0.0000 0.0000 0.0000 0.0000 0.0000 0.0000 10.3614 -1.6731 12.1912 9.2591 -0.8016 4.7052 4.0885 -0.4039 -1.8451 -12.3109 -16.0229 3.9820 22.3833 -28.5412 26.1412 6.8604 -12.6319 13.6789 0.0000 0.0000 0.0000 -93.3779 16.3733 34.4535 29.9510 -40.8514 -11.3776 0.0000 0.0000 2.4815 0.0000 0.0000 0.0000 79.0138 -6.5122 13.0675 -32.6887 43.0894 -13.2089 0.0000 0.0000 -4.6501
-0.4190 18.5833 0.1406 -3.8094 -3.3252 -2.2139 0.0000 0.0000 0.0000 -7.8405 -0.1433 1.1440 1.4509 7.6139 21.5474 1.3365 4.5467 -23.9002 9.0219 -16.8218 -56.1658 0.0000 0.0000 0.0000 0.0000 0.0000 0.0000 0.0000 0.0000 0.0000 0.0000 0.0000 0.0000 0.0000 0.0000 0.0000 10.6956 -2.0910 12.1468 9.3620 -1.2901 4.4438 4.0929 -0.6585 -2.1025 -12.5730 -16.3660 4.1489 23.4417 -28.9355 24.2214 7.1425 -12.9022 13.1763 0.0000 0.0000 0.0000 -93.3123 15.8062 35.6695 30.1270 -41.0020 -11.4928 0.0000 0.0000 2.1481 0.0000 0.0000 0.0000 79.6733 -9.2041 11.2077 -27.3423 38.5036 -9.7114 0.0000 0.0000 2.6308
-0.4869 18.5749 0.0990 -3.7570 -4.4627 -2.5381 0.0000 0.0000 0.0000 -7.6469 0.5652 1.6535 1.4202 7.5364 21.3145 1.3229 5.0113 -24.0544 9.0891 -16.8647 -56.3976 0.0000 0.0000 0.0000 0.0000 0.0000 0.0000 0.0000 0.0000 0.0000 0.0000 0.0000 0.0000 0.0000 0.0000 0.0000 10.6960 -2.4252 12.1961 9.4768 -1.7013 4.2625 4.2866 -0.8750 -2.3215 -12.8825 -16.4519 4.0987 24.7641 -28.9547 22.2024 7.5911 -12.9922 12.6759 0.0000 0.0000 0.0000 -93.8292 14.8708 37.1592 30.4542 -41.2796 -11.7082 0.0000 0.0000 1.3478 0.0000 0.0000 0.0000 80.6324 -11.2873 8.8951 -23.8917 35.0496 -7.6443 0.0000 0.0000 8.0159
-0.5571 18.5641 0.0534 -3.8362 -5.4998 -2.9410 0.0000 0.0000 0.0000 -7.2937 1.1929 2.2296 1.3917 7.4635 21.0962 1.3120 5.3186 -24.1464 9.1023 -16.8731 -56.4433 0.0000 0.0000 0.0000 0.0000 0.0000 0.0000 0.0000 0.0000 0.0000 0.0000 0.0000 0.0000 0.0000 0.0000 0.0000 10.6878 -2.7042 12.3599 9.5297 -2.0174 4.0593 4.4132 -1.0455 -2.6272 -12.8426 -16.3814 3.9790 25.9365 -28.6705 20.2580 7.9961 -12.9266 12.0711 0.0000 0.0000 0.0000 -94.3442 13.8802 39.7975 30.7667 -41.5416 -11.9148 0.0000 0.0000 0.6087 0.0000 0.0000 0.0000 81.1195 -14.5850 9.4978 -23.5408 34.6749 -7.4437 0.0000 0.0000 8.9392
-0.6333 18.5539 0.0072 -3.9478 -6.3675 -3.2206 0.0000 0.0000 0.0000 -6.8874 1.5691 2.7170 1.3587 7.3783 20.8412 1.3097 5.6657 -24.3354 9.1297 -16.8905 -56.5376 0.0000 0.0000 0.0000 0.0000 0.0000 0.0000 0.0000 0.0000 0.0000 0.0000 0.0000 0.0000 0.0000 0.0000 0.0000 10.6788 -2.9276 12.3606 9.4904 -2.2887 3.8422 4.4266 -1.1904 -2.8621 -12.6129 -16.0288 3.6982 26.9977 -27.9940 18.6477 8.4208 -12.6510 11.4949 0.0000 0.0000 0.0000 -94.8673 12.6849 43.3290 30.6762 -41.4660 -11.8549 0.0000 0.0000 0.4666 0.0000 0.0000 0.0000 81.2984 -17.2161 11.7011 -24.0717 35.2399 -7.7479 0.0000 0.0000 8.5332
-0.7140 18.5480 -0.0496 -3.9993 -7.1751 -3.4796 0.0000 0.0000 0.0000 -6.4909 2.0558 3.1027 1.3259 7.2922 20.5838 1.2685 6.0087 -24.2206 9.2073 -16.9393 -56.8044 0.0000 0.0000 0.0000 0.0000 0.0000 0.0000 0.0000 0.0000 0.0000 0.0000 0.0000 0.0000 0.0000 0.0000 0.0000 10.4986 -3.1643 12.5000 9.3859 -2.5764 3.6286 4.4755 -1.3440 -3.1668 -11.8599 -15.4852 2.8409 27.1660 -26.9775 17.8205 8.4699 -12.1283 10.9883 0.0000 0.0000 0.0000 -95.5107 11.4164 47.3310 30.1283 -41.0031 -11.4937 0.0000 0.0000 -1.3990 0.0000 0.0000 0.0000 81.3368 -18.1361 13.8123 -24.3396 35.5213 -7.9030 0.0000 0.0000 8.4074
-0.8043 18.5450 -0.1077 -4.0050 -7.5890 -3.7979 0.0000 0.0000 0.0000 -6.1135 2.2896 3.4253 1.3082 7.2453 20.4441 1.2023 6.3923 -23.9350 9.2952 -16.9940 -57.1057 0.0000 0.0000 0.0000 0.0000 0.0000 0.0000 0.0000 0.0000 0.0000 0.0000 0.0000 0.0000 0.0000 0.0000 0.0000 10.1341 -3.3335 12.9286 9.3569 -2.7297 3.3066 4.7145 -1.4351 -3.7351 -11.1435 -14.8593 1.7247 27.1684 -25.9489 17.4954 8.4577 -11.5498 10.7138 0.0000 0.0000 0.0000 -96.1203 10.5021 51.2367 30.0974 -40.9768 -11.4735 0.0000 0.0000 -1.1873 0.0000 0.0000 0.0000 81.4264 -17.7487 14.2398 -24.3814 35.5650 -7.9273 0.0000 0.0000 8.9454
-0.8967 18.5390 -0.1684 -4.1723 -7.9755 -4.1917 0.0000 0.0000 0.0000 -5.5904 2.3707 3.8740 1.3010 7.2262 20.3871 1.1941 6.5410 -23.9665 9.2848 -16.9875 -57.0699 0.0000 0.0000 0.0000 0.0000 0.0000 0.0000 0.0000 0.0000 0.0000 0.0000 0.0000 0.0000 0.0000 0.0000 0.0000 10.1671 -3.3490 13.2684 9.2284 -2.6842 3.2401 4.5757 -1.4190 -4.0014 -9.9284 -14.0519 0.4393 27.2975 -24.6489 17.0401 8.4464 -10.8022 10.3303 0.0000 0.0000 0.0000 -96.1905 9.3840 55.0758 29.9129 -40.8186 -11.3526 0.0000 0.0000 0.0059 0.0000 0.0000 0.0000 81.2226 -16.6186 15.0889 -24.5438 35.7341 -8.0220 0.0000 0.0000 8.3331
-0.9979 18.5306 -0.2341 -4.2404 -8.0443 -4.5108 0.0000 0.0000 0.0000 -5.0480 2.5948 3.9637 1.3050 7.2368 20.4189 1.0979 6.8721 -23.4003 9.4400 -17.0827 -57.5997 0.0000 0.0000 0.0000 0.0000 0.0000 0.0000 0.0000 0.0000 0.0000 0.0000 0.0000 0.0000 0.0000 0.0000 0.0000 10.0187 -3.3344 13.5897 9.1776 -2.6426 3.3103 4.6130 -1.3987 -4.0987 -8.9492 -13.0706 -0.6470 27.9117 -23.1093 16.1936 8.6928 -9.9813 9.8525 0.0000 0.0000 0.0000 -96.2170 8.7583 57.4734 30.5623 -41.3705 -11.7795 0.0000 0.0000 -0.1215 0.0000 0.0000 0.0000 80.6391 -15.0315 16.4016 -25.5007 36.7113 -8.5874 0.0000 0.0000 8.7674
-1.1005 18.5291 -0.3035 -4.2966 -7.8862 -4.7054 0.0000 0.0000 0.0000 -4.5531 2.5573 3.7565 1.3288 7.3000 20.6071 1.0515 6.8243 -22.9771 9.4750 -17.1039 -57.7189 0.0000 0.0000 0.0000 0.0000 0.0000 0.0000 0.0000 0.0000 0.0000 0.0000 0.0000 0.0000 0.0000 0.0000 0.0000 10.0407 -3.2253 13.9666 9.1423 -2.4401 3.3744 4.5480 -1.3002 -4.2398 -7.7539 -12.2144 -1.8160 28.0301 -21.7942 15.8075 8.6711 -9.2277 9.5198 0.0000 0.0000 0.0000 -95.9808 8.8495 58.5027 31.4483 -42.1029 -12.3693 0.0000 0.0000 -0.6881 0.0000 0.0000 0.0000 80.0451 -13.1323 17.9099 -26.1201 37.3270 -8.9603 0.0000 0.0000 6.6458
-1.1956 18.5321 -0.3663 -4.2906 -7.3110 -4.8336 0.0000 0.0000 0.0000 -4.2587 2.1687 3.3838 1.3717 7.4119 20.9416 0.9122 7.4708 -22.2339 9.4988 -17.1182 -57.7998 0.0000 0.0000 0.0000 0.0000 0.0000 0.0000 0.0000 0.0000 0.0000 0.0000 0.0000 0.0000 0.0000 0.0000 0.0000 10.2140 -3.1952 14.2169 9.1167 -2.3343 3.4147 4.4201 -1.2490 -4.3411 -6.5945 -11.3405 -3.0322 27.7488 -20.6469 16.2725 8.5044 -8.5002 9.5002 0.0000 0.0000 0.0000 -95.7287 9.1785 58.0325 31.6360 -42.2551 -12.4954 0.0000 0.0000 -0.9996 0.0000 0.0000 0.0000 79.3634 -11.1738 18.6851 -26.5544 37.7509 -9.2250 0.0000 0.0000 5.8804
-1.2838 18.5397 -0.4221 -4.3549 -6.6196 -4.7685 0.0000 0.0000 0.0000 -3.9012 1.6583 2.7485 1.4262 7.5516 21.3603 0.8454 7.4727 -21.6311 9.4534 -17.0908 -57.6454 0.0000 0.0000 0.0000 0.0000 0.0000 0.0000 0.0000 0.0000 0.0000 0.0000 0.0000 0.0000 0.0000 0.0000 0.0000 10.6160 -3.0861 14.1767 9.1645 -2.1436 3.5006 4.2094 -1.1528 -4.2371 -5.2941 -10.5928 -3.8778 27.1468 -19.6793 16.9039 8.1859 -7.8771 9.4649 0.0000 0.0000 0.0000 -95.3221 9.9741 56.1912 31.6507 -42.2669 -12.5053 0.0000 0.0000 -0.4986 0.0000 0.0000 0.0000 78.8500 -8.7756 18.2306 -26.5519 37.7485 -9.2234 0.0000 0.0000 6.0284
-1.3615 18.5489 -0.4633 -4.1490 -5.9878 -4.8577 0.0000 0.0000 0.0000 -3.8639 1.2860 2.3567 1.4687 7.6585 21.6816 0.7797 7.3864 -20.9504 9.4203 -17.0707 -57.5327 0.0000 0.0000 0.0000 0.0000 0.0000 0.0000 0.0000 0.0000 0.0000 0.0000 0.0000 0.0000 0.0000 0.0000 0.0000 10.8968 -2.8653 14.0629 9.1406 -1.8743 3.8186 3.9574 -1.0059 -3.8376 -4.2596 -10.0081 -4.5511 26.8186 -19.0319 17.5969 7.9823 -7.4076 9.5703 0.0000 0.0000 0.0000 -94.6554 10.9546 53.4800 32.0269 -42.5686 -12.7590 0.0000 0.0000 1.9530 0.0000 0.0000 0.0000 78.3214 -7.4050 17.6473 -27.1650 38.3361 -9.6013 0.0000 0.0000 5.7669
-1.4212 18.5546 -0.4950 -4.0489 -5.4897 -4.9493 0.0000 0.0000 0.0000 -3.7674 1.1053 1.9779 1.5108 7.7627 21.9957 0.7100 7.4160 -20.2979 9.4337 -17.0788 -57.5781 0.0000 0.0000 0.0000 0.0000 0.0000 0.0000 0.0000 0.0000 0.0000 0.0000 0.0000 0.0000 0.0000 0.0000 0.0000 11.3889 -2.6563 14.1583 9.1957 -1.5459 4.0936 3.6833 -0.8337 -3.5958 -3.4951 -9.4843 -5.4842 26.0547 -18.7873 19.6852 7.6623 -7.0266 10.2950 0.0000 0.0000 0.0000 -93.1194 12.9969 51.6157 34.2337 -44.2571 -14.2759 0.0000 0.0000 2.5235 0.0000 0.0000 0.0000 77.6438 -6.4960 17.0394 -27.9973 39.1138 -10.1220 0.0000 0.0000 4.3725
-1.4630 18.5613 -0.5164 -4.0344 -4.9007 -4.9357 0.0000 0.0000 0.0000 -3.6950 0.7149 1.7204 1.5262 7.8003 22.1092 0.6777 7.4240 -19.9826 9.3884 -17.0512 -57.4238 0.0000 0.0000 0.0000 0.0000 0.0000 0.0000 0.0000 0.0000 0.0000 0.0000 0.0000 0.0000 0.0000 0.0000 0.0000 11.8340 -2.5460 14.1233 9.3182 -1.3696 4.3173 3.5335 -0.7349 -3.3341 -2.4624 -9.0745 -5.8989 24.7243 -18.7319 22.3565 7.1102 -6.7456 11.1004 0.0000 0.0000 0.0000 -90.5446 15.8328 51.5092 38.6370 -47.2413 -17.4318 0.0000 0.0000 4.1316 0.0000 0.0000 0.0000 77.3259 -5.4351 15.5917 -30.2031 41.0668 -11.5428 0.0000 0.0000 2.8495
-1.4881 18.5671 -0.5276 -3.8381 -4.5355 -4.9086 0.0000 0.0000 0.0000 -3.7854 0.7578 1.4885 1.5167 7.7772 22.0394 0.6361 7.3284 -19.4807 9.4266 -17.0746 -57.5541 0.0000 0.0000 0.0000 0.0000 0.0000 0.0000 0.0000 0.0000 0.0000 0.0000 0.0000 0.0000 0.0000 0.0000 0.0000 11.8968 -2.3903 14.0129 9.4007 -1.2132 4.5858 3.5477 -0.6416 -2.9778 -1.6214 -8.7885 -6.0852 23.3907 -18.9944 25.6414 6.5995 -6.5942 12.2382 0.0000 0.0000 0.0000 -86.9271 19.5774 53.5390 45.3459 -50.9368 -22.5070 0.0000 0.0000 5.0118 0.0000 0.0000 0.0000 76.9902 -5.4917 14.7111 -35.4405 45.1241 -15.1246 0.0000 0.0000 -0.8925
-1.4929 18.5755 -0.5372 -3.7877 -4.3443 -4.8340 0.0000 0.0000 0.0000 -3.8506 0.3775 1.4348 1.5155 7.7741 22.0301 0.6308 7.3417 -19.4359 9.3958 -17.0558 -57.4492 0.0000 0.0000 0.0000 0.0000 0.0000 0.0000 0.0000 0.0000 0.0000 0.0000 0.0000 0.0000 0.0000 0.0000 0.0000 12.0457 -2.2043 14.1114 9.4544 -0.9530 4.7606 3.4793 -0.5051 -2.8353 -1.1791 -8.6681 -5.8801 22.1667 -19.4731 29.0567 6.2051 -6.5926 13.5345 0.0000 0.0000 0.0000 -82.4364 23.6578 57.1506 54.4415 -54.6370 -29.7600 0.0000 0.0000 4.9803 0.0000 0.0000 0.0000 76.6098 -4.5954 13.7754 -41.6221 49.0021 -19.6549 0.0000 0.0000 -4.1143
-1.4734 18.5821 -0.5419 -3.6166 -4.2710 -4.6726 0.0000 0.0000 0.0000 -4.1149 0.2537 1.2307 1.5195 7.7839 22.0596 0.6177 7.4113 -19.3575 9.4427 -17.0843 -57.6090 0.0000 0.0000 0.0000 0.0000 0.0000 0.0000 0.0000 0.0000 0.0000 0.0000 0.0000 0.0000 0.0000 0.0000 0.0000 11.9018 -2.1681 14.1869 9.4436 -0.9216 4.8332 3.5412 -0.4875 -2.7965 -0.9490 -8.6823 -5.1388 20.4020 -19.8130 32.3258 5.6435 -6.6725 14.6448 0.0000 0.0000 0.0000 -77.8843 28.1967 60.9070 65.3705 -57.5790 -38.8436 0.0000 0.0000 3.7212 0.0000 0.0000 0.0000 75.9610 -4.9421 13.7457 -51.1738 53.4581 -27.1144 0.0000 0.0000 -6.4383
-1.4412 18.5831 -0.5401 -3.8200 -4.4445 -4.5964 0.0000 0.0000 0.0000 -3.9923 0.2618 1.2165 1.5292 7.8076 22.1313 0.6441 7.2536 -19.5012 9.4508 -17.0892 -57.6364 0.0000 0.0000 0.0000 0.0000 0.0000 0.0000 0.0000 0.0000 0.0000 0.0000 0.0000 0.0000 0.0000 0.0000 0.0000 12.0025 -2.0655 14.3612 9.3939 -0.7676 4.9955 3.4081 -0.4060 -2.7121 -1.3248 -8.8653 -4.1617 19.2684 -20.3431 35.0686 5.3957 -6.9210 15.7536 0.0000 0.0000 0.0000 -72.8578 32.2711 64.7622 76.7521 -59.3263 -48.5529 0.0000 0.0000 2.9060 0.0000 0.0000 0.0000 75.2056 -4.4028 13.4310 -61.6939 56.7447 -35.7541 0.0000 0.0000 -7.8280
-1.3974 18.5821 -0.5336 -4.0654 -4.6476 -4.5965 0.0000 0.0000 0.0000 -3.8506 0.3251 1.2442 1.5468 7.8503 22.2603 0.6716 7.1481 -19.6983 9.4151 -17.0676 -57.5150 0.0000 0.0000 0.0000 0.0000 0.0000 0.0000 0.0000 0.0000 0.0000 0.0000 0.0000 0.0000 0.0000 0.0000 0.0000 11.9433 -1.8965 14.5737 9.3967 -0.5538 5.2463 3.4079 -0.2924 -2.5493 -1.4784 -9.2664 -3.4796 17.3979 -20.9275 37.7758 4.7213 -7.2251 16.8392 0.0000 0.0000 0.0000 -67.9309 35.9623 68.2725 87.6156 -59.9785 -57.9352 0.0000 0.0000 1.7788 0.0000 0.0000 0.0000 73.9383 -3.5493 13.2419 -74.9406 59.1255 -46.9965 0.0000 0.0000 -8.2713
-1.3388 18.5830 -0.5311 -4.1625 -4.7722 -4.5134 0.0000 0.0000 0.0000 -3.9619 0.2116 1.1276 1.5733 7.9142 22.4539 0.6895 7.1874 -19.9104 9.4455 -17.0860 -57.6184 0.0000 0.0000 0.0000 0.0000 0.0000 0.0000 0.0000 0.0000 0.0000 0.0000 0.0000 0.0000 0.0000 0.0000 0.0000 11.5467 -1.7533 14.6472 9.3434 -0.4500 5.5069 3.5445 -0.2322 -2.3065 -2.4810 -9.4580 -1.6645 17.5065 -21.0671 38.1602 5.0625 -7.5166 16.7947 0.0000 0.0000 0.0000 -63.3344 38.8973 71.1325 96.0503 -59.8612 -65.2373 0.0000 0.0000 3.5926 0.0000 0.0000 0.0000 71.8184 -2.2332 13.6497 -90.3068 59.9996 -60.2657 0.0000 0.0000 -7.6846
-1.2645 18.5874 -0.5249 -4.3560 -4.8713 -4.5668 0.0000 0.0000 0.0000 -4.0069 0.2123 1.0578 1.6213 8.0281 22.7995 0.7134 7.1725 -20.1380 9.5278 -17.1356 -57.8982 0.0000 0.0000 0.0000 0.0000 0.0000 0.0000 0.0000 0.0000 0.0000 0.0000 0.0000 0.0000 0.0000 0.0000 0.0000 11.4614 -1.5049 14.8833 9.0605 -0.1835 6.0532 3.2357 -0.0748 -1.8391 -2.2538 -9.8416 -1.5428 16.6488 -21.5244 38.9946 4.6134 -7.7102 17.1300 0.0000 0.0000 0.0000 -58.2263 40.3516 74.3459 102.4312 -59.4080 -70.7443 0.0000 0.0000 7.5535 0.0000 0.0000 0.0000 69.0962 -0.2374 14.0303 -106.4108 58.9575 -74.1624 0.0000 0.0000 -6.9731
-1.1895 18.5894 -0.5163 -4.7029 -4.8851 -4.3777 0.0000 0.0000 0.0000 -3.8184 0.2410 0.6957 1.6692 8.1402 23.1407 0.7439 6.8791 -20.2111 9.5210 -17.1316 -57.8752 0.0000 0.0000 0.0000 0.0000 0.0000 0.0000 0.0000 0.0000 0.0000 0.0000 0.0000 0.0000 0.0000 0.0000 0.0000 11.3018 -1.3664 14.8264 8.7705 -0.0945 6.4109 2.9881 -0.0095 -1.4230 -2.0896 -9.9504 -1.0987 15.9801 -21.5027 39.5055 4.3398 -7.7472 17.1491 0.0000 0.0000 0.0000 -53.9362 41.6127 77.7127 107.6511 -58.7894 -75.2242 0.0000 0.0000 7.8966 0.0000 0.0000 0.0000 65.8533 2.7480 14.9989 -119.5139 56.4381 -85.2542 0.0000 0.0000 -6.2128
-1.1012 18.5945 -0.5213 -4.7113 -5.0756 -4.2201 0.0000 0.0000 0.0000 -4.1305 0.1790 0.5261 1.6897 8.1873 23.2845 0.8069 6.6704 -20.6653 9.4333 -17.0786 -57.5769 0.0000 0.0000 0.0000 0.0000 0.0000 0.0000 0.0000 0.0000 0.0000 0.0000 0.0000 0.0000 0.0000 0.0000 0.0000 10.5214 -1.4287 14.9270 8.5595 -0.2735 6.4314 3.2169 -0.1092 -1.4707 -3.2172 -9.4417 0.4291 15.8015 -20.5398 40.0776 4.7468 -7.6152 17.0406 0.0000 0.0000 0.0000 -51.6992 43.8012 80.4442 111.1828 -58.2347 -78.2361 0.0000 0.0000 4.7283 0.0000 0.0000 0.0000 60.7661 5.6679 17.2511 -129.8736 53.0464 -93.7249 0.0000 0.0000 -6.2587
-1.0137 18.6048 -0.5345 -4.6073 -5.2410 -3.9852 0.0000 0.0000 0.0000 -4.5732 0.1942 0.1405 1.7148 8.2448 23.4603 0.8353 6.6985 -20.9558 9.4551 -17.0918 -57.6509 0.0000 0.0000 0.0000 0.0000 0.0000 0.0000 0.0000 0.0000 0.0000 0.0000 0.0000 0.0000 0.0000 0.0000 0.0000 9.6928 -1.2187 15.0126 8.0001 -0.1505 6.7387 3.0462 -0.0413 -1.1983 -2.9016 -9.3966 0.3322 14.8169 -20.3243 41.0283 4.3202 -7.5284 17.3511 0.0000 0.0000 0.0000 -50.3607 44.0741 81.3390 112.5696 -57.9850 -79.4136 0.0000 0.0000 3.8394 0.0000 0.0000 0.0000 55.3572 9.2973 18.2824 -137.4961 49.4853 -99.6772 0.0000 0.0000 -7.4462
-0.9210 18.6102 -0.5767 -5.0407 -6.7727 -3.7267 0.0000 0.0000 0.0000 -4.4621 1.1203 -0.3711 1.7910 8.4164 23.9863 0.9068 7.0077 -21.8415 9.3954 -17.0555 -57.4476 0.0000 0.0000 0.0000 0.0000 0.0000 0.0000 0.0000 0.0000 0.0000 0.0000 0.0000 0.0000 0.0000 0.0000 0.0000 9.0924 -0.6002 15.5921 7.5048 0.5882 7.1910 2.7309 0.3286 -1.0203 -2.7078 -9.2247 0.2982 14.2808 -19.9465 41.5280 4.1218 -7.3844 17.4593 0.0000 0.0000 0.0000 -50.8479 43.0463 81.2372 112.0737 -58.0764 -78.9929 0.0000 0.0000 3.8548 0.0000 0.0000 0.0000 49.5723 13.7282 19.8652 -142.4305 46.5622 -103.3477 0.0000 0.0000 -8.8855
-0.8044 18.5996 -0.5896 -5.9342 -5.0200 -3.8296 0.0000 0.0000 0.0000 -3.8617 0.1349 -0.7492 1.8608 8.5700 24.4592 0.9833 6.2367 -21.9809 9.2441 -16.9623 -56.9306 0.0000 0.0000 0.0000 0.0000 0.0000 0.0000 0.0000 0.0000 0.0000 0.0000 0.0000 0.0000 0.0000 0.0000 0.0000 9.5906 -1.2105 15.6127 6.9812 -0.1836 7.5457 2.0219 -0.0157 -0.6575 -2.4630 -8.9423 0.0695 13.8154 -19.4291 42.0055 3.9555 -7.1600 17.5925 0.0000 0.0000 0.0000 -52.0822 41.3836 80.6718 110.7779 -58.3042 -77.8917 0.0000 0.0000 4.2522 0.0000 0.0000 0.0000 43.4124 18.1379 21.3503 -145.3121 44.5880 -105.4062 0.0000 0.0000 -9.9063
-0.7280 18.5918 -0.6061 -6.1438 -4.9398 -3.3481 0.0000 0.0000 0.0000 -4.0500 -0.0585 -1.0311 1.7934 8.4217 24.0025 1.1466 5.7528 -23.0679 9.1522 -16.9047 -56.6151 0.0000 0.0000 0.0000 0.0000 0.0000 0.0000 0.0000 0.0000 0.0000 0.0000 0.0000 0.0000 0.0000 0.0000 0.0000 8.4968 -0.8437 15.0767 6.2574 0.0163 7.9909 1.8145 0.0990 0.0885 -2.2574 -8.6590 -0.1476 13.9670 -19.0386 42.0283 4.0386 -6.9613 17.6001 0.0000 0.0000 0.0000 -52.3494 39.6086 79.8949 109.7093 -58.4801 -76.9817 0.0000 0.0000 4.9355 0.0000 0.0000 0.0000 37.7081 22.8310 22.6732 -146.6280 43.6140 -106.3220 0.0000 0.0000 -9.7111
-0.6144 18.5885 -0.6175 -6.5957 -4.6624 -2.9326 0.0000 0.0000 0.0000 -4.1360 -1.0518 -0.9508 1.7323 8.2846 23.5818 1.2480 5.9882 -24.0444 9.0271 -16.8251 -56.1837 0.0000 0.0000 0.0000 0.0000 0.0000 0.0000 0.0000 0.0000 0.0000 0.0000 0.0000 0.0000 0.0000 0.0000 0.0000 7.8439 -0.4254 15.0707 5.5862 0.4715 8.0364 1.3957 0.3263 0.1386 -1.8592 -8.5778 -0.1172 13.8643 -18.9391 42.3740 3.9581 -6.8691 17.7295 0.0000 0.0000 0.0000 -51.3610 37.9200 80.4670 108.9029 -58.6059 -76.2938 0.0000 0.0000 5.5565 0.0000 0.0000 0.0000 32.3438 25.8563 23.3327 -147.6422 42.8306 -107.0166 0.0000 0.0000 -10.5550
-0.4930 18.6028 -0.6410 -6.6518 -4.5277 -2.7597 0.0000 0.0000 0.0000 -4.4704 -1.1199 -1.4282 1.7698 8.3692 23.8412 1.2505 5.9227 -24.0232 9.0690 -16.8519 -56.3284 0.0000 0.0000 0.0000 0.0000 0.0000 0.0000 0.0000 0.0000 0.0000 0.0000 0.0000 0.0000 0.0000 0.0000 0.0000 6.6170 0.1233 14.5958 4.8578 0.9290 8.6432 1.2519 0.5614 1.0249 -1.2079 -8.1881 -0.7018 13.5468 -18.2751 42.5523 3.7767 -6.4915 17.7355 0.0000 0.0000 0.0000 -51.1458 36.1576 80.0223 108.8705 -58.6108 -76.2661 0.0000 0.0000 6.0097 0.0000 0.0000 0.0000 27.5204 28.4973 22.3160 -148.7033 41.9792 -107.7322 0.0000 0.0000 -13.1198
-0.3490 18.6138 -0.6508 -6.7247 -4.2321 -2.3941 0.0000 0.0000 0.0000 -4.9456 -1.7057 -2.0265 1.8286 8.4995 24.2419 1.3214 5.7543 -24.4810 8.9220 -16.7573 -55.8200 0.0000 0.0000 0.0000 0.0000 0.0000 0.0000 0.0000 0.0000 0.0000 0.0000 0.0000 0.0000 0.0000 0.0000 0.0000 5.8756 0.7035 14.2010 3.9872 1.5546 8.8336 0.6774 0.8832 1.4441 -1.7224 -7.7083 -1.2400 14.2320 -17.7600 42.8737 4.2806 -6.2560 18.1941 0.0000 0.0000 0.0000 -50.2929 34.9354 79.8739 109.7166 -58.4789 -76.9879 0.0000 0.0000 5.7756 0.0000 0.0000 0.0000 24.0760 30.6527 21.4939 -148.9936 41.7406 -107.9259 0.0000 0.0000 -15.7200
-0.1960 18.6232 -0.6513 -6.9012 -3.5524 -2.2098 0.0000 0.0000 0.0000 -5.2611 -2.1987 -2.6394 1.9059 8.6673 24.7601 1.3584 5.2375 -24.4633 8.8267 -16.6949 -55.4889 0.0000 0.0000 0.0000 0.0000 0.0000 0.0000 0.0000 0.0000 0.0000 0.0000 0.0000 0.0000 0.0000 0.0000 0.0000 4.7292 1.1129 13.6603 3.4359 1.9120 9.1421 0.7149 1.0469 2.0371 -2.2266 -7.1444 -1.6571 14.2902 -16.8456 43.3147 4.5709 -5.9189 18.4935 0.0000 0.0000 0.0000 -50.3289 34.2018 78.9679 110.7398 -58.3106 -77.8593 0.0000 0.0000 5.3663 0.0000 0.0000 0.0000 21.4872 33.0822 19.4099 -148.3150 42.2946 -107.4717 0.0000 0.0000 -16.2589
-0.0459 18.6314 -0.6589 -6.9679 -2.7371 -2.4196 0.0000 0.0000 0.0000 -5.7441 -2.7783 -2.8851 1.9937 8.8530 25.3366 1.3647 4.9963 -24.3740 8.8205 -16.6908 -55.4672 0.0000 0.0000 0.0000 0.0000 0.0000 0.0000 0.0000 0.0000 0.0000 0.0000 0.0000 0.0000 0.0000 0.0000 0.0000 3.9239 1.6345 14.2660 2.5748 2.5539 9.1730 0.1720 1.3578 1.7570 -1.9929 -7.1278 -1.4339 12.7838 -16.0572 43.4190 3.9261 -5.7030 18.0409 0.0000 0.0000 0.0000 -49.1637 33.5672 79.1770 112.3059 -58.0339 -79.1900 0.0000 0.0000 5.1879 0.0000 0.0000 0.0000 23.3732 33.2192 20.0064 -148.1383 42.4367 -107.3526 0.0000 0.0000 -13.1196
0.0964 18.6436 -0.6784 -7.1534 -1.3700 -2.0600 0.0000 0.0000 0.0000 -5.9652 -3.5821 -3.9219 2.0768 9.0243 25.8713 1.3666 4.4339 -24.0761 8.7702 -16.6576 -55.2921 0.0000 0.0000 0.0000 0.0000 0.0000 0.0000 0.0000 0.0000 0.0000 0.0000 0.0000 0.0000 0.0000 0.0000 0.0000 2.9797 2.1184 14.3307 1.7833 3.1042 8.9102 -0.2043 1.6148 1.4420 -2.3026 -7.2379 -1.1182 11.9826 -15.7475 43.7964 3.6806 -5.7039 18.0389 0.0000 0.0000 0.0000 -47.8167 33.0463 79.5775 114.0277 -57.7020 -80.6480 0.0000 0.0000 5.1988 0.0000 0.0000 0.0000 23.2477 33.4822 19.7843 -147.8360 42.6775 -107.1481 0.0000 0.0000 -12.5339
0.2611 18.6472 -0.6523 -7.2932 -0.8293 -2.3947 0.0000 0.0000 0.0000 -6.4926 -4.0818 -3.7083 2.1418 9.1555 26.2828 1.4126 4.3065 -24.3663 8.6656 -16.5877 -54.9264 0.0000 0.0000 0.0000 0.0000 0.0000 0.0000 0.0000 0.0000 0.0000 0.0000 0.0000 0.0000 0.0000 0.0000 0.0000 2.1607 2.9410 14.3612 0.8677 4.0857 9.2856 -0.8069 2.1074 1.8599 -2.3063 -7.5567 -1.3651 11.0563 -15.7394 43.9918 3.2352 -5.7695 18.0632 0.0000 0.0000 0.0000 -46.4048 31.7962 79.5237 115.7892 -57.3314 -82.1340 0.0000 0.0000 5.5631 0.0000 0.0000 0.0000 23.3011 33.5757 19.5949 -147.2423 43.1430 -106.7439 0.0000 0.0000 -11.9072
0.4232 18.6487 -0.6418 -7.4498 -0.1923 -2.6941 0.0000 0.0000 0.0000 -6.9805 -4.6305 -3.5630 2.1968 9.2645 26.6262 1.4463 4.1431 -24.5394 8.6103 -16.5503 -54.7325 0.0000 0.0000 0.0000 0.0000 0.0000 0.0000 0.0000 0.0000 0.0000 0.0000 0.0000 0.0000 0.0000 0.0000 0.0000 1.3037 3.3168 14.3174 0.2460 4.4869 9.2896 -1.0217 2.2914 1.8825 -3.8259 -7.2996 -0.7743 10.1262 -14.6399 44.5381 3.2885 -5.6680 18.0969 0.0000 0.0000 0.0000 -46.3502 32.1695 78.9554 117.4388 -56.9547 -83.5197 0.0000 0.0000 6.4726 0.0000 0.0000 0.0000 22.7105 34.3058 20.7273 -147.0398 43.2994 -106.6053 0.0000 0.0000 -11.5956
0.5779 18.6518 -0.6449 -7.6727 0.5405 -2.7794 0.0000 0.0000 0.0000 -7.3000 -5.1269 -3.7926 2.2662 9.3998 27.0542 1.4698 3.8998 -24.5937 8.5364 -16.4999 -54.4724 0.0000 0.0000 0.0000 0.0000 0.0000 0.0000 0.0000 0.0000 0.0000 0.0000 0.0000 0.0000 0.0000 0.0000 0.0000 0.2142 3.8017 14.3969 -0.3326 5.0047 9.1312 -1.0937 2.5203 1.6459 -4.0020 -7.3006 -0.2810 8.4011 -13.8185 45.0296 2.6672 -5.5421 17.9251 0.0000 0.0000 0.0000 -45.8586 32.3825 78.7172 119.5663 -56.4244 -85.2978 0.0000 0.0000 6.3408 0.0000 0.0000 0.0000 20.9867 35.0187 20.4409 -146.5124 43.7015 -106.2422 0.0000 0.0000 -12.0269
0.7327 18.6586 -0.6516 -7.9716 1.1254 -2.9328 0.0000 0.0000 0.0000 -7.5410 -5.5080 -3.9522 2.3349 9.5314 27.4722 1.4960 3.6623 -24.6728 8.4978 -16.4734 -54.3365 0.0000 0.0000 0.0000 0.0000 0.0000 0.0000 0.0000 0.0000 0.0000 0.0000 0.0000 0.0000 0.0000 0.0000 0.0000 -0.5136 4.2255 14.5120 -1.0320 5.4759 9.0572 -1.4877 2.7460 1.5227 -5.5580 -7.3052 -0.0324 8.4832 -13.5228 45.1464 3.0397 -5.6797 18.0662 0.0000 0.0000 0.0000 -45.0871 32.2845 78.4737 121.5936 -55.8701 -86.9815 0.0000 0.0000 5.9776 0.0000 0.0000 0.0000 19.1626 35.5348 19.6892 -146.3878 43.7953 -106.1561 0.0000 0.0000 -13.7417
0.8791 18.6640 -0.6645 -8.2934 1.6379 -3.0149 0.0000 0.0000 0.0000 -7.7293 -5.9491 -4.1055 2.3881 9.6316 27.7919 1.5122 3.4620 -24.6971 8.4142 -16.4156 -54.0411 0.0000 0.0000 0.0000 0.0000 0.0000 0.0000 0.0000 0.0000 0.0000 0.0000 0.0000 0.0000 0.0000 0.0000 0.0000 -1.2922 4.5629 14.4284 -1.7143 5.8308 9.0579 -1.8044 2.9113 1.5771 -6.0518 -7.5369 -0.5980 6.6894 -13.0500 46.1299 2.3416 -5.7222 18.6024 0.0000 0.0000 0.0000 -44.3263 32.1957 78.3055 123.3229 -55.3574 -88.4087 0.0000 0.0000 5.7794 0.0000 0.0000 0.0000 17.6739 36.1642 19.1140 -146.0757 44.0286 -105.9396 0.0000 0.0000 -14.2479
1.0199 18.6700 -0.6884 -8.6692 1.8531 -3.1783 0.0000 0.0000 0.0000 -7.8630 -6.2577 -4.0924 2.4317 9.7127 28.0513 1.5573 3.3004 -24.9580 8.2610 -16.3079 -53.4975 0.0000 0.0000 0.0000 0.0000 0.0000 0.0000 0.0000 0.0000 0.0000 0.0000 0.0000 0.0000 0.0000 0.0000 0.0000 -1.9558 4.9652 14.5819 -2.3100 6.2725 9.0418 -2.1291 3.1215 1.4950 -7.6694 -7.7194 0.2402 6.8723 -12.9670 44.9387 2.7288 -5.9842 17.7927 0.0000 0.0000 0.0000 -43.5215 31.9982 78.5911 124.3909 -55.0216 -89.2855 0.0000 0.0000 6.5640 0.0000 0.0000 0.0000 15.8540 36.2580 18.2503 -145.8390 44.2037 -105.7748 0.0000 0.0000 -14.3930
1.1524 18.6780 -0.7235 -9.2168 1.8199 -3.3084 0.0000 0.0000 0.0000 -7.7360 -6.3583 -4.1858 2.4791 9.7998 28.3307 1.5862 3.2384 -25.1433 8.1752 -16.2466 -53.1913 0.0000 0.0000 0.0000 0.0000 0.0000 0.0000 0.0000 0.0000 0.0000 0.0000 0.0000 0.0000 0.0000 0.0000 0.0000 -2.8054 5.2414 14.6592 -2.9671 6.5184 8.9015 -2.3944 3.2267 1.3048 -8.2323 -7.9238 0.6882 5.8845 -12.7531 44.9204 2.4092 -6.1237 17.5836 0.0000 0.0000 0.0000 -42.7023 32.1386 78.4074 125.8195 -54.5485 -90.4527 0.0000 0.0000 7.0918 0.0000 0.0000 0.0000 14.6136 36.6138 17.9738 -145.8010 44.2316 -105.7483 0.0000 0.0000 -14.1069
1.2820 18.6891 -0.7695 -9.7547 1.7336 -3.3297 0.0000 0.0000 0.0000 -7.6351 -6.5934 -4.3472 2.5189 9.8721 28.5636 1.6003 3.3987 -25.3237 8.0745 -16.1738 -52.8307 0.0000 0.0000 0.0000 0.0000 0.0000 0.0000 0.0000 0.0000 0.0000 0.0000 0.0000 0.0000 0.0000 0.0000 0.0000 -3.6641 5.2510 14.7222 -3.3449 6.4102 8.7698 -2.3174 3.1471 1.0875 -9.1620 -7.9628 0.7891 4.9202 -12.2593 44.7941 2.1941 -6.1902 17.4095 0.0000 0.0000 0.0000 -42.7057 32.7023 78.0904 126.9880 -54.1404 -91.4022 0.0000 0.0000 7.2716 0.0000 0.0000 0.0000 12.3720 37.4728 16.9538 -145.5176 44.4390 -105.5503 0.0000 0.0000 -14.9437
1.4002 18.6966 -0.8283 -10.3165 1.4034 -3.3298 0.0000 0.0000 0.0000 -7.4285 -6.6795 -4.6207 2.5719 9.9674 28.8712 1.6330 3.5703 -25.6458 8.0445 -16.1519 -52.7229 0.0000 0.0000 0.0000 0.0000 0.0000 0.0000 0.0000 0.0000 0.0000 0.0000 0.0000 0.0000 0.0000 0.0000 0.0000 -4.9574 4.9130 14.6749 -3.1419 5.8098 8.7987 -1.3094 2.7873 0.9946 -10.9714 -7.5206 0.3548 3.7464 -10.8186 44.7877 2.1575 -6.0093 17.4104 0.0000 0.0000 0.0000 -44.6610 34.1825 76.7020 127.8355 -53.8320 -92.0877 0.0000 0.0000 7.8259 0.0000 0.0000 0.0000 9.0066 39.1912 15.6404 -145.1837 44.6805 -105.3160 0.0000 0.0000 -16.5335
