HIERARCHY
ROOT Hips
{
	OFFSET 0.00000 0.00000 0.00000
	CHANNELS 6 Xposition Yposition Zposition Zrotation Yrotation Xrotation
	JOINT LHipJoint
	{
		OFFSET 0.00000 0.00000 0.00000
		CHANNELS 3 Zrotation Yrotation Xrotation
		JOINT LeftUpLeg
		{
			OFFSET 1.55766 -1.60504 1.11378
			CHANNELS 3 Zrotation Yrotation Xrotation
			JOINT LeftLeg
			{
				OFFSET 2.29047 -6.29302 0.00000
				CHANNELS 3 Zrotation Yrotation Xrotation
				JOINT LeftFoot
				{
					OFFSET 2.52265 -6.93093 0.00000
					CHANNELS 3 Zrotation Yrotation Xrotation
					JOINT LeftToeBase
					{
						OFFSET 0.17633 -0.48446 2.02656
						CHANNELS 3 Zrotation Yrotation Xrotation
						End Site
						{
							OFFSET 0.00000 -0.00000 1.04989
						}
					}
				}
			}
		}
	}
	JOINT RHipJoint
	{
		OFFSET 0.00000 0.00000 0.00000
		CHANNELS 3 Zrotation Yrotation Xrotation
		JOINT RightUpLeg
		{
			OFFSET -1.48599 -1.60504 1.11378
			CHANNELS 3 Zrotation Yrotation Xrotation
			JOINT RightLeg
			{
				OFFSET -2.27280 -6.24448 0.00000
				CHANNELS 3 Zrotation Yrotation Xrotation
				JOINT RightFoot
				{
					OFFSET -2.50834 -6.89161 0.00000
					CHANNELS 3 Zrotation Yrotation Xrotation
					JOINT RightToeBase
					{
						OFFSET -0.26967 -0.74090 2.08741
						CHANNELS 3 Zrotation Yrotation Xrotation
						End Site
						{
							OFFSET -0.00000 -0.00000 1.10614
						}
					}
				}
			}
		}
	}
	JOINT LowerBack
	{
		OFFSET 0.00000 0.00000 0.00000
		CHANNELS 3 Zrotation Yrotation Xrotation
		JOINT Spine
		{
			OFFSET 0.06481 2.02437 -0.08472
			CHANNELS 3 Zrotation Yrotation Xrotation
			JOINT Spine1
			{
				OFFSET 0.00015 1.96711 0.18069
				CHANNELS 3 Zrotation Yrotation Xrotation
				JOINT Neck
				{
					OFFSET 0.00000 0.00000 0.00000
					CHANNELS 3 Zrotation Yrotation Xrotation
					JOINT Neck1
					{
						OFFSET -0.29961 1.68293 -0.13041
						CHANNELS 3 Zrotation Yrotation Xrotation
						JOINT Head
						{
							OFFSET 0.59697 1.61501 -0.14669
							CHANNELS 3 Zrotation Yrotation Xrotation
							End Site
							{
								OFFSET 0.22973 1.74906 -0.10148
							}
						}
					}
				}
				JOINT LeftShoulder
				{
					OFFSET 0.00000 0.00000 0.00000
					CHANNELS 3 Zrotation Yrotation Xrotation
					JOINT LeftArm
					{
						OFFSET 3.37968 1.02893 0.31147
						CHANNELS 3 Zrotation Yrotation Xrotation
						JOINT LeftForeArm
						{
							OFFSET 5.19807 -0.00000 -0.00000
							CHANNELS 3 Zrotation Yrotation Xrotation
							JOINT LeftHand
							{
								OFFSET 3.09370 -0.00000 -0.00000
								CHANNELS 3 Zrotation Yrotation Xrotation
								End Site
								{
									OFFSET 0.00000 0.60000 0.00000
								}
							}
						}
					}
				}
				JOINT RightShoulder
				{
					OFFSET 0.00000 0.00000 0.00000
					CHANNELS 3 Zrotation Yrotation Xrotation
					JOINT RightArm
					{
						OFFSET -3.38254 0.96355 -0.16120
						CHANNELS 3 Zrotation Yrotation Xrotation
						JOINT RightForeArm
						{
							OFFSET -5.45222 -0.00000 -0.00000
							CHANNELS 3 Zrotation Yrotation Xrotation
							JOINT RightHand
							{
								OFFSET -3.01284 -0.00000 -0.00000
								CHANNELS 3 Zrotation Yrotation Xrotation
								End Site
								{
									OFFSET 0.00000 0.60000 0.00000
								}
							}
						}
					}
				}
			}
		}
	}
}
MOTION
Frames: 52
Frame Time: 0.0333333
0.0000 16.1821 0.0000 -14.1747 -0.0000 10.3722 0.0000 -0.0000 0.0000 -24.0824 -8.4330 -45.6246 8.8197 16.6903 55.4646 0.0012 -2.7919 -2.0283 2.5824 -9.9862 -28.9321 0.0000 -0.0000 0.0000 39.7616 -8.5345 -23.2022 -2.0230 -8.9137 25.5259 10.2781 47.5425 17.2878 -2.5498 -9.9279 28.7435 12.7587 4.6212 -1.3605 2.3701 6.3052 -8.5107 -4.7571 2.1626 -7.2552 -31.9111 -8.1011 13.2000 37.1180 -17.8285 0.6168 18.5408 -10.6085 4.7964 0.0000 -0.0000 0.0000 -87.5116 19.7472 18.8052 16.3173 -25.9490 -3.7837 0.0000 -0.0000 -30.3251 0.0000 -0.0000 0.0000 86.4099 -6.9010 14.5038 -15.4064 24.7091 -3.3940 0.0000 -0.0000 22.4018
-0.2550 16.1573 0.1118 -14.1278 0.0494 11.1318 0.0000 0.0000 0.0000 -27.5495 -6.7250 -43.4836 7.3875 15.6497 50.3250 0.0056 -2.8834 -2.3312 2.1993 -9.2695 -26.6420 0.0000 0.0000 0.0000 41.0045 -10.4206 -24.6297 -2.0816 -9.0339 25.9016 11.1299 48.6020 22.5738 -3.1757 -10.9741 32.1927 12.8174 4.5023 -2.0515 2.4275 6.0226 -8.7611 -4.6753 2.0024 -7.1832 -32.1489 -8.0708 13.0095 36.9054 -17.7660 0.7935 18.4744 -10.5464 4.8504 0.0000 0.0000 0.0000 -86.4200 19.5659 20.6959 16.1898 -25.7773 -3.7281 0.0000 0.0000 -30.4637 0.0000 0.0000 0.0000 87.5107 -7.7640 14.6280 -15.4888 24.8227 -3.4285 0.0000 0.0000 21.8604
-0.5174 16.1316 0.2424 -13.9479 0.1112 12.0277 0.0000 0.0000 0.0000 -30.2868 -4.5099 -41.3118 5.9238 14.3540 44.6750 0.0093 -3.5324 -2.8900 1.8581 -8.5640 -24.4407 0.0000 0.0000 0.0000 42.2224 -12.2934 -26.1763 -2.1451 -9.1620 26.3034 11.6974 49.4474 28.1302 -3.8302 -11.9310 35.4883 12.7607 4.4471 -3.0390 2.3623 5.7645 -8.9816 -4.6419 1.8740 -6.8972 -32.3589 -8.0284 12.8722 36.8863 -17.6747 0.7638 18.5130 -10.4880 4.8517 0.0000 0.0000 0.0000 -85.0861 19.2146 22.2246 16.3438 -25.9845 -3.7953 0.0000 0.0000 -31.1601 0.0000 0.0000 0.0000 88.9462 -8.7379 14.5503 -15.6185 25.0007 -3.4832 0.0000 0.0000 21.4582
-0.8005 16.1109 0.3912 -13.7278 0.0405 12.8342 0.0000 0.0000 0.0000 -31.9276 -1.9879 -39.3886 4.6916 13.0278 39.4726 0.0042 -4.7622 -3.4817 1.4727 -7.6684 -21.7113 0.0000 0.0000 0.0000 43.5086 -14.4618 -27.4744 -2.1604 -9.1924 26.3990 11.4529 49.6919 34.8637 -4.5271 -12.8306 38.7374 12.4246 4.4499 -4.0928 2.3066 5.5728 -9.1076 -4.4456 1.8118 -6.4766 -32.5645 -7.9851 12.7265 37.0081 -17.5691 0.6115 18.6271 -10.4310 4.8355 0.0000 0.0000 0.0000 -83.8030 18.6713 22.9568 16.7215 -26.4891 -3.9623 0.0000 0.0000 -32.1427 0.0000 0.0000 0.0000 90.3947 -9.7040 14.6596 -15.6638 25.0627 -3.5023 0.0000 0.0000 21.1201
-1.0839 16.0890 0.5301 -13.2595 -0.0724 13.8252 0.0000 0.0000 0.0000 -32.3695 -0.5404 -38.0938 3.9039 12.0315 35.8433 0.0178 -7.2887 -5.5051 0.7400 -5.4956 -15.3275 0.0000 0.0000 0.0000 44.7332 -16.9057 -29.4168 -2.2194 -9.3088 26.7661 10.0546 49.4638 42.6857 -5.2539 -13.6641 41.9083 11.9507 4.4859 -5.0499 2.0705 5.4539 -9.3555 -4.3784 1.7717 -6.2273 -32.6669 -7.9499 12.5834 37.1870 -17.4957 0.5190 18.7499 -10.3973 4.8451 0.0000 0.0000 0.0000 -82.6080 18.1734 23.6976 17.5248 -27.5445 -4.3273 0.0000 0.0000 -33.8124 0.0000 0.0000 0.0000 91.7598 -10.5708 15.1951 -15.5227 24.8691 -3.4428 0.0000 0.0000 21.0797
-1.3916 16.0546 0.6520 -12.4464 -0.1741 14.6480 0.0000 0.0000 0.0000 -32.0776 0.0667 -37.1329 3.5146 11.4848 33.9329 -0.0302 -12.3406 -8.2429 0.3083 -3.5698 -9.8694 0.0000 0.0000 0.0000 45.4673 -18.3788 -31.0989 -2.3620 -9.5825 27.6352 8.3613 48.9733 47.7817 -5.7673 -14.1990 44.0404 10.9017 4.4025 -5.6140 1.7809 5.2672 -9.5896 -4.0884 1.7262 -6.2261 -32.6797 -7.9343 12.3341 37.2917 -17.4199 0.5402 18.8075 -10.3477 4.8841 0.0000 0.0000 0.0000 -81.6472 17.6615 23.8737 18.5665 -28.8764 -4.8197 0.0000 0.0000 -35.6253 0.0000 0.0000 0.0000 92.8078 -11.0883 15.8315 -15.2178 24.4487 -3.3156 0.0000 0.0000 22.1733
-1.7202 16.0034 0.7529 -11.5455 -0.3666 14.9078 0.0000 0.0000 0.0000 -31.1553 -0.3725 -36.0642 3.3737 11.2768 33.2191 -0.0477 -16.3787 -11.0171 0.2227 -3.0380 -8.3845 0.0000 0.0000 0.0000 45.8309 -18.7929 -31.5445 -2.4829 -9.8067 28.3531 8.2536 49.2258 48.8744 -5.9318 -14.3619 44.7073 9.6046 4.2202 -5.4295 1.4941 5.0804 -9.5884 -3.7050 1.7115 -6.4043 -32.5002 -8.0197 11.8927 37.3310 -17.3877 0.5532 18.7553 -10.2940 4.9455 0.0000 0.0000 0.0000 -80.9265 16.8957 23.4434 19.6727 -30.2459 -5.3655 0.0000 0.0000 -37.2850 0.0000 0.0000 0.0000 93.2111 -10.9721 16.8853 -14.7963 23.8616 -3.1431 0.0000 0.0000 24.4203
-2.0568 15.9702 0.8379 -10.6708 -0.6727 14.8066 0.0000 0.0000 0.0000 -30.2133 -1.2116 -35.3475 3.4726 11.4234 33.7216 0.1553 -17.6437 -13.8183 0.2370 -3.1329 -8.6490 0.0000 0.0000 0.0000 45.9512 -18.5536 -30.7594 -2.4627 -9.7697 28.2342 8.5262 49.2138 47.9307 -5.8958 -14.3266 44.5619 8.3589 4.1186 -4.7922 1.1498 5.0540 -9.3833 -3.4278 1.7882 -6.5890 -32.1530 -8.2766 11.2720 37.3982 -17.5650 0.6225 18.6204 -10.3301 5.1296 0.0000 0.0000 0.0000 -80.2785 15.7802 22.7424 20.6208 -31.3830 -5.8512 0.0000 0.0000 -38.0725 0.0000 0.0000 0.0000 92.9622 -10.3909 18.1186 -14.4446 23.3667 -3.0022 0.0000 0.0000 27.6677
-2.4271 15.9837 0.9360 -9.8118 -1.0036 14.5660 0.0000 0.0000 0.0000 -29.5091 -1.8082 -35.2943 3.7957 11.8834 35.3208 0.5199 -15.8956 -15.9783 0.2817 -3.4135 -9.4321 0.0000 0.0000 0.0000 46.1804 -18.3084 -28.8245 -2.2003 -9.2714 26.6482 8.2784 48.4165 46.4042 -5.6732 -14.1040 43.6555 6.7578 4.0833 -4.1941 0.8148 5.0919 -9.1693 -2.9399 1.9215 -6.7660 -31.6600 -8.6560 10.6017 37.4766 -18.0222 1.0157 18.4114 -10.5071 5.5121 0.0000 0.0000 0.0000 -79.4469 14.7862 23.0030 21.6552 -32.5852 -6.3992 0.0000 0.0000 -39.2386 0.0000 0.0000 0.0000 92.6851 -10.0591 18.6008 -14.4031 23.3080 -2.9858 0.0000 0.0000 30.5636
-2.7687 15.9885 1.0338 -8.8675 -1.4064 14.9992 0.0000 0.0000 0.0000 -28.6535 -4.3609 -35.0739 4.0466 12.2221 36.5224 0.7685 -12.9759 -16.9077 0.2334 -3.1092 -8.5828 0.0000 0.0000 0.0000 46.3717 -17.6710 -27.9795 -2.0616 -8.9933 25.7742 7.7731 47.3209 45.0017 -5.4885 -13.9137 42.8927 5.6169 4.2684 -4.1411 0.2512 5.3284 -9.2906 -2.9128 2.0914 -6.9365 -31.2823 -9.0116 10.2131 37.6762 -18.6069 1.4322 18.2959 -10.7845 5.9320 0.0000 0.0000 0.0000 -78.4788 14.0548 24.2193 22.7036 -33.7631 -6.9729 0.0000 0.0000 -40.4034 0.0000 0.0000 0.0000 92.4351 -10.0864 18.2292 -14.5036 23.4501 -3.0256 0.0000 0.0000 31.5454
-3.0910 15.9773 1.1310 -8.0880 -1.6816 16.1626 0.0000 0.0000 0.0000 -27.5849 -7.3801 -35.5855 4.2780 12.5214 37.6025 0.8676 -10.8282 -17.1741 0.1208 -2.2404 -6.1706 0.0000 0.0000 0.0000 46.8068 -16.4116 -28.2609 -2.0591 -8.9882 25.7583 7.1163 45.9699 43.6265 -5.4334 -13.8558 42.6630 5.0158 4.5167 -4.7740 -0.4076 5.5648 -9.6998 -3.2380 2.2035 -6.9849 -30.9704 -9.1928 10.2300 38.0901 -18.9939 1.4498 18.3774 -11.0167 6.1253 0.0000 0.0000 0.0000 -77.4964 13.5470 25.6989 23.6806 -34.8247 -7.5234 0.0000 0.0000 -40.8472 0.0000 0.0000 0.0000 92.0843 -10.1089 17.7288 -14.6922 23.7156 -3.1011 0.0000 0.0000 30.5672
-3.4707 15.9751 1.2496 -7.3618 -2.3023 16.6720 0.0000 0.0000 0.0000 -26.6336 -8.0700 -36.2950 4.5813 12.8962 38.9812 0.9076 -10.8108 -17.5131 0.0150 -0.7916 -2.1756 0.0000 0.0000 0.0000 47.1182 -15.0527 -26.8352 -1.9037 -8.6626 24.7455 6.8718 44.7674 41.0612 -5.2124 -13.6190 41.7323 3.5573 4.7114 -5.1115 -0.8388 5.7812 -9.8646 -2.8685 2.3890 -7.0371 -30.5792 -9.3285 10.3761 38.5138 -19.2292 1.1243 18.4708 -11.1830 6.1274 0.0000 0.0000 0.0000 -76.6837 13.1657 26.8492 24.4904 -35.6785 -7.9908 0.0000 0.0000 -40.5713 0.0000 0.0000 0.0000 91.5145 -9.9311 17.2295 -15.0369 24.1975 -3.2410 0.0000 0.0000 29.4212
-3.8778 15.9810 1.3709 -6.1763 -2.8820 16.7647 0.0000 0.0000 0.0000 -26.5600 -6.7667 -36.7727 4.7448 13.0905 39.7081 0.9542 -12.2076 -18.2197 0.0112 -0.6848 -1.8820 0.0000 0.0000 0.0000 46.8574 -13.6239 -24.7523 -1.7038 -8.2197 23.3833 6.6939 43.4378 37.6192 -4.7269 -13.0695 39.6293 1.3470 4.7070 -5.1231 -1.3088 5.7564 -9.9190 -2.1529 2.5093 -7.2513 -30.0968 -9.4266 10.3989 38.8820 -19.3543 0.8331 18.5297 -11.2804 6.0970 0.0000 0.0000 0.0000 -76.0222 13.1429 27.7606 25.1889 -36.3965 -8.4018 0.0000 0.0000 -40.5580 0.0000 0.0000 0.0000 90.8944 -9.6308 16.8325 -15.5006 24.8389 -3.4335 0.0000 0.0000 27.4496
-4.2747 15.9896 1.5005 -4.5412 -2.8864 16.4982 0.0000 0.0000 0.0000 -27.0680 -5.5099 -36.4005 4.7605 13.1089 39.7776 0.9756 -13.7383 -18.8034 0.0342 -1.1941 -3.2830 0.0000 0.0000 0.0000 45.9246 -12.5072 -22.6857 -1.5337 -7.8186 22.1645 6.7881 42.5504 33.5956 -3.6886 -11.7340 34.7974 -1.0380 4.3462 -4.9818 -1.7757 5.2491 -9.8723 -1.3417 2.4049 -7.4823 -29.5779 -9.4243 10.3061 39.0141 -19.2900 0.7472 18.4937 -11.2537 6.0214 0.0000 0.0000 0.0000 -75.8203 13.5545 27.8706 25.4806 -36.6912 -8.5754 0.0000 0.0000 -40.6930 0.0000 0.0000 0.0000 90.0862 -9.2835 16.7597 -16.0839 25.6343 -3.6822 0.0000 0.0000 24.9553
-4.6148 15.9953 1.6280 -2.8361 -2.4183 16.7487 0.0000 0.0000 0.0000 -27.6003 -5.6051 -36.1623 4.7549 13.1023 39.7526 0.9444 -14.8464 -18.9119 0.0288 -1.0963 -3.0140 0.0000 0.0000 0.0000 44.2812 -10.5664 -21.4111 -1.4546 -7.6233 21.5757 7.3211 42.5879 28.7129 -1.7469 -8.3178 23.6835 -2.7982 3.8198 -5.4281 -2.2118 4.4978 -9.9716 -0.7936 2.1256 -7.4652 -29.1306 -9.3442 10.1579 38.8666 -19.1087 0.9222 18.3527 -11.1382 5.9416 0.0000 0.0000 0.0000 -76.2836 14.1811 27.3158 25.1189 -36.3253 -8.3602 0.0000 0.0000 -41.0023 0.0000 0.0000 0.0000 89.0834 -8.8889 16.4384 -16.7127 26.4775 -3.9584 0.0000 0.0000 23.5553
-4.9379 15.9874 1.7497 -1.7643 -1.8817 17.1448 0.0000 0.0000 0.0000 -27.4576 -5.4737 -36.5022 4.8817 13.2493 40.3091 0.8928 -16.3289 -19.0568 0.0141 -0.7675 -2.1094 0.0000 0.0000 0.0000 42.1648 -6.4266 -19.1053 -1.3537 -7.3652 20.8018 7.0424 41.4681 24.0723 -0.0417 -1.3188 3.6264 -3.9604 3.3216 -6.1346 -2.3032 3.8267 -10.0766 -0.2023 1.8566 -7.2605 -28.8503 -9.2437 10.0246 38.7147 -18.9368 1.1527 18.2495 -11.0279 5.9000 0.0000 0.0000 0.0000 -77.3253 14.5323 26.2551 23.7109 -34.8570 -7.5407 0.0000 0.0000 -40.2217 0.0000 0.0000 0.0000 87.8941 -8.3631 15.8859 -17.2725 27.2156 -4.2112 0.0000 0.0000 22.5156
-5.2372 15.9829 1.8572 -1.5559 -1.7156 17.1913 0.0000 0.0000 0.0000 -26.4353 -4.8654 -36.8481 5.1095 13.5061 41.2938 0.8410 -17.7362 -19.2497 0.0007 -0.1768 -0.4856 0.0000 0.0000 0.0000 39.8010 -0.2822 -15.1798 -1.3443 -7.3406 20.7286 6.3976 39.7944 14.6177 -1.0278 6.4489 -18.0927 -4.2503 3.0793 -6.5678 -2.0415 3.5363 -10.0565 0.2584 1.7391 -7.0239 -28.7931 -9.1547 9.9433 38.5904 -18.7740 1.2428 18.2035 -10.9277 5.8462 0.0000 0.0000 0.0000 -78.8387 14.5330 25.0750 21.6209 -32.5460 -6.3807 0.0000 0.0000 -38.9077 0.0000 0.0000 0.0000 86.7706 -7.7445 14.4732 -17.6961 27.7663 -4.4067 0.0000 0.0000 22.0851
-5.4966 15.9779 1.9440 -1.9151 -2.1655 16.7959 0.0000 0.0000 0.0000 -24.9642 -4.5599 -36.5828 5.3380 13.7546 42.2633 1.0459 -16.8950 -20.3538 0.0227 -0.9737 -2.6765 0.0000 0.0000 0.0000 37.3480 5.0972 -11.7631 -1.7039 -8.2199 23.3841 5.0975 38.4113 1.7346 -3.2258 11.0519 -32.4550 -3.6187 3.1229 -6.5357 -1.6379 3.6228 -9.9367 0.3354 1.7600 -6.8888 -28.7141 -9.0623 9.8367 38.2911 -18.5392 1.3124 18.0638 -10.7720 5.7316 0.0000 0.0000 0.0000 -80.4581 14.6248 24.1516 19.5758 -30.1279 -5.3168 0.0000 0.0000 -37.4587 0.0000 0.0000 0.0000 85.7218 -7.1648 12.7456 -18.0154 28.1769 -4.5565 0.0000 0.0000 21.9723
-5.7304 15.9789 2.0262 -2.5935 -2.6859 16.1056 0.0000 0.0000 0.0000 -23.2566 -5.0966 -35.4126 5.4909 13.9162 42.9028 1.4253 -13.6767 -22.0410 0.2084 -2.9395 -8.1105 0.0000 0.0000 0.0000 34.5722 7.1943 -10.1088 -2.4262 -9.7025 28.0186 4.2988 38.0949 -4.3109 -3.2074 11.0235 -32.3592 -2.2141 3.2662 -6.1851 -1.1890 3.8386 -9.7142 0.0182 1.8004 -6.7683 -28.7333 -8.9877 9.6883 38.0175 -18.3455 1.4024 17.9488 -10.6360 5.6655 0.0000 0.0000 0.0000 -81.9564 14.9067 23.7990 17.9936 -28.1490 -4.5462 0.0000 0.0000 -35.5754 0.0000 0.0000 0.0000 84.7895 -6.7383 11.7023 -18.4027 28.6697 -4.7408 0.0000 0.0000 20.4685
-5.9481 16.0099 2.1159 -3.4536 -2.8396 15.6815 0.0000 0.0000 0.0000 -21.2716 -6.6774 -33.7521 5.4979 13.9235 42.9317 1.6790 -10.1627 -23.2812 0.3710 -3.9124 -10.8303 0.0000 0.0000 0.0000 30.9969 7.5959 -9.9101 -3.3833 -11.2911 33.2679 3.2910 36.7689 -8.9911 -3.1823 10.9844 -32.2274 -0.2860 3.3257 -5.9663 -0.7306 3.9282 -9.5731 -0.5752 1.7394 -6.6249 -28.7033 -8.9128 9.6070 37.7534 -18.1559 1.4450 17.8315 -10.5099 5.5715 0.0000 0.0000 0.0000 -83.1723 15.4730 24.3771 17.0951 -26.9830 -4.1304 0.0000 0.0000 -33.7447 0.0000 0.0000 0.0000 83.9151 -6.4485 11.1279 -18.7681 29.1296 -4.9175 0.0000 0.0000 18.9109
-6.1675 16.0703 2.2174 -3.7370 -2.7623 15.3769 0.0000 0.0000 0.0000 -20.0259 -8.6256 -31.4461 5.2298 13.6380 41.8061 1.7829 -6.7632 -23.9792 0.4849 -4.4652 -12.3893 0.0000 0.0000 0.0000 25.8936 7.3940 -10.8670 -4.5446 -12.8518 38.8163 1.8726 33.3119 -13.3939 -3.6282 11.6485 -34.4997 1.1050 3.3151 -5.6448 -0.4829 3.9171 -9.5396 -1.1026 1.6510 -6.6905 -28.6926 -8.8618 9.7272 37.6008 -18.0655 1.3986 17.7728 -10.4621 5.4734 0.0000 0.0000 0.0000 -83.8818 16.1854 26.4881 16.8327 -26.6367 -4.0120 0.0000 0.0000 -32.7516 0.0000 0.0000 0.0000 83.2092 -6.4494 10.7066 -19.1330 29.5836 -5.0963 0.0000 0.0000 18.1184
-6.4150 16.1466 2.3274 -3.2086 -2.9217 14.8841 0.0000 0.0000 0.0000 -19.8554 -9.8745 -28.5714 4.7316 13.0751 39.6501 1.7515 -4.0009 -24.0663 0.5420 -4.7170 -13.1031 0.0000 0.0000 0.0000 19.4088 7.5168 -12.2138 -5.7016 -14.1328 43.7722 0.6852 28.3247 -15.8345 -3.6389 11.6637 -34.5524 1.1724 3.2862 -4.9651 -0.3850 3.9087 -9.4968 -1.0751 1.6473 -7.0335 -28.7695 -8.8482 9.9464 37.5325 -18.0607 1.2636 17.7651 -10.4725 5.3891 0.0000 0.0000 0.0000 -84.1981 16.7607 29.6933 16.9546 -26.7979 -4.0669 0.0000 0.0000 -32.4659 0.0000 0.0000 0.0000 82.7790 -6.6847 10.0107 -19.4192 29.9362 -5.2384 0.0000 0.0000 18.3255
-6.6745 16.2181 2.4354 -2.1590 -3.2956 14.3316 0.0000 0.0000 0.0000 -20.3778 -10.3309 -25.7326 4.1733 12.3876 37.1171 1.6483 -1.8776 -23.7540 0.6185 -5.0329 -14.0025 0.0000 0.0000 0.0000 12.0637 7.6323 -14.1095 -6.5026 -14.8984 46.9672 0.2469 24.5840 -15.6453 -3.1058 10.8645 -31.8241 0.4695 3.3322 -4.0458 -0.4152 4.0033 -9.4159 -0.7712 1.7464 -7.5174 -28.8580 -8.9079 10.1933 37.4587 -18.1081 0.9431 17.7359 -10.5074 5.2703 0.0000 0.0000 0.0000 -84.3438 16.9200 32.9706 17.1792 -27.0934 -4.1686 0.0000 0.0000 -32.4714 0.0000 0.0000 0.0000 82.6734 -7.0889 8.8665 -19.5621 30.1111 -5.3099 0.0000 0.0000 18.7944
-6.9506 16.2706 2.5431 -1.1553 -3.5469 13.8684 0.0000 0.0000 0.0000 -20.7624 -9.8636 -23.5646 3.7088 11.7624 34.8967 1.5610 -1.1375 -23.2951 0.6507 -5.1601 -14.3657 0.0000 0.0000 0.0000 5.0824 7.1705 -16.4178 -6.6244 -15.0072 47.4389 0.0953 21.0337 -14.0509 -2.6892 10.1741 -29.5424 -0.2936 3.3612 -3.1506 -0.4375 4.0583 -9.3397 -0.4266 1.8320 -8.0056 -28.9244 -8.9838 10.3446 37.3396 -18.1511 0.6658 17.6718 -10.5267 5.1713 0.0000 0.0000 0.0000 -84.4643 16.7806 35.3762 17.3873 -27.3655 -4.2638 0.0000 0.0000 -32.6154 0.0000 0.0000 0.0000 82.8313 -7.5777 7.5776 -19.4059 29.9199 -5.2318 0.0000 0.0000 18.9750
-7.2429 16.3254 2.6656 -0.7141 -3.4322 13.8011 0.0000 0.0000 0.0000 -20.3339 -8.8378 -22.1329 3.3045 11.1724 32.8634 1.5012 -1.3527 -22.7750 0.7594 -5.5655 -15.5287 0.0000 0.0000 0.0000 -0.4242 6.4849 -18.6497 -5.9786 -14.4076 44.8959 0.0607 15.7667 -10.4228 -2.3821 9.6202 -27.7554 -0.3463 3.4052 -2.6883 -0.4196 4.1275 -9.3292 -0.4096 1.8724 -8.2683 -29.0362 -9.0985 10.3836 37.2975 -18.2534 0.4192 17.6377 -10.5713 5.1432 0.0000 0.0000 0.0000 -84.4157 16.4136 37.0438 17.5817 -27.6183 -4.3536 0.0000 0.0000 -33.0739 0.0000 0.0000 0.0000 83.4412 -8.0359 5.5801 -18.9143 29.3120 -4.9888 0.0000 0.0000 19.5815
-7.5818 16.3941 2.8104 -0.5729 -2.9143 13.8544 0.0000 0.0000 0.0000 -19.3440 -7.2479 -20.7667 2.8557 10.4577 30.4719 1.4394 -2.1931 -22.0774 0.9680 -6.2641 -17.5526 0.0000 0.0000 0.0000 -4.2966 6.2882 -19.7857 -4.7477 -13.0939 39.7209 -0.0143 8.2415 -6.0618 -2.6031 10.0230 -29.0512 -0.4442 3.3452 -2.4495 -0.2809 4.0585 -9.3398 -0.2221 1.8525 -8.4374 -29.1480 -9.2099 10.4120 37.2698 -18.3443 0.1562 17.6121 -10.6105 5.1106 0.0000 0.0000 0.0000 -84.2474 15.9296 38.0333 17.7415 -27.8249 -4.4279 0.0000 0.0000 -33.6845 0.0000 0.0000 0.0000 84.2525 -8.4457 3.2334 -18.1323 28.3262 -4.6118 0.0000 0.0000 20.7066
-7.9450 16.4479 2.9777 -0.5545 -1.8531 13.8794 0.0000 0.0000 0.0000 -18.0409 -6.2491 -19.2257 2.4525 9.7511 28.1744 1.3758 -2.9529 -21.4046 1.1409 -6.7829 -19.0738 0.0000 0.0000 0.0000 -7.2085 6.9079 -19.4108 -3.2739 -11.1258 32.7054 -0.0383 1.1634 -3.4740 -2.8206 10.3989 -30.2783 -0.3427 3.1102 -2.3647 -0.0997 3.7597 -9.3483 -0.0783 1.7059 -8.5004 -29.3076 -9.2850 10.4410 37.2327 -18.4228 0.0130 17.6013 -10.6443 5.1098 0.0000 0.0000 0.0000 -83.9682 15.4333 38.6519 17.8962 -28.0240 -4.5004 0.0000 0.0000 -34.2630 0.0000 0.0000 0.0000 85.0981 -8.7901 0.5545 -17.1074 26.9991 -4.1360 0.0000 0.0000 22.7430
-8.3347 16.4830 3.1687 -0.7746 -0.3272 14.0331 0.0000 0.0000 0.0000 -16.2408 -5.7439 -17.9532 2.1477 9.1671 26.3195 1.3233 -3.5252 -20.8729 1.4059 -7.5001 -21.2057 0.0000 0.0000 0.0000 -9.1225 8.0661 -18.1877 -1.9415 -8.7431 24.9950 0.0251 -2.8959 -1.8124 -2.5497 9.9278 -28.7432 0.0836 2.7531 -2.6512 0.0983 3.2938 -9.4166 -0.0704 1.4496 -8.3909 -29.4613 -9.3279 10.5296 37.2405 -18.5197 -0.0227 17.6219 -10.6988 5.1401 0.0000 0.0000 0.0000 -83.5336 14.9379 38.8906 17.9926 -28.1477 -4.5458 0.0000 0.0000 -34.2277 0.0000 0.0000 0.0000 86.0149 -9.1481 -2.3710 -16.0613 25.6037 -3.6724 0.0000 0.0000 25.4004
-8.7774 16.4923 3.3722 -1.0235 1.5448 14.2985 0.0000 0.0000 0.0000 -14.0651 -5.5287 -17.0831 1.9270 8.7123 24.8993 1.2784 -4.1621 -20.4062 1.7734 -8.3772 -23.8659 0.0000 0.0000 0.0000 -10.4110 10.3760 -16.2700 -0.9770 -6.2923 17.6350 0.0148 -3.6093 1.7631 -2.2228 9.3156 -26.7876 0.2727 2.2593 -3.2828 0.3287 2.6268 -9.5227 0.1196 1.1104 -8.1405 -29.5206 -9.2995 10.7473 37.3054 -18.5387 -0.0987 17.6835 -10.7331 5.1019 0.0000 0.0000 0.0000 -83.0383 14.4143 38.5812 18.0494 -28.2203 -4.5726 0.0000 0.0000 -33.7148 0.0000 0.0000 0.0000 86.9668 -9.5820 -4.8715 -15.1911 24.4116 -3.3045 0.0000 0.0000 27.7497
-9.2787 16.4866 3.5805 -1.0230 3.7073 14.5556 0.0000 0.0000 0.0000 -11.8602 -5.6329 -16.2980 1.7228 8.2632 23.5163 1.2040 -4.7202 -19.7150 2.1678 -9.2072 -26.4455 0.0000 0.0000 0.0000 -11.6321 15.2744 -13.2565 -0.4068 -4.0946 11.3431 -0.1486 -2.0448 6.8594 -2.1772 9.2258 -26.5042 -0.0330 1.6970 -4.0032 0.4559 1.8552 -9.6205 0.4702 0.7514 -7.8437 -29.6311 -9.2499 11.1011 37.5267 -18.5901 -0.2323 17.8458 -10.8100 5.0653 0.0000 0.0000 0.0000 -82.2708 13.8429 38.4506 18.2829 -28.5179 -4.6835 0.0000 0.0000 -33.9466 0.0000 0.0000 0.0000 88.0217 -10.1540 -6.7865 -14.6374 23.6385 -3.0791 0.0000 0.0000 29.1618
-9.8395 16.4622 3.7924 -0.7817 5.9524 14.5329 0.0000 0.0000 0.0000 -9.7013 -6.0136 -15.2051 1.5266 7.8013 22.1123 1.0993 -4.8446 -18.7969 2.5691 -9.9625 -28.8554 0.0000 0.0000 0.0000 -11.4135 17.8467 -11.3552 -0.2515 -3.2266 8.9104 -0.1954 0.1826 8.4180 -2.9483 10.6108 -30.9783 -0.9078 1.0620 -4.4481 0.5278 0.9985 -9.6476 1.0640 0.3924 -7.6297 -29.7762 -9.2006 11.4408 37.6907 -18.6469 -0.3028 17.9858 -10.8845 5.0465 0.0000 0.0000 0.0000 -81.3309 13.2711 37.7662 18.5540 -28.8608 -4.8137 0.0000 0.0000 -34.2434 0.0000 0.0000 0.0000 89.0822 -10.8845 -7.7059 -14.3525 23.2364 -2.9658 0.0000 0.0000 29.1166
-10.4320 16.4183 3.9975 -0.4468 8.1249 14.2298 0.0000 0.0000 0.0000 -7.5641 -6.7446 -13.9763 1.3807 7.4353 21.0116 0.9623 -4.4799 -17.5792 2.9551 -10.6219 -31.0152 0.0000 0.0000 0.0000 -9.6050 15.9789 -12.2962 -0.5464 -4.7356 13.1559 0.0085 2.9074 3.6197 -4.7017 13.0397 -39.5174 -1.8071 0.4913 -4.5469 0.4659 0.2401 -9.5726 1.5178 0.0818 -7.4816 -29.9178 -9.1497 11.7783 37.8054 -18.6602 -0.4414 18.1042 -10.9321 4.9848 0.0000 0.0000 0.0000 -80.2860 12.6930 36.9183 19.0246 -29.4492 -5.0429 0.0000 0.0000 -34.7668 0.0000 0.0000 0.0000 90.1365 -11.6885 -6.8510 -14.4854 23.4244 -3.0184 0.0000 0.0000 25.2277
-11.0385 16.3820 4.2049 -0.2163 10.1128 13.6082 0.0000 0.0000 0.0000 -5.4119 -7.2474 -12.1877 1.1677 6.8596 19.3000 0.7595 -3.8380 -15.6154 3.3183 -11.1933 -32.9345 0.0000 0.0000 0.0000 -6.9185 11.5678 -13.3406 -0.8555 -5.8987 16.4909 0.1425 7.4671 -0.8361 -4.9076 13.2790 -40.4221 -2.4846 -0.0092 -4.3233 0.3693 -0.4189 -9.4065 1.8074 -0.1937 -7.4042 -30.1925 -9.0421 12.0736 37.8886 -18.5902 -0.5483 18.2514 -10.9320 4.9177 0.0000 0.0000 0.0000 -79.3522 12.3592 35.5243 19.7187 -30.3020 -5.3887 0.0000 0.0000 -35.3952 0.0000 0.0000 0.0000 90.9424 -12.4867 -4.1765 -15.2711 24.5224 -3.3376 0.0000 0.0000 19.5932
-11.6415 16.3868 4.4068 -0.6254 11.8091 12.7991 0.0000 0.0000 0.0000 -2.7254 -7.9716 -10.0275 0.9264 6.1319 17.1675 0.4981 -2.5485 -12.6998 3.5622 -11.5538 -34.1711 0.0000 0.0000 0.0000 -3.8085 9.0495 -12.6813 -0.9403 -6.1762 17.2967 0.1766 10.7801 -4.3980 -4.7648 13.1140 -39.7967 -2.3991 -0.3620 -3.9466 0.4442 -0.8723 -9.2522 1.8500 -0.4129 -7.4278 -30.5727 -8.9034 12.2583 37.7855 -18.4545 -0.5047 18.3282 -10.8721 4.8692 0.0000 0.0000 0.0000 -78.9016 12.4006 33.3688 20.5822 -31.3374 -5.8311 0.0000 0.0000 -35.8134 0.0000 0.0000 0.0000 90.9939 -12.9389 -0.9200 -16.1082 25.6671 -3.6927 0.0000 0.0000 18.3076
-12.2488 16.4066 4.6001 -2.0806 12.9450 12.1061 0.0000 0.0000 0.0000 1.0737 -8.7239 -9.0553 0.8689 5.9434 16.6203 0.2756 -1.0535 -9.6009 3.7102 -11.7645 -34.9039 0.0000 0.0000 0.0000 0.3311 8.5080 -12.4513 -1.0544 -6.5293 18.3280 0.0620 12.2922 -7.7544 -4.4847 12.7789 -38.5464 -1.3955 -0.4103 -3.9916 0.7374 -0.9053 -9.2011 1.5955 -0.4861 -7.3452 -30.8216 -8.7896 12.5367 37.6127 -18.3618 -0.4448 18.3378 -10.8363 4.7978 0.0000 0.0000 0.0000 -78.7963 12.7171 30.8630 21.4975 -32.4044 -6.3144 0.0000 0.0000 -36.3974 0.0000 0.0000 0.0000 90.5796 -12.7897 1.3625 -16.2926 25.9157 -3.7729 0.0000 0.0000 21.7205
-12.8599 16.4437 4.7835 -3.4160 13.0514 11.7587 0.0000 0.0000 0.0000 4.5222 -8.9599 -8.7843 0.8965 6.0347 16.8852 0.0883 0.8339 -5.9846 3.7035 -11.7551 -34.8709 0.0000 0.0000 0.0000 4.3477 8.9635 -13.3709 -1.3090 -7.2473 20.4502 -0.1429 12.6427 -10.6455 -4.1082 12.3030 -36.8126 -0.8639 -0.1506 -4.5127 0.9999 -0.5424 -9.1813 1.5588 -0.3371 -7.0370 -31.0187 -8.7071 12.8183 37.4542 -18.3393 -0.3198 18.3317 -10.8384 4.7680 0.0000 0.0000 0.0000 -79.0681 13.0757 28.0588 22.2891 -33.3022 -6.7439 0.0000 0.0000 -37.1497 0.0000 0.0000 0.0000 89.7419 -12.1036 3.6914 -15.8536 25.3218 -3.5831 0.0000 0.0000 24.0622
-13.4540 16.4961 4.9368 -4.4732 12.1909 11.3759 0.0000 0.0000 0.0000 7.1700 -8.5950 -8.7847 1.0126 6.4026 17.9570 -0.0428 3.6967 -1.8326 3.3581 -11.2534 -33.1392 0.0000 0.0000 0.0000 7.9240 9.2984 -14.5199 -1.5569 -7.8748 22.3345 -0.2220 13.6884 -12.1092 -3.6245 11.6433 -34.4814 -0.5160 0.3980 -4.7233 1.0215 0.1942 -9.1293 1.3740 0.0059 -6.8816 -31.0005 -8.6785 12.9864 37.3360 -18.3749 -0.1088 18.2820 -10.8652 4.7878 0.0000 0.0000 0.0000 -79.3528 13.4478 25.3172 22.8622 -33.9378 -7.0612 0.0000 0.0000 -37.8292 0.0000 0.0000 0.0000 88.9450 -11.2083 5.8959 -15.2118 24.4403 -3.3131 0.0000 0.0000 25.1385
-14.0248 16.5569 5.0551 -5.5943 11.1663 10.6860 0.0000 0.0000 0.0000 9.4048 -7.9942 -9.7070 1.3514 7.3593 20.7843 -0.1272 8.0251 2.3563 2.5212 -9.8764 -28.5775 0.0000 0.0000 0.0000 11.3880 9.1271 -14.6360 -1.5862 -7.9451 22.5474 -0.0984 15.8829 -12.1608 -3.1248 10.8943 -31.9244 0.0465 0.9746 -4.3764 1.0780 0.9882 -8.9318 1.1032 0.3732 -6.8769 -31.0262 -8.6741 12.9448 37.3038 -18.3830 0.0386 18.2707 -10.8646 4.8381 0.0000 0.0000 0.0000 -79.7593 13.7417 23.0128 23.1961 -34.3026 -7.2485 0.0000 0.0000 -38.1010 0.0000 0.0000 0.0000 88.0118 -10.1532 8.3017 -14.7771 23.8346 -3.1353 0.0000 0.0000 25.3995
-14.5577 16.6113 5.1358 -6.8243 10.6694 9.8782 0.0000 0.0000 0.0000 11.4082 -9.0611 -11.9012 2.0628 8.9957 25.7817 -0.3290 14.8617 6.2096 1.3569 -7.3735 -20.8267 0.0000 0.0000 0.0000 14.9218 7.8943 -14.0119 -1.4163 -7.5264 21.2847 0.1618 18.3692 -11.4015 -2.5991 10.0160 -29.0284 1.2552 1.3836 -3.5848 1.0848 1.5781 -8.7054 0.4105 0.5965 -7.0620 -31.0790 -8.6638 12.8263 37.3889 -18.3522 0.0760 18.3261 -10.8464 4.8787 0.0000 0.0000 0.0000 -79.9593 14.1081 21.5853 23.3342 -34.4522 -7.3265 0.0000 0.0000 -38.0895 0.0000 0.0000 0.0000 87.2298 -9.0624 10.4962 -14.6350 23.6352 -3.0781 0.0000 0.0000 25.7847
-15.0271 16.6604 5.1875 -7.6572 10.5497 8.8071 0.0000 0.0000 0.0000 12.3236 -11.1918 -15.2103 3.1859 10.9900 32.2462 -0.5789 20.8586 9.5526 0.2681 -3.3311 -9.2019 0.0000 0.0000 0.0000 17.9174 6.1216 -12.7283 -1.1811 -6.8973 19.4114 0.4019 20.1010 -10.5600 -2.0440 8.9571 -25.6612 2.7478 1.6527 -2.2423 0.9112 2.0284 -8.3847 -0.6472 0.7270 -7.4333 -31.1621 -8.6680 12.7351 37.5290 -18.3148 -0.0532 18.4143 -10.8290 4.8784 0.0000 0.0000 0.0000 -80.1961 14.4338 20.6227 23.0506 -34.1441 -7.1667 0.0000 0.0000 -37.2409 0.0000 0.0000 0.0000 86.4896 -8.1230 12.1799 -14.8169 23.8905 -3.1514 0.0000 0.0000 25.8971
-15.5007 16.6908 5.2050 -8.3747 10.5903 8.1640 0.0000 0.0000 0.0000 12.9194 -11.4724 -20.4611 4.6647 12.9959 39.3532 -0.4431 19.1140 9.1907 0.0157 -0.8094 -2.2244 0.0000 0.0000 0.0000 20.8008 5.3330 -12.1853 -1.0822 -6.6119 18.5704 0.4705 20.6195 -10.3845 -1.5798 7.9298 -22.5011 3.7159 1.7527 -0.8494 0.9557 2.2806 -8.2262 -1.1895 0.7884 -8.0351 -31.3949 -8.6753 12.5973 37.5970 -18.2273 -0.3147 18.4924 -10.7723 4.8372 0.0000 0.0000 0.0000 -80.6801 14.7952 19.9171 22.5041 -33.5421 -6.8623 0.0000 0.0000 -36.2640 0.0000 0.0000 0.0000 85.5860 -7.3613 13.4314 -15.3971 24.6965 -3.3901 0.0000 0.0000 24.9917
-15.9128 16.6997 5.2101 -9.0679 10.5388 7.7289 0.0000 0.0000 0.0000 12.4357 -10.9252 -26.7378 6.6163 15.0001 47.4078 -0.1088 10.9369 5.8734 0.1640 -2.6092 -7.1924 0.0000 0.0000 0.0000 23.2739 5.0576 -12.4226 -1.1226 -6.7302 18.9185 0.5157 21.0487 -10.3660 -1.1827 6.9020 -19.4254 4.8923 1.8735 0.2290 1.0367 2.5768 -8.0388 -1.8097 0.8559 -8.4135 -31.5376 -8.7498 12.3776 37.5846 -18.1724 -0.6213 18.4865 -10.7147 4.7898 0.0000 0.0000 0.0000 -81.4538 15.0509 19.3561 21.6228 -32.5481 -6.3817 0.0000 0.0000 -35.5447 0.0000 0.0000 0.0000 84.5574 -6.6244 14.0908 -16.1415 25.7121 -3.7071 0.0000 0.0000 23.3096
-16.2729 16.6887 5.2191 -9.4634 10.2947 7.3826 0.0000 0.0000 0.0000 10.1752 -10.1735 -32.9961 8.8422 16.7051 55.5428 -0.0661 5.7795 1.6836 0.6107 -5.0016 -13.9131 0.0000 0.0000 0.0000 25.1285 5.5454 -12.8086 -1.2644 -7.1276 20.0941 0.4749 20.9949 -10.7025 -0.8737 5.9596 -16.6672 5.8300 2.0518 1.0310 1.0973 2.9367 -7.8192 -2.3191 0.9736 -8.5902 -31.6812 -8.8144 12.2620 37.5809 -18.1410 -0.9256 18.4920 -10.6792 4.7342 0.0000 0.0000 0.0000 -82.5778 15.2564 18.3305 20.3873 -31.1061 -5.7301 0.0000 0.0000 -34.2883 0.0000 0.0000 0.0000 83.4952 -5.9768 13.9357 -16.8406 26.6471 -4.0156 0.0000 0.0000 21.2950
-16.5867 16.6684 5.2319 -9.5144 9.9251 7.2513 0.0000 0.0000 0.0000 6.2603 -9.7721 -38.7521 10.8893 17.8805 62.4216 -0.0523 4.0587 -1.6887 1.1012 -6.6680 -18.7356 0.0000 0.0000 0.0000 26.3856 6.4051 -13.3701 -1.4582 -7.6324 21.6029 0.3923 20.7476 -11.2453 -0.6714 5.2399 -14.5941 6.4860 2.2368 1.5050 1.1297 3.2681 -7.6186 -2.6909 1.0994 -8.5978 -31.8500 -8.8428 12.1893 37.5556 -18.0877 -1.1707 18.5043 -10.6355 4.6769 0.0000 0.0000 0.0000 -83.8524 15.5338 17.3962 19.0711 -29.5069 -5.0658 0.0000 0.0000 -33.1283 0.0000 0.0000 0.0000 82.5579 -5.3742 12.9313 -17.4190 27.4068 -4.2784 0.0000 0.0000 19.8083
-16.8597 16.6455 5.2426 -9.4720 9.4313 7.2715 0.0000 0.0000 0.0000 1.3920 -9.9701 -43.5658 12.3666 18.5414 67.1463 -0.0266 3.7012 -3.8066 1.3713 -7.4109 -20.9385 0.0000 0.0000 0.0000 27.3459 6.9688 -14.1626 -1.6500 -8.0955 23.0045 0.3934 21.0433 -11.5023 -0.4838 4.4604 -12.3755 7.1909 2.4060 1.8507 1.1615 3.5719 -7.4849 -3.0849 1.2049 -8.5982 -31.8585 -8.8630 12.1560 37.3358 -17.9972 -1.3448 18.3903 -10.5610 4.5673 0.0000 0.0000 0.0000 -85.1413 16.0326 16.4221 17.9333 -28.0717 -4.5178 0.0000 0.0000 -31.6307 0.0000 0.0000 0.0000 81.8290 -4.8409 11.5307 -17.9018 28.0313 -4.5030 0.0000 0.0000 18.9374
-17.1231 16.6175 5.2639 -9.5016 8.6889 7.1311 0.0000 0.0000 0.0000 -3.7013 -10.4639 -46.7321 13.1232 18.8262 69.5077 0.0184 2.8920 -5.0531 1.5224 -7.7911 -22.0813 0.0000 0.0000 0.0000 28.3691 7.1194 -14.6952 -1.8118 -8.4624 24.1277 0.5026 21.9968 -11.3993 -0.3203 3.6378 -10.0598 7.7304 2.6179 2.3161 1.2645 3.9433 -7.3357 -3.3243 1.3563 -8.6514 -31.8558 -8.8533 12.1211 37.1883 -17.9191 -1.3881 18.3197 -10.5021 4.5084 0.0000 0.0000 0.0000 -86.2246 16.7203 16.0419 17.0614 -26.9386 -4.1151 0.0000 0.0000 -30.5211 0.0000 0.0000 0.0000 81.2735 -4.4571 10.3305 -18.3211 28.5664 -4.7018 0.0000 0.0000 18.1723
-17.3688 16.5823 5.2939 -9.6660 7.7230 6.9592 0.0000 0.0000 0.0000 -8.4526 -11.2747 -48.4841 13.2684 18.8769 69.9572 0.0506 1.8841 -5.3786 1.6257 -8.0387 -22.8316 0.0000 0.0000 0.0000 29.4956 6.9425 -15.1032 -1.9458 -8.7522 25.0233 0.6837 23.3981 -11.1730 -0.2075 2.9327 -8.0915 8.3755 2.8757 2.7399 1.3823 4.3821 -7.1592 -3.6105 1.5374 -8.6320 -31.8431 -8.8363 12.0234 37.1637 -17.8547 -1.3738 18.3091 -10.4569 4.5001 0.0000 0.0000 0.0000 -86.9964 17.5626 16.3084 16.6104 -26.3413 -3.9129 0.0000 0.0000 -30.0678 0.0000 0.0000 0.0000 80.9734 -4.1361 9.3290 -18.6703 29.0069 -4.8699 0.0000 0.0000 17.7434
-17.5981 16.4995 5.3309 -10.5573 5.6036 7.3949 0.0000 0.0000 0.0000 -14.1540 -11.8156 -48.6462 12.3317 18.5274 67.0366 0.0519 0.3350 -4.2144 2.0111 -8.8891 -25.4490 0.0000 0.0000 0.0000 31.8847 4.7107 -16.2873 -2.0255 -8.9188 25.5418 1.3290 28.1289 -7.3634 -0.0050 0.4594 -1.2622 9.6509 3.3437 2.3508 1.6584 5.0404 -7.2089 -4.0269 1.7837 -8.3197 -31.8025 -8.7171 12.1244 37.1312 -17.7716 -1.1643 18.3251 -10.4284 4.4938 0.0000 0.0000 0.0000 -87.4466 18.6006 17.4502 16.4108 -26.0746 -3.8247 0.0000 0.0000 -29.6996 0.0000 0.0000 0.0000 81.7649 -4.3217 9.4672 -18.4600 28.7422 -4.7684 0.0000 0.0000 18.6083
-17.8176 16.4349 5.3762 -11.3828 3.7464 7.9389 0.0000 0.0000 0.0000 -18.3453 -11.8963 -48.0765 11.3197 18.0880 63.8155 0.0265 -0.3797 -2.9415 2.2560 -9.3802 -26.9919 0.0000 0.0000 0.0000 33.9578 2.5733 -17.2868 -2.0250 -8.9178 25.5388 2.3145 32.4528 -3.1391 -0.0866 -1.8979 5.2236 10.6523 3.7295 1.7918 1.9031 5.5341 -7.3134 -4.3005 1.9671 -7.9964 -31.7791 -8.5812 12.2177 37.1094 -17.6826 -0.9022 18.3538 -10.3988 4.5043 0.0000 0.0000 0.0000 -87.6195 19.2876 18.3643 16.3835 -26.0379 -3.8127 0.0000 0.0000 -29.6383 0.0000 0.0000 0.0000 82.7173 -4.7231 10.1673 -18.1349 28.3295 -4.6130 0.0000 0.0000 19.1892
-18.0387 16.3848 5.4430 -12.0122 2.2282 8.5225 0.0000 0.0000 0.0000 -21.4546 -11.2133 -47.2230 10.3949 17.6260 60.8002 -0.0042 -0.7787 -1.6127 2.2698 -9.4067 -27.0759 0.0000 0.0000 0.0000 35.6195 0.1446 -18.2725 -1.9826 -8.8298 25.2644 3.7158 36.6646 1.3907 -0.4122 -4.1212 11.4179 11.2356 4.0559 1.0628 2.0636 5.8876 -7.4759 -4.4123 2.1070 -7.6727 -31.7701 -8.4536 12.3953 37.1191 -17.6584 -0.5919 18.3989 -10.4135 4.5437 0.0000 0.0000 0.0000 -87.5496 19.7148 18.9978 16.4188 -26.0851 -3.8282 0.0000 0.0000 -29.9348 0.0000 0.0000 0.0000 83.8384 -5.2970 11.0348 -17.6847 27.7515 -4.4014 0.0000 0.0000 19.6673
-18.2583 16.3364 5.5237 -12.5907 1.1000 9.1581 0.0000 0.0000 0.0000 -23.5114 -10.0599 -46.5382 9.6491 17.2077 58.3090 -0.0185 -1.4601 -0.6769 2.2466 -9.3619 -26.9342 0.0000 0.0000 0.0000 37.0069 -2.4985 -19.5793 -1.9619 -8.7861 25.1287 5.5339 40.6400 6.1657 -0.9557 -6.2251 17.4390 11.7202 4.3116 0.2909 2.1556 6.1279 -7.7386 -4.5334 2.1867 -7.4495 -31.7889 -8.3393 12.6537 37.1097 -17.6840 -0.2722 18.4364 -10.4592 4.5905 0.0000 0.0000 0.0000 -87.3824 19.9359 19.2430 16.4440 -26.1189 -3.8393 0.0000 0.0000 -30.1523 0.0000 0.0000 0.0000 84.8691 -5.9571 12.1306 -17.1455 27.0491 -4.1533 0.0000 0.0000 20.0871
-18.4650 16.2845 5.6034 -13.1900 0.3548 9.8147 0.0000 0.0000 0.0000 -24.5149 -8.9686 -46.1605 9.1289 16.8900 56.5350 -0.0148 -2.0811 -0.5868 2.2042 -9.2790 -26.6721 0.0000 0.0000 0.0000 38.2224 -5.0785 -21.1618 -1.9725 -8.8085 25.1984 7.5982 44.0679 10.9486 -1.5984 -7.9742 22.6356 12.1980 4.5074 -0.4780 2.2384 6.2819 -8.0452 -4.6550 2.2188 -7.2874 -31.8266 -8.2406 12.8909 37.0827 -17.7191 0.0337 18.4632 -10.5056 4.6412 0.0000 0.0000 0.0000 -87.2641 19.9689 19.2804 16.4488 -26.1254 -3.8414 0.0000 0.0000 -30.3578 0.0000 0.0000 0.0000 85.6535 -6.4718 13.1494 -16.5406 26.2480 -3.8819 0.0000 0.0000 20.7844
