HIERARCHY
ROOT Hips
{
	OFFSET 0.00000 0.00000 0.00000
	CHANNELS 6 Xposition Yposition Zposition Zrotation Yrotation Xrotation
	JOINT LHipJoint
	{
		OFFSET 0.00000 0.00000 0.00000
		CHANNELS 3 Zrotation Yrotation Xrotation
		JOINT LeftUpLeg
		{
			OFFSET 1.57358 -1.76629 0.73362
			CHANNELS 3 Zrotation Yrotation Xrotation
			JOINT LeftLeg
			{
				OFFSET 2.40600 -6.61045 0.00000
				CHANNELS 3 Zrotation Yrotation Xrotation
				JOINT LeftFoot
				{
					OFFSET 2.66168 -7.31291 0.00000
					CHANNELS 3 Zrotation Yrotation Xrotation
					JOINT LeftToeBase
					{
						OFFSET 0.20870 -0.57341 2.12506
						CHANNELS 3 Zrotation Yrotation Xrotation
						End Site
						{
							OFFSET 0.00000 -0.00000 1.10557
						}
					}
				}
			}
		}
	}
	JOINT RHipJoint
	{
		OFFSET 0.00000 0.00000 0.00000
		CHANNELS 3 Zrotation Yrotation Xrotation
		JOINT RightUpLeg
		{
			OFFSET -1.49299 -1.76629 0.73362
			CHANNELS 3 Zrotation Yrotation Xrotation
			JOINT RightLeg
			{
				OFFSET -2.43663 -6.69460 0.00000
				CHANNELS 3 Zrotation Yrotation Xrotation
				JOINT RightFoot
				{
					OFFSET -2.62959 -7.22474 0.00000
					CHANNELS 3 Zrotation Yrotation Xrotation
					JOINT RightToeBase
					{
						OFFSET -0.25784 -0.70841 2.21862
						CHANNELS 3 Zrotation Yrotation Xrotation
						End Site
						{
							OFFSET -0.00000 -0.00000 1.16452
						}
					}
				}
			}
		}
	}
	JOINT LowerBack
	{
		OFFSET 0.00000 0.00000 0.00000
		CHANNELS 3 Zrotation Yrotation Xrotation
		JOINT Spine
		{
			OFFSET -0.00034 2.12399 -0.25450
			CHANNELS 3 Zrotation Yrotation Xrotation
			JOINT Spine1
			{
				OFFSET 0.05594 2.14379 -0.03318
				CHANNELS 3 Zrotation Yrotation Xrotation
				JOINT Neck
				{
					OFFSET 0.00000 0.00000 0.00000
					CHANNELS 3 Zrotation Yrotation Xrotation
					JOINT Neck1
					{
						OFFSET -0.09835 1.62725 0.24211
						CHANNELS 3 Zrotation Yrotation Xrotation
						JOINT Head
						{
							OFFSET 0.10849 1.66041 -0.22648
							CHANNELS 3 Zrotation Yrotation Xrotation
							End Site
							{
								OFFSET 0.04385 1.68267 -0.10541
							}
						}
					}
				}
				JOINT LeftShoulder
				{
					OFFSET 0.00000 0.00000 0.00000
					CHANNELS 3 Zrotation Yrotation Xrotation
					JOINT LeftArm
					{
						OFFSET 3.29108 0.79398 -0.68179
						CHANNELS 3 Zrotation Yrotation Xrotation
						JOINT LeftForeArm
						{
							OFFSET 5.15310 -0.00000 -0.00000
							CHANNELS 3 Zrotation Yrotation Xrotation
							JOINT LeftHand
							{
								OFFSET 3.75138 -0.00000 -0.00000
								CHANNELS 3 Zrotation Yrotation Xrotation
								End Site
								{
									OFFSET 0.00000 0.60000 0.00000
								}
							}
						}
					}
				}
				JOINT RightShoulder
				{
					OFFSET 0.00000 0.00000 0.00000
					CHANNELS 3 Zrotation Yrotation Xrotation
					JOINT RightArm
					{
						OFFSET -3.07414 1.06285 -0.44338
						CHANNELS 3 Zrotation Yrotation Xrotation
						JOINT RightForeArm
						{
							OFFSET -5.29613 -0.00000 0.00000
							CHANNELS 3 Zrotation Yrotation Xrotation
							JOINT RightHand
							{
								OFFSET -3.76144 -0.00000 -0.00000
								CHANNELS 3 Zrotation Yrotation Xrotation
								End Site
								{
									OFFSET 0.00000 0.60000 0.00000
								}
							}
						}
					}
				}
			}
		}
	}
}
MOTION
Frames: 21
Frame Time: 0.0333333
0.0000 16.9846 0.0000 -2.8552 0.0000 8.1755 0.0000 -0.0000 0.0000 -8.8861 -4.0764 -43.4295 21.4389 19.9503 94.2105 0.0177 -0.3532 2.6676 0.3889 -4.0044 -11.0890 0.0000 -0.0000 0.0000 30.5450 1.7456 -4.0813 -4.0761 -12.2609 36.6614 -0.6162 -3.6917 -16.6295 -1.6133 8.0094 -22.7428 3.7528 1.4731 12.8280 3.2187 2.7564 -0.1055 0.7766 1.2645 -7.3099 -9.6593 -4.5012 -22.2084 7.1570 -4.3272 10.2216 3.3790 -1.8114 7.0869 0.0000 -0.0000 0.0000 -88.0770 22.1680 40.9900 112.3541 -58.0250 -79.2308 0.0000 -0.0000 -22.0246 0.0000 -0.0000 0.0000 84.9264 -1.9030 40.1117 -141.1003 47.4043 -102.3751 0.0000 -0.0000 -14.7821
0.1654 17.3561 2.5524 -3.6348 0.2271 8.6792 0.0000 0.0000 0.0000 -9.7698 -6.0012 -48.0258 16.8017 19.7530 80.6118 0.0013 -1.0364 -0.9123 0.3162 -3.6149 -9.9958 0.0000 0.0000 0.0000 28.9683 -2.5035 6.9025 -2.0898 -9.0506 25.9537 -0.0119 -2.2771 2.3490 -1.2178 7.0000 -19.7153 5.6967 2.4923 10.6613 2.7775 4.2156 -0.5067 -0.9392 1.9214 -6.3252 -10.0943 -5.4971 -22.2222 7.6290 -5.6388 10.6634 3.4331 -2.4129 7.3778 0.0000 0.0000 0.0000 -88.0849 28.4265 39.5186 116.0753 -57.2682 -82.3747 0.0000 0.0000 -22.3231 0.0000 0.0000 0.0000 84.2638 -1.9133 41.0611 -149.0384 41.7035 -107.9557 0.0000 0.0000 -15.4768
0.3078 17.6307 5.1573 -3.4064 2.1964 8.4213 0.0000 0.0000 0.0000 -11.8631 -8.7688 -48.1357 10.8619 17.8668 62.3322 -0.0286 -3.7327 -1.0099 0.7237 -5.4359 -15.1561 0.0000 0.0000 0.0000 26.6292 -5.5185 19.0962 -0.5165 -4.6063 12.7891 -2.1038 -12.4313 26.2180 -0.2868 3.4443 -9.5184 6.3352 2.5995 8.8138 2.3573 4.2861 -1.0181 -1.6537 1.9428 -5.7392 -10.6031 -5.9294 -21.3526 8.5210 -6.3528 11.2692 3.7295 -2.7121 7.5560 0.0000 0.0000 0.0000 -89.5691 34.9420 35.2478 119.6120 -56.4124 -85.3359 0.0000 0.0000 -23.8383 0.0000 0.0000 0.0000 81.6949 -2.8761 43.9127 -154.0327 37.1765 -111.1321 0.0000 0.0000 -8.4843
0.3999 17.8748 7.7219 -3.2440 4.1240 8.8862 0.0000 0.0000 0.0000 -12.8789 -12.2665 -45.7850 5.4086 13.8297 42.5595 -0.1258 -6.4035 3.6994 0.7645 -5.5834 -15.5804 0.0000 0.0000 0.0000 27.8876 -2.9341 27.4677 -0.2855 -3.4362 9.4957 -3.2089 -13.6903 32.4546 -0.3580 -3.8439 10.6379 6.5242 2.3874 8.4229 1.7790 4.0417 -2.3748 -2.3484 1.7415 -6.9245 -10.6223 -6.3213 -21.7970 9.0331 -7.0711 13.4931 3.8120 -2.9902 8.4714 0.0000 0.0000 0.0000 -90.5655 40.6927 30.6898 123.6871 -55.2446 -88.7081 0.0000 0.0000 -23.9115 0.0000 0.0000 0.0000 79.6632 -6.1254 47.3096 -157.4786 33.5613 -113.1281 0.0000 0.0000 -3.6510
0.4837 17.9418 10.1969 -4.7502 5.3254 8.7898 0.0000 0.0000 0.0000 -11.7678 -14.6840 -42.8537 2.7615 10.2986 29.9492 0.0544 2.5464 4.2454 0.7754 -5.6225 -15.6929 0.0000 0.0000 0.0000 31.5986 -0.1061 25.7869 -1.7452 -8.3138 23.6713 -2.6080 -14.4781 29.3502 -1.0188 -6.4213 18.0118 7.1670 2.2633 7.8182 2.5662 3.9568 -2.5611 -1.8396 1.6927 -6.8045 -10.7747 -6.4055 -22.2376 8.5301 -7.0109 13.8219 3.6673 -3.0104 8.6341 0.0000 0.0000 0.0000 -92.5001 41.7750 27.9028 124.4456 -55.0040 -89.3304 0.0000 0.0000 -22.1546 0.0000 0.0000 0.0000 77.3817 -9.3060 49.6820 -157.9382 33.0468 -113.3805 0.0000 0.0000 -5.5474
0.5513 17.7950 12.6449 -4.9003 5.5170 7.4100 0.0000 0.0000 0.0000 -13.5619 -13.6447 -39.9264 2.3509 9.5615 27.5682 0.1379 -0.6284 7.2710 1.3168 -7.2682 -20.5124 0.0000 0.0000 0.0000 32.1409 0.4954 21.3453 -5.3458 -13.7629 42.2959 -2.1077 -18.0244 27.2296 -0.3326 -3.7064 10.2522 6.0895 2.1801 8.0366 3.0079 3.7413 -1.9623 -0.7536 1.6646 -6.3988 -11.0901 -6.4305 -22.2948 8.5882 -6.9509 13.8246 3.7466 -2.9922 8.6523 0.0000 0.0000 0.0000 -92.3814 39.6748 28.5007 122.4914 -55.6087 -87.7235 0.0000 0.0000 -21.5205 0.0000 0.0000 0.0000 76.9124 -13.8217 49.4301 -154.9762 36.2283 -111.6961 0.0000 0.0000 -6.2163
0.6082 17.4374 15.0435 -3.7912 4.9317 4.9209 0.0000 0.0000 0.0000 -17.0632 -10.8332 -34.9871 3.0090 10.7096 31.3067 -0.0646 -6.2482 6.8880 0.1613 -2.5877 -7.1328 0.0000 0.0000 0.0000 28.9018 -0.2755 14.6307 -11.2661 -18.0628 63.6426 -1.9728 -19.5545 26.8932 -0.5608 -4.7965 13.3291 4.2953 2.1061 9.7853 2.4501 3.4752 -0.9042 -0.3628 1.6003 -6.3469 -10.4078 -6.1399 -21.8382 9.1562 -6.8697 12.9229 3.8457 -2.8717 8.2623 0.0000 0.0000 0.0000 -89.7278 34.6883 32.2445 119.6512 -56.4022 -85.3685 0.0000 0.0000 -21.4116 0.0000 0.0000 0.0000 78.9470 -18.0559 46.5267 -149.2237 41.5496 -108.0788 0.0000 0.0000 -7.2091
0.6675 17.0541 17.3724 -2.4752 4.9679 3.4290 0.0000 0.0000 0.0000 -19.6008 -10.1968 -30.2501 5.1944 13.5994 41.6560 0.1133 -7.4412 -7.4508 0.0072 -0.5495 -1.5100 0.0000 0.0000 0.0000 23.6997 -1.7451 4.8562 -17.7957 -19.8831 83.5431 -0.8902 -18.4141 19.8804 -0.4779 -4.4334 12.2992 1.5208 1.5387 10.8647 2.3433 2.3892 -0.0830 1.2195 1.1624 -6.2280 -9.8813 -5.5001 -21.4883 9.7074 -6.2736 12.6100 4.0388 -2.5194 8.0433 0.0000 0.0000 0.0000 -88.9070 27.4902 35.7902 118.0735 -56.8018 -84.0513 0.0000 0.0000 -22.3577 0.0000 0.0000 0.0000 80.4844 -20.6074 43.8789 -139.1922 48.5412 -100.9576 0.0000 0.0000 -10.2447
0.7289 16.7749 19.5945 2.9806 4.0527 4.7250 0.0000 0.0000 0.0000 -26.8615 -9.3699 -23.4638 5.9593 14.3888 44.8182 0.9884 -4.1766 -17.8552 0.0571 -1.5418 -4.2409 0.0000 0.0000 0.0000 12.1147 -1.7335 -9.9404 -23.5299 -19.6986 100.3708 -0.7184 -10.3846 15.7359 -0.7123 -5.3936 15.0346 -4.5802 1.0347 10.3487 0.4893 0.8433 -0.4918 2.9654 0.5753 -6.4125 -9.6149 -5.0728 -21.5929 10.8959 -6.0959 13.9290 4.4509 -2.2909 8.5264 0.0000 0.0000 0.0000 -87.7472 18.9321 38.2174 117.6571 -56.9026 -83.7027 0.0000 0.0000 -25.5858 0.0000 0.0000 0.0000 83.4822 -23.4108 40.5949 -123.0500 55.4408 -88.1840 0.0000 0.0000 -9.1553
0.8336 16.7207 21.7604 3.3024 3.4592 5.0996 0.0000 0.0000 0.0000 -28.2606 -6.8808 -14.4017 5.5437 13.9710 43.1216 1.3764 -2.4776 -21.5081 0.5212 -4.6270 -12.8477 0.0000 0.0000 0.0000 9.2312 -1.7799 -24.4841 -25.9926 -19.1163 107.7730 -0.3323 -6.4475 10.5406 -0.2751 -3.3736 9.3207 -4.8636 0.4613 10.1373 0.5296 0.0576 -0.5486 3.2920 0.1983 -6.2854 -9.4526 -4.9155 -21.9394 10.3371 -5.8244 14.4051 4.2739 -2.1984 8.6898 0.0000 0.0000 0.0000 -87.8567 9.8163 40.4592 122.1252 -55.7165 -87.4212 0.0000 0.0000 -26.5340 0.0000 0.0000 0.0000 85.7972 -27.8580 36.2380 -115.1864 57.4618 -81.6262 0.0000 0.0000 -6.5337
0.9471 16.9312 24.0363 3.8770 2.8319 5.6274 0.0000 0.0000 0.0000 -29.5070 -3.3275 -4.8807 4.3762 12.6448 38.0531 0.7467 -2.5172 -15.6656 1.9151 -8.6870 -24.8209 0.0000 0.0000 0.0000 8.9373 -0.7535 -36.5034 -25.0919 -19.3667 105.0404 -0.0657 -3.0065 4.7099 -0.0231 -0.9823 2.7000 -5.6272 -0.3639 9.4969 1.1251 -1.0718 -1.0725 4.5202 -0.3061 -6.3505 -9.0648 -3.9841 -21.4557 8.6282 -4.3576 14.3749 3.8253 -1.6768 8.3794 0.0000 0.0000 0.0000 -89.1709 3.8639 40.3254 131.4251 -52.4043 -94.9595 0.0000 0.0000 -30.0191 0.0000 0.0000 0.0000 85.5058 -33.2703 35.0988 -117.7643 56.8768 -83.7925 0.0000 0.0000 -10.8237
1.0609 17.1865 26.4716 5.8923 1.6409 5.1770 0.0000 0.0000 0.0000 -31.4874 1.7093 4.9561 2.8915 10.5173 30.6688 -0.0101 -2.3992 -0.8334 2.1466 -9.1649 -26.3126 0.0000 0.0000 0.0000 8.4115 1.7991 -42.1805 -21.4830 -19.9472 94.3396 -0.0056 -0.3606 -1.5900 -0.1357 2.3743 -6.5414 -7.8141 -1.3603 8.1615 1.4551 -2.5263 -1.0865 6.2539 -0.9876 -5.3349 -8.5735 -2.4686 -22.2613 7.5407 -2.2159 15.8065 3.6892 -0.7431 8.7738 0.0000 0.0000 0.0000 -89.9654 0.8712 38.3792 140.7133 -47.6416 -102.0896 0.0000 0.0000 -33.2647 0.0000 0.0000 0.0000 83.3995 -37.1900 36.4685 -121.6603 55.8510 -87.0367 0.0000 0.0000 -13.9230
1.1819 17.4131 28.9294 5.4074 -1.5133 5.2261 0.0000 0.0000 0.0000 -31.3345 4.8288 12.9788 1.6805 8.1661 23.2198 1.1923 4.9772 19.5909 0.7910 -5.6773 -15.8509 0.0000 0.0000 0.0000 10.8588 7.0610 -45.1667 -15.7053 -19.5519 77.3525 -0.0267 -1.7608 -4.2499 -0.4982 4.5253 -12.5595 -7.0949 -1.7422 6.3441 2.1220 -2.8012 -1.1468 6.4949 -1.1827 -4.3204 -8.1179 -1.3227 -23.3586 6.4095 -0.5044 17.1341 3.4926 -0.0352 9.2628 0.0000 0.0000 0.0000 -88.5233 -0.4127 37.3147 148.4464 -42.1884 -107.5600 0.0000 0.0000 -35.9667 0.0000 0.0000 0.0000 81.4016 -39.9724 38.0814 -125.9472 54.5048 -90.5567 0.0000 0.0000 -13.5130
1.3197 17.7046 31.3991 4.9955 -2.3676 6.7483 0.0000 0.0000 0.0000 -32.1750 2.5347 18.0710 1.5254 7.7984 22.1033 1.9145 6.2365 24.9218 0.0202 -0.9168 -2.5199 0.0000 0.0000 0.0000 12.7199 9.1108 -44.7097 -8.4445 -16.4366 54.1484 0.0037 -2.4032 -3.1615 -1.3041 7.2343 -20.4115 -6.3925 -2.3843 5.5808 3.2866 -3.5343 -2.6697 7.4152 -1.4594 -5.3439 -8.2573 -0.5218 -23.0467 5.0013 0.9188 18.1568 3.2377 0.4323 9.4595 0.0000 0.0000 0.0000 -87.0480 0.8891 37.8710 153.2529 -37.9369 -110.6568 0.0000 0.0000 -35.9138 0.0000 0.0000 0.0000 78.9789 -43.0380 39.2075 -130.1881 52.9194 -93.9760 0.0000 0.0000 -13.5499
1.4363 17.7947 33.8097 6.7688 -2.9886 6.7073 0.0000 0.0000 0.0000 -35.5285 0.6031 21.6859 2.1148 9.1012 26.1123 2.1081 5.5192 26.2828 0.0397 1.2855 3.5349 0.0000 0.0000 0.0000 12.0792 9.6198 -40.5929 -3.1377 -10.9146 31.9925 0.0314 -3.4075 0.1570 -1.5689 7.9035 -22.4214 -7.6173 -2.3915 6.2417 3.0595 -3.7080 -2.8890 7.9435 -1.4679 -5.8753 -8.2087 -0.4378 -24.0638 4.6225 1.1937 18.5351 3.1564 0.5168 9.7554 0.0000 0.0000 0.0000 -85.8475 2.2727 40.1857 154.3292 -36.8818 -111.3107 0.0000 0.0000 -30.3841 0.0000 0.0000 0.0000 79.6584 -42.9144 38.3099 -132.8074 51.7985 -96.0503 0.0000 0.0000 -13.2626
1.5353 17.6974 36.2074 6.8254 -2.6921 5.3345 0.0000 0.0000 0.0000 -36.1032 -0.4391 20.8852 4.4630 12.7523 38.4481 2.0142 0.2531 26.7988 0.1292 2.3170 6.3827 0.0000 0.0000 0.0000 14.1896 8.2392 -34.8586 -1.1354 -6.7672 19.0275 0.1127 -6.7731 0.9933 -1.7452 8.3139 -23.6718 -6.8450 -2.2601 7.2029 2.5936 -3.5303 -2.0748 7.0089 -1.4536 -5.6565 -7.9377 -0.8672 -24.0605 5.1196 0.4111 17.0228 3.1417 0.2615 9.2751 0.0000 0.0000 0.0000 -85.7015 4.9985 41.5654 151.1564 -39.8814 -109.3397 0.0000 0.0000 -30.6426 0.0000 0.0000 0.0000 81.9196 -40.0085 36.7887 -132.6201 51.8825 -95.9030 0.0000 0.0000 -12.0534
1.6023 17.3254 38.4805 3.3422 -3.1584 3.6463 0.0000 0.0000 0.0000 -29.5223 -1.1629 7.4116 11.1511 18.0082 63.2710 1.3079 -1.0221 20.6304 0.0036 0.3903 1.0725 0.0000 0.0000 0.0000 21.5602 5.9431 -26.6723 -1.4502 -7.6121 21.5418 -0.2001 -2.5472 2.4164 -1.9963 8.8584 -25.3534 -3.2998 -0.9312 10.3799 2.8760 -1.4711 -0.8575 5.1227 -0.5517 -6.5030 -8.3957 -1.8850 -23.6229 6.0324 -1.0218 15.3708 3.3132 -0.3148 8.7489 0.0000 0.0000 0.0000 -86.7338 9.5523 40.6678 139.9195 -48.1175 -101.5008 0.0000 0.0000 -27.8854 0.0000 0.0000 0.0000 83.4081 -30.5570 36.5921 -132.3466 52.0041 -95.6876 0.0000 0.0000 -11.0451
1.6395 16.9323 40.7269 2.1189 -3.6780 2.7128 0.0000 0.0000 0.0000 -23.4217 -0.9820 -7.7554 17.6585 19.8680 83.1396 0.8427 1.8822 15.7082 0.3329 -3.7081 -10.2570 0.0000 0.0000 0.0000 24.3919 5.8224 -22.2164 -3.7503 -11.8205 35.1000 -0.3165 -0.0201 -6.3341 -0.0137 0.7553 -2.0757 -1.8686 0.2748 12.0451 2.3282 0.2661 0.2548 3.4595 0.2178 -6.4375 -8.5719 -2.7743 -23.0835 6.8646 -2.3401 13.7734 3.4204 -0.8461 8.2312 0.0000 0.0000 0.0000 -86.6180 13.0463 40.4805 127.5969 -53.9199 -91.8950 0.0000 0.0000 -25.2580 0.0000 0.0000 0.0000 84.8393 -20.6257 37.4858 -131.8470 52.2228 -95.2934 0.0000 0.0000 -12.4162
1.6353 16.7533 42.8795 -2.0459 -3.0544 3.5526 0.0000 0.0000 0.0000 -13.4721 -0.9762 -22.0864 21.6672 19.9332 94.8797 0.4691 -0.4137 10.9084 0.2973 -3.5062 -9.6914 0.0000 0.0000 0.0000 29.7890 7.5623 -14.7818 -4.9303 -13.3049 40.5208 -0.5195 -4.8331 -16.2977 -0.3017 3.5319 -9.7633 1.8337 0.8944 13.9268 3.4493 1.7533 0.1385 2.3002 0.8480 -7.7141 -8.9917 -3.4034 -23.3607 6.5905 -2.9647 13.3917 3.3070 -1.1877 8.2079 0.0000 0.0000 0.0000 -88.2245 16.7247 39.5181 117.0312 -57.0505 -83.1779 0.0000 0.0000 -25.5027 0.0000 0.0000 0.0000 84.5032 -12.3046 38.7572 -131.6560 52.3053 -95.1424 0.0000 0.0000 -13.4522
1.6509 16.7430 44.8957 -3.2524 -1.0237 5.0452 0.0000 0.0000 0.0000 -9.0523 -3.8182 -34.4138 23.1110 19.7664 99.1300 0.2702 -2.1407 7.5443 0.0676 -1.6774 -4.6147 0.0000 0.0000 0.0000 31.4344 4.8906 -9.3400 -4.7869 -13.1397 39.8938 -0.7859 -6.1849 -19.3976 -0.7882 5.6674 -15.8226 3.0139 0.9068 13.9853 3.6917 1.9893 0.0539 1.8527 0.9210 -7.8231 -9.0837 -3.8824 -23.1649 6.6879 -3.5721 12.0818 3.2501 -1.4634 7.7838 0.0000 0.0000 0.0000 -89.3328 19.5580 38.3693 111.3124 -58.2122 -78.3463 0.0000 0.0000 -24.9832 0.0000 0.0000 0.0000 84.0382 -5.1022 40.0335 -131.7989 52.2437 -95.2554 0.0000 0.0000 -10.1884
1.7114 16.8693 47.0340 -3.2341 -0.0618 6.4424 0.0000 0.0000 0.0000 -8.4228 -5.1298 -41.1627 22.4224 19.8587 97.0987 0.1196 -1.4392 4.9641 0.2288 -3.0788 -8.4981 0.0000 0.0000 0.0000 31.2088 2.4709 -5.1719 -4.2574 -12.4953 37.5075 -0.7253 -5.3524 -18.3570 -1.3627 7.3887 -20.8723 3.4010 1.3178 13.3055 3.5173 2.5479 -0.0448 1.3286 1.1780 -7.5421 -9.4335 -4.4442 -22.9228 7.1180 -4.2879 11.2276 3.3396 -1.7763 7.5316 0.0000 0.0000 0.0000 -89.1817 21.5773 39.1350 111.5772 -58.1656 -78.5713 0.0000 0.0000 -24.1206 0.0000 0.0000 0.0000 84.3071 -2.6772 39.7111 -136.6918 49.9122 -99.0638 0.0000 0.0000 -10.7299
