HIERARCHY
ROOT Hips
{
	OFFSET 0.00000 0.00000 0.00000
	CHANNELS 6 Xposition Yposition Zposition Zrotation Yrotation Xrotation
	JOINT LHipJoint
	{
		OFFSET 0.00000 0.00000 0.00000
		CHANNELS 3 Zrotation Yrotation Xrotation
		JOINT LeftUpLeg
		{
			OFFSET 1.43652 -1.81092 0.91346
			CHANNELS 3 Zrotation Yrotation Xrotation
			JOINT LeftLeg
			{
				OFFSET 2.45984 -6.75837 0.00000
				CHANNELS 3 Zrotation Yrotation Xrotation
				JOINT LeftFoot
				{
					OFFSET 2.63718 -7.24559 0.00000
					CHANNELS 3 Zrotation Yrotation Xrotation
					JOINT LeftToeBase
					{
						OFFSET 0.19690 -0.54098 2.12239
						CHANNELS 3 Zrotation Yrotation Xrotation
						End Site
						{
							OFFSET 0.00000 -0.00000 1.10116
						}
					}
				}
			}
		}
	}
	JOINT RHipJoint
	{
		OFFSET 0.00000 0.00000 0.00000
		CHANNELS 3 Zrotation Yrotation Xrotation
		JOINT RightUpLeg
		{
			OFFSET -1.35116 -1.81092 0.91345
			CHANNELS 3 Zrotation Yrotation Xrotation
			JOINT RightLeg
			{
				OFFSET -2.55576 -7.02189 0.00000
				CHANNELS 3 Zrotation Yrotation Xrotation
				JOINT RightFoot
				{
					OFFSET -2.61938 -7.19669 0.00000
					CHANNELS 3 Zrotation Yrotation Xrotation
					JOINT RightToeBase
					{
						OFFSET -0.32509 -0.89318 2.23646
						CHANNELS 3 Zrotation Yrotation Xrotation
						End Site
						{
							OFFSET -0.00000 -0.00000 1.19625
						}
					}
				}
			}
		}
	}
	JOINT LowerBack
	{
		OFFSET 0.00000 0.00000 0.00000
		CHANNELS 3 Zrotation Yrotation Xrotation
		JOINT Spine
		{
			OFFSET 0.05193 2.08077 -0.11958
			CHANNELS 3 Zrotation Yrotation Xrotation
			JOINT Spine1
			{
				OFFSET 0.04960 2.08447 0.01967
				CHANNELS 3 Zrotation Yrotation Xrotation
				JOINT Neck
				{
					OFFSET 0.00000 0.00000 0.00000
					CHANNELS 3 Zrotation Yrotation Xrotation
					JOINT Neck1
					{
						OFFSET -0.10699 1.82066 0.27584
						CHANNELS 3 Zrotation Yrotation Xrotation
						JOINT Head
						{
							OFFSET 0.14949 1.84747 -0.32279
							CHANNELS 3 Zrotation Yrotation Xrotation
							End Site
							{
								OFFSET 0.04969 1.88916 -0.14562
							}
						}
					}
				}
				JOINT LeftShoulder
				{
					OFFSET 0.00000 0.00000 0.00000
					CHANNELS 3 Zrotation Yrotation Xrotation
					JOINT LeftArm
					{
						OFFSET 3.73629 1.27211 -0.12847
						CHANNELS 3 Zrotation Yrotation Xrotation
						JOINT LeftForeArm
						{
							OFFSET 5.10995 -0.00000 0.00000
							CHANNELS 3 Zrotation Yrotation Xrotation
							JOINT LeftHand
							{
								OFFSET 3.21207 -0.00000 0.00000
								CHANNELS 3 Zrotation Yrotation Xrotation
								End Site
								{
									OFFSET 0.00000 0.60000 0.00000
								}
							}
						}
					}
				}
				JOINT RightShoulder
				{
					OFFSET 0.00000 0.00000 0.00000
					CHANNELS 3 Zrotation Yrotation Xrotation
					JOINT RightArm
					{
						OFFSET -3.70251 1.29541 -0.35354
						CHANNELS 3 Zrotation Yrotation Xrotation
						JOINT RightForeArm
						{
							OFFSET -5.25109 -0.00000 0.00000
							CHANNELS 3 Zrotation Yrotation Xrotation
							JOINT RightHand
							{
								OFFSET -3.28364 -0.00000 0.00000
								CHANNELS 3 Zrotation Yrotation Xrotation
								End Site
								{
									OFFSET 0.00000 0.60000 0.00000
								}
							}
						}
					}
				}
			}
		}
	}
}
MOTION
Frames: 51
Frame Time: 0.0333333
0.0000 15.3696 0.0000 -0.6044 0.0002 -34.5765 0.0000 0.0000 0.0000 5.3520 1.0788 -80.8387 13.0633 18.8049 69.3220 0.1015 -1.8595 -5.6603 0.2670 -3.3241 -9.1824 0.0000 0.0000 0.0000 31.6126 6.4506 12.9903 -9.2330 -16.9553 56.8925 -2.7635 9.3553 -29.9727 -0.1507 -2.5015 6.8938 6.0431 1.2489 16.6206 2.4302 2.4420 4.5742 -1.3160 1.0282 -4.2551 -4.9194 15.4033 -15.6878 11.9802 19.6647 32.3053 7.6297 9.6577 11.1817 -0.0000 -0.0000 0.0000 -78.2204 -55.8951 65.1151 40.0289 -48.0870 -18.4608 -0.0000 -0.0000 0.7097 -0.0000 -0.0000 0.0000 97.4177 31.6011 55.2907 -63.7025 57.2184 -37.4384 0.0000 -0.0000 -12.7230
0.2188 15.3525 0.0609 0.4680 -0.6789 -35.8552 0.0000 0.0000 0.0000 6.7154 1.1115 -81.4401 8.5785 16.5287 54.6207 0.0036 -3.8247 -2.8322 0.3265 -3.6725 -10.1571 0.0000 0.0000 0.0000 29.8664 6.2583 14.7294 -9.2104 -16.9412 56.8148 -2.8575 10.0933 -30.4835 -0.0904 -1.9392 5.3376 6.2115 1.2923 17.6648 2.7466 2.4853 5.4146 -1.0968 1.0292 -3.9126 -4.8104 15.5995 -15.9134 11.2922 20.1605 32.3012 7.4576 9.7972 11.2849 0.0000 0.0000 0.0000 -68.5356 -60.2273 58.4096 27.3395 -38.5010 -9.7097 0.0000 0.0000 9.9436 0.0000 0.0000 0.0000 100.0059 30.9281 52.1810 -47.7220 52.0344 -24.3664 0.0000 0.0000 -21.1136
0.4383 15.3259 0.1132 1.5129 -1.1396 -37.1119 0.0000 0.0000 0.0000 8.4980 1.4560 -80.4316 5.1386 13.5382 41.4181 -0.0599 -5.3037 -1.3156 0.4806 -4.4458 -12.3344 0.0000 0.0000 0.0000 27.8672 6.0162 16.1733 -9.2332 -16.9555 56.8932 -2.9453 10.9784 -30.9640 -0.0419 -1.3213 3.6333 6.3085 1.2054 18.7301 2.9379 2.3187 6.3242 -0.9249 0.9218 -3.5062 -4.8540 15.8179 -16.3007 10.6235 20.7408 32.0442 7.3091 9.9781 11.2960 0.0000 0.0000 0.0000 -53.9281 -62.9352 47.7028 18.7702 -29.1321 -4.9185 0.0000 0.0000 21.0517 0.0000 0.0000 0.0000 101.5492 30.2066 47.6916 -34.8522 44.7063 -14.7093 0.0000 0.0000 -30.3892
0.6664 15.2874 0.1721 2.4737 -1.3297 -38.2145 0.0000 0.0000 0.0000 10.2514 2.2120 -79.0258 3.1339 10.9087 31.9724 -0.0211 -3.6491 -1.4240 0.5227 -4.6335 -12.8662 0.0000 0.0000 0.0000 25.6897 5.7469 17.2934 -9.3074 -17.0015 57.1472 -3.0592 11.6940 -31.5863 -0.0050 -0.4582 1.2592 6.3829 1.1601 19.7867 3.0329 2.1988 7.1756 -0.8494 0.8345 -3.1400 -4.5627 16.0243 -16.5842 9.8390 21.2275 31.7242 7.0665 10.1361 11.3364 0.0000 0.0000 0.0000 -37.2919 -62.4436 35.1456 13.7376 -22.3583 -2.7275 0.0000 0.0000 27.5812 0.0000 0.0000 0.0000 101.6191 29.2121 40.6170 -24.5761 35.7676 -8.0408 0.0000 0.0000 -35.8627
0.9063 15.2458 0.2349 3.3902 -1.2128 -38.9404 0.0000 0.0000 0.0000 11.2182 3.4521 -78.3490 2.2815 9.4294 27.1479 0.0033 0.8282 -1.6977 0.3728 -3.9219 -10.8570 0.0000 0.0000 0.0000 23.3640 5.6528 17.9730 -9.4369 -17.0808 57.5891 -3.1909 12.4681 -32.2998 -0.0019 0.2783 -0.7648 6.4237 1.1850 20.7989 2.9971 2.1766 7.8929 -0.9150 0.7977 -2.8760 -4.3318 16.1743 -16.8770 9.0702 21.6386 31.3130 6.8253 10.2598 11.3442 0.0000 0.0000 0.0000 -23.4488 -58.9136 24.1984 11.3844 -18.8750 -1.8984 0.0000 0.0000 24.3148 0.0000 0.0000 0.0000 100.2244 27.4593 30.2534 -17.2861 27.2334 -4.2174 0.0000 0.0000 -36.7831
1.1588 15.2119 0.2820 4.0947 -0.6176 -38.8403 0.0000 0.0000 0.0000 12.9393 4.2199 -77.5030 1.9031 8.6613 24.7413 -0.0536 4.1202 -1.1185 0.2117 -2.9625 -8.1743 0.0000 0.0000 0.0000 20.9741 5.7987 17.7659 -9.5930 -17.1745 58.1192 -3.3499 12.8913 -33.1301 -0.0284 1.0871 -2.9886 6.6603 1.2606 21.4947 2.7706 2.2886 8.3230 -1.3224 0.8475 -2.7290 -4.2754 16.2187 -17.1484 8.5171 21.8652 30.6737 6.6318 10.3327 11.2232 0.0000 0.0000 0.0000 -13.3708 -53.6837 17.1561 10.9288 -18.1790 -1.7536 0.0000 0.0000 16.4077 0.0000 0.0000 0.0000 97.5961 24.3395 15.4572 -12.5103 20.5656 -2.2784 0.0000 0.0000 -30.3826
1.3776 15.1972 0.3211 4.2150 0.5455 -38.3016 0.0000 0.0000 0.0000 14.5674 4.8234 -75.9221 1.6129 8.0083 22.7393 -0.0496 3.9719 -0.9748 0.2199 -3.0189 -8.3314 0.0000 0.0000 0.0000 19.3568 5.7203 17.4454 -9.6257 -17.1939 58.2299 -3.5081 12.3234 -33.9087 -0.0824 1.8513 -5.0950 6.5748 1.5105 22.0282 2.7912 2.5877 8.6478 -1.3273 0.9864 -2.6283 -4.3983 16.0871 -17.5003 7.9514 21.8903 29.9375 6.4378 10.2993 11.0769 0.0000 0.0000 0.0000 -5.7865 -47.8672 13.7828 11.2250 -18.6323 -1.8472 0.0000 0.0000 13.4238 0.0000 0.0000 0.0000 93.4510 20.2993 -4.1379 -9.4346 15.8503 -1.3163 0.0000 0.0000 -21.6664
1.5853 15.1937 0.3422 3.5671 2.4821 -37.2221 0.0000 0.0000 0.0000 15.1844 5.1368 -74.3412 1.3693 7.4057 20.9230 -0.0478 3.8793 -1.5933 0.2580 -3.2682 -9.0262 0.0000 0.0000 0.0000 18.3326 5.2152 16.7078 -9.5672 -17.1592 58.0319 -3.6566 10.9772 -34.6457 -0.1523 2.5145 -6.9300 6.2398 1.5617 22.3055 3.0217 2.6018 8.7704 -0.9008 0.9792 -2.6650 -4.4311 16.0064 -17.8572 7.4511 21.9388 29.3130 6.2706 10.2874 10.9748 0.0000 0.0000 0.0000 0.4966 -40.9270 15.2879 11.6230 -19.2368 -1.9763 0.0000 0.0000 12.3474 0.0000 0.0000 0.0000 88.5542 15.6486 -27.6735 -7.6761 13.0264 -0.8777 0.0000 0.0000 -12.9299
1.8065 15.1860 0.3443 2.2684 4.8756 -35.7374 0.0000 0.0000 0.0000 15.3977 5.1464 -72.9114 1.2648 7.1288 20.0974 -0.1113 5.9261 -2.6975 0.2474 -3.2003 -8.8369 0.0000 0.0000 0.0000 17.7671 4.4047 15.4132 -9.5119 -17.1261 57.8440 -3.7913 9.1757 -35.3838 -0.2367 3.1313 -8.6446 6.1298 1.3614 22.4326 3.3543 2.3484 8.7530 -0.4264 0.8437 -2.7831 -4.4570 15.9079 -18.3144 6.8261 21.9966 28.6749 6.0763 10.2590 10.9056 0.0000 0.0000 0.0000 4.9289 -33.7594 17.3774 11.8416 -19.5666 -2.0489 0.0000 0.0000 11.0919 0.0000 0.0000 0.0000 83.6580 10.5025 -48.4572 -7.3970 12.5708 -0.8159 0.0000 0.0000 -7.8339
2.0433 15.1760 0.3340 0.7579 7.5423 -34.0164 0.0000 0.0000 0.0000 15.2982 5.1934 -71.5906 1.3158 7.2655 20.5044 -0.2332 8.5514 -3.8543 0.2283 -3.0753 -8.4884 0.0000 0.0000 0.0000 17.2041 3.4028 13.7556 -9.4599 -17.0948 57.6676 -3.9077 7.6025 -36.0860 -0.3016 3.5310 -9.7608 5.9636 1.0515 22.4933 3.7024 1.9519 8.6468 0.1327 0.6383 -2.9695 -4.5073 15.7830 -18.6678 5.9897 22.0556 27.6955 5.7777 10.2217 10.7181 0.0000 0.0000 0.0000 8.0004 -26.6401 20.1676 11.9027 -19.6585 -2.0694 0.0000 0.0000 6.5033 0.0000 0.0000 0.0000 79.0238 5.4091 -61.7931 -8.5848 14.4963 -1.0939 0.0000 0.0000 -13.8872
2.3027 15.1683 0.3160 -0.7614 10.5570 -31.9863 0.0000 0.0000 0.0000 14.9519 5.2999 -70.1816 1.4008 7.4870 21.1664 -0.2929 9.6147 -4.7937 0.2328 -3.1057 -8.5731 0.0000 0.0000 0.0000 16.2508 2.1050 11.6356 -9.3975 -17.0568 57.4549 -4.0081 6.4832 -36.7062 -0.3781 3.9491 -10.9336 5.6320 0.5982 22.4154 3.9955 1.3584 8.3476 0.7771 0.3414 -3.2999 -4.5690 15.7464 -18.9120 5.1133 22.2303 26.6178 5.4633 10.2396 10.4737 0.0000 0.0000 0.0000 10.0259 -19.2673 23.4043 11.9571 -19.7403 -2.0878 0.0000 0.0000 3.4574 0.0000 0.0000 0.0000 73.7284 0.9027 -69.8242 -10.4137 17.3841 -1.5963 0.0000 0.0000 -27.9790
2.5928 15.1575 0.3025 -2.4373 13.7848 -29.7094 0.0000 0.0000 0.0000 14.6674 5.5336 -68.7338 1.4723 7.6675 21.7086 -0.3082 9.9559 -5.6242 0.2708 -3.3476 -9.2481 0.0000 0.0000 0.0000 15.2661 0.5955 9.1897 -9.3229 -17.0111 57.2003 -4.0997 5.7378 -37.2525 -0.4573 4.3381 -12.0300 5.2799 -0.0205 22.1575 4.2971 0.5880 7.7156 1.4917 -0.0311 -3.8901 -4.6080 15.7335 -18.8034 4.3033 22.3696 25.4635 5.1256 10.2666 10.1368 0.0000 0.0000 0.0000 10.7581 -11.9123 24.3430 11.8179 -19.5310 -2.0410 0.0000 0.0000 6.2725 0.0000 0.0000 0.0000 67.7766 -2.6609 -75.7745 -12.5531 20.6290 -2.2934 0.0000 0.0000 -36.4385
2.9162 15.1454 0.3097 -4.1153 17.1653 -27.4270 0.0000 0.0000 0.0000 14.3139 6.0725 -67.3648 1.5935 7.9624 22.5999 -0.3516 10.7423 -6.6538 0.3069 -3.5615 -9.8461 0.0000 0.0000 0.0000 14.4178 -0.9352 6.9855 -9.1876 -16.9269 56.7367 -4.1752 4.8203 -37.7610 -0.5663 4.8198 -13.3954 4.7334 -0.7264 21.6420 4.6203 -0.3285 6.9043 2.3816 -0.4630 -4.5220 -4.9477 15.6745 -18.6897 4.0330 22.3884 24.5776 4.9968 10.2753 9.7942 0.0000 0.0000 0.0000 10.7356 -4.7085 24.5559 11.6040 -19.2081 -1.9701 0.0000 0.0000 9.2327 0.0000 0.0000 0.0000 60.9417 -5.7330 -77.8569 -14.7464 23.7916 -3.1229 0.0000 0.0000 -42.2507
3.2844 15.1268 0.3362 -5.7707 20.5883 -25.2867 0.0000 0.0000 0.0000 13.8203 7.1319 -66.1581 1.7862 8.4057 23.9534 -0.4200 11.7836 -7.5573 0.2828 -3.4205 -9.4516 0.0000 0.0000 0.0000 13.8178 -2.2868 5.3040 -8.9780 -16.7936 56.0141 -4.2229 3.5557 -38.2219 -0.7233 5.4343 -15.1516 4.0695 -1.5629 21.0014 4.9283 -1.4402 5.9693 3.3748 -0.9776 -5.1804 -5.4377 15.6728 -18.7046 3.9644 22.5022 23.9950 4.9920 10.3205 9.5349 0.0000 0.0000 0.0000 9.8200 2.3874 24.1518 11.2516 -18.6729 -1.8557 0.0000 0.0000 12.0834 0.0000 0.0000 0.0000 53.0983 -8.0856 -78.5696 -17.2983 27.2493 -4.2230 0.0000 0.0000 -48.2795
3.7045 15.0924 0.3716 -7.4629 24.0506 -23.5742 0.0000 0.0000 0.0000 13.6445 8.2657 -64.5965 1.9944 8.8544 25.3409 -0.5046 12.8364 -8.0199 0.2557 -3.2532 -8.9846 0.0000 0.0000 0.0000 13.4217 -3.5562 4.2478 -8.7356 -16.6345 55.1712 -4.2307 1.7850 -38.6493 -0.9387 6.1711 -17.2815 3.6887 -2.3419 20.5986 5.0286 -2.3983 4.8813 3.9656 -1.4011 -6.1090 -5.5981 15.5387 -18.8417 4.1286 22.3199 23.9488 5.0507 10.2455 9.5107 0.0000 0.0000 0.0000 8.7266 8.5575 24.2457 11.0130 -18.3082 -1.7800 0.0000 0.0000 15.2076 0.0000 0.0000 0.0000 45.3936 -10.8540 -77.0941 -20.3467 31.0578 -5.7092 0.0000 0.0000 -52.2732
4.1857 15.0507 0.4112 -8.5047 27.6645 -21.8889 0.0000 0.0000 0.0000 13.3266 9.3791 -62.7271 2.2484 9.3653 26.9448 -0.5579 13.5370 -8.6945 0.2089 -2.9426 -8.1189 0.0000 0.0000 0.0000 12.3315 -4.6960 3.8262 -8.4316 -16.4277 54.1027 -4.1951 -0.0206 -38.9542 -1.1200 6.7227 -18.8963 2.9610 -2.8762 20.0314 4.8759 -3.1415 3.8328 4.4164 -1.7021 -6.8964 -5.8326 15.3011 -18.9563 4.3928 21.9818 23.7708 5.1202 10.1164 9.4233 0.0000 0.0000 0.0000 6.8679 13.6862 23.7354 10.8577 -18.0698 -1.7315 0.0000 0.0000 18.2744 0.0000 0.0000 0.0000 38.0094 -14.3958 -73.7413 -24.0208 35.1862 -7.7185 0.0000 0.0000 -51.9568
4.7448 14.9993 0.4488 -8.9637 31.1725 -20.0580 0.0000 0.0000 0.0000 13.0459 10.5707 -60.6900 2.5466 9.9221 28.7249 -0.6019 14.1425 -9.4485 0.1341 -2.3600 -6.5015 0.0000 0.0000 0.0000 10.7096 -5.3513 4.0483 -8.0759 -16.1748 52.8357 -4.0332 -1.9965 -38.7962 -1.3610 7.3841 -20.8585 2.0623 -3.2156 19.1383 4.5726 -3.7103 2.8671 4.7241 -1.9116 -7.4089 -6.0543 15.1798 -19.0471 4.5806 21.8211 23.5278 5.1745 10.0652 9.3119 0.0000 0.0000 0.0000 3.2250 18.4622 21.6215 10.5983 -17.6700 -1.6519 0.0000 0.0000 20.9969 0.0000 0.0000 0.0000 30.5855 -18.4822 -68.4023 -28.3099 39.4000 -10.3198 0.0000 0.0000 -46.7128
5.3683 14.9268 0.4650 -9.6781 34.8461 -18.2947 0.0000 0.0000 0.0000 12.9218 11.4725 -58.7401 2.7130 10.2153 29.6768 -0.7202 15.1786 -9.1393 0.0867 -1.8989 -5.2263 0.0000 0.0000 0.0000 9.4714 -5.2407 4.5161 -7.8112 -15.9787 51.8799 -3.6908 -3.9264 -37.8408 -1.6612 8.1216 -23.0839 1.6016 -3.7299 18.1008 4.2735 -4.4417 1.8807 4.8111 -2.2126 -7.8661 -6.2258 15.1924 -19.0622 4.6510 21.8478 23.1002 5.1822 10.1031 9.1336 0.0000 0.0000 0.0000 -2.2101 23.4741 18.0640 10.3212 -17.2404 -1.5688 0.0000 0.0000 21.4403 0.0000 0.0000 0.0000 23.0003 -21.9495 -62.0478 -33.4781 43.6943 -13.7513 0.0000 0.0000 -38.4792
6.0740 14.8357 0.4622 -10.6459 38.7416 -16.7599 0.0000 0.0000 0.0000 12.0196 12.9597 -57.9478 2.9395 10.5965 30.9307 -0.8184 15.8942 -8.0360 0.0126 -0.7261 -1.9954 0.0000 0.0000 0.0000 8.3442 -4.7053 5.4871 -7.5672 -15.7915 50.9883 -3.2003 -5.2256 -35.9119 -2.0614 8.9929 -25.7732 1.5269 -4.3122 16.8694 3.9686 -5.2131 0.8972 4.6562 -2.5526 -8.2334 -6.2911 15.1472 -19.1635 4.8035 21.7708 23.0289 5.2317 10.0857 9.1029 0.0000 0.0000 0.0000 -10.2984 27.6864 9.9597 9.8070 -16.4371 -1.4198 0.0000 0.0000 20.3479 0.0000 0.0000 0.0000 15.1233 -24.2320 -56.0525 -39.1024 47.5290 -17.7743 0.0000 0.0000 -32.3651
6.8675 14.7135 0.4350 -12.3467 42.9440 -15.9768 0.0000 0.0000 0.0000 9.9203 15.5771 -59.5315 3.6124 11.6259 34.4212 -0.7686 15.3050 -5.5430 0.0115 0.6934 1.9056 0.0000 0.0000 0.0000 7.4436 -4.5694 7.0329 -7.2879 -15.5696 49.9549 -2.5677 -5.8937 -32.7871 -2.6576 10.1190 -29.3629 1.9184 -4.7237 15.6065 3.7757 -5.6905 0.0013 4.2771 -2.7791 -8.5364 -6.2866 14.9373 -19.4439 4.9841 21.4640 23.1375 5.2957 9.9560 9.1856 0.0000 0.0000 0.0000 -21.0948 30.6009 0.0227 9.4780 -15.9190 -1.3282 0.0000 0.0000 16.9360 0.0000 0.0000 0.0000 6.3994 -25.1565 -50.9299 -43.2397 49.8764 -20.8839 0.0000 0.0000 -31.0094
7.7378 14.5685 0.3807 -15.8011 47.4029 -16.5977 0.0000 0.0000 0.0000 8.7901 17.3010 -62.0887 4.6962 13.0333 39.4931 -0.7329 15.3611 -1.9533 0.2485 3.2074 8.8568 0.0000 0.0000 0.0000 7.8144 -4.3445 8.9056 -7.0083 -15.3389 48.9057 -1.7317 -6.4711 -27.8996 -3.4464 11.3849 -33.5892 2.6281 -4.8687 14.5754 3.9914 -5.7354 -1.0626 4.1045 -2.8087 -9.1652 -5.9633 14.8013 -19.6179 5.2335 21.1495 23.3653 5.3437 9.8538 9.3191 0.0000 0.0000 0.0000 -34.2032 32.1943 -9.1294 9.5646 -16.0556 -1.3520 0.0000 0.0000 10.2276 0.0000 0.0000 0.0000 -2.5266 -23.0213 -48.5306 -44.2405 50.3910 -21.6521 0.0000 0.0000 -28.3505
8.6923 14.4284 0.3254 -22.7171 52.9858 -19.5430 0.0000 0.0000 0.0000 7.8211 17.3691 -66.5346 5.9563 14.3859 44.8062 -0.6267 14.9328 0.4280 0.4680 4.3878 12.1702 0.0000 0.0000 0.0000 10.7797 -3.7227 10.9820 -6.5162 -14.9105 47.0197 -0.7095 -7.8107 -20.6136 -4.2250 12.4540 -37.3574 3.4152 -4.5556 12.8786 4.8505 -5.1531 -2.5858 4.4266 -2.5417 -9.8853 -5.4225 14.1795 -19.9271 5.5214 20.1085 23.9355 5.3539 9.4165 9.6660 0.0000 0.0000 0.0000 -48.5002 31.2033 -14.2241 10.6986 -17.8249 -1.6825 0.0000 0.0000 -0.8234 0.0000 0.0000 0.0000 -10.5456 -17.6248 -52.8576 -41.7501 49.0732 -19.7515 0.0000 0.0000 -22.2907
9.6955 14.2589 0.2929 -35.5515 61.0934 -28.1826 0.0000 0.0000 0.0000 5.3534 14.0743 -72.3533 7.2369 15.5282 49.7648 -0.4986 14.0569 1.9153 0.4135 4.1277 11.4361 0.0000 0.0000 0.0000 15.9415 -3.6284 14.1636 -5.4295 -13.8517 42.6466 0.2981 -10.7916 -9.1775 -4.4329 12.7152 -38.3115 3.1897 -3.7414 11.3022 5.4113 -4.0681 -4.3907 4.9439 -1.9757 -10.9584 -4.5427 12.5303 -20.7080 7.1580 17.1572 24.2821 5.5769 8.3363 10.0314 0.0000 0.0000 0.0000 -61.0953 26.9122 -15.4840 13.5337 -22.0641 -2.6504 0.0000 0.0000 -8.3875 0.0000 0.0000 0.0000 -15.8446 -10.9285 -65.6598 -39.9376 48.0329 -18.3928 0.0000 0.0000 -19.7447
10.6420 14.0388 0.2805 -64.3686 69.6227 -54.0419 0.0000 0.0000 0.0000 2.1331 6.8140 -78.5088 8.3199 16.3496 53.7070 -0.1122 11.6379 6.4369 0.3859 3.9891 11.0460 0.0000 0.0000 0.0000 22.8812 -5.2139 17.7949 -4.0738 -12.2580 36.6509 0.1055 -14.0184 8.5315 -3.5834 11.5844 -34.2773 2.4156 -2.7072 12.7098 4.6958 -2.6950 -5.9252 4.5312 -1.2246 -13.6385 -3.7990 9.4686 -21.9648 11.0107 11.6277 23.3572 6.2195 6.4060 10.1092 0.0000 0.0000 0.0000 -68.6165 19.0742 -12.8871 15.9297 -25.4252 -3.6157 0.0000 0.0000 -10.2974 0.0000 0.0000 0.0000 -17.7304 -4.8750 -84.4920 -44.1060 50.3229 -21.5485 0.0000 0.0000 -21.8566
11.3233 13.7554 0.3554 -115.9603 70.3781 -104.3349 0.0000 0.0000 0.0000 -0.2228 -5.2810 -82.7916 9.6524 17.2097 58.3202 0.2144 5.0206 8.4296 0.5218 4.6293 12.8541 0.0000 0.0000 0.0000 30.4026 -8.6708 17.1707 -4.1370 -12.3405 36.9475 -1.5504 -8.4026 22.2922 -2.4603 9.7653 -28.2199 1.3518 -1.6164 18.3647 2.9126 -1.3979 -5.9386 3.0788 -0.5390 -17.2736 -5.5824 4.7074 -22.9305 15.8991 4.7051 18.7946 7.2188 3.6787 9.1541 0.0000 0.0000 0.0000 -72.9193 6.3105 -6.6505 16.5139 -26.2126 -3.8702 0.0000 0.0000 -13.4430 0.0000 0.0000 0.0000 -17.8935 1.8396 -106.3877 -58.1355 55.7923 -32.7943 0.0000 0.0000 -22.4656
11.7448 13.6122 0.5535 -147.1747 64.2309 -134.8744 0.0000 0.0000 0.0000 -3.0031 -16.6856 -82.1900 10.0631 17.4452 59.6992 0.3014 2.6847 9.7907 0.6784 5.2665 14.6702 0.0000 0.0000 0.0000 34.2763 -9.4594 10.2506 -6.5266 -14.9199 47.0601 -1.6269 -2.2616 23.5018 -0.8815 5.9854 -16.7419 -0.2225 0.2828 24.9768 0.7004 0.4361 -4.2682 0.7350 0.2598 -18.5623 -9.7179 -0.3514 -20.9001 20.2359 -0.7387 9.5835 8.3373 1.0126 6.5413 0.0000 0.0000 0.0000 -78.1183 -8.0291 1.4887 15.8087 -25.2606 -3.5639 0.0000 0.0000 -12.5687 0.0000 0.0000 0.0000 -16.4350 14.1680 -122.6056 -76.1204 59.2594 -48.0098 0.0000 0.0000 -26.7431
12.0034 13.7751 0.7676 -157.6785 61.7299 -144.7409 0.0000 0.0000 0.0000 -6.5487 -19.8857 -79.6195 9.4264 17.0744 57.5535 0.3312 1.0617 10.5506 0.7017 5.3543 14.9218 0.0000 0.0000 0.0000 33.4848 -6.7182 1.0003 -10.3325 -17.5926 60.5941 -1.1119 -0.4069 19.8078 -0.5873 4.9066 -13.6424 -1.0154 3.0156 29.8227 -1.2266 3.3621 -0.8164 -2.1908 1.4676 -16.7467 -14.2272 -4.5464 -17.0429 22.9082 -4.3395 -1.2687 9.4019 -1.2013 3.4530 0.0000 0.0000 0.0000 -83.8281 -17.5589 11.9598 17.6608 -27.7206 -4.3903 0.0000 0.0000 -8.6958 0.0000 0.0000 0.0000 -12.6171 28.8517 -120.3213 -51.1085 53.4329 -27.0620 0.0000 0.0000 -22.6405
12.3031 14.2313 1.0030 -162.2636 61.6289 -148.4054 0.0000 0.0000 0.0000 -11.1478 -17.1629 -76.2766 8.1610 16.2364 53.1406 0.2498 -2.2412 10.5377 0.6613 5.2010 14.4828 0.0000 0.0000 0.0000 31.2841 -5.6084 -6.8377 -12.9695 -18.7711 69.0308 -0.6761 -6.0495 14.6635 -0.0745 1.7605 -4.8443 -1.7448 5.2086 34.3527 -2.8446 5.4796 2.0237 -4.5432 2.3879 -15.2040 -16.0095 -7.4816 -12.9469 23.6043 -7.3320 -9.5476 9.7350 -3.1228 1.1141 0.0000 0.0000 0.0000 -85.7813 -19.4395 23.6755 23.3263 -34.4437 -7.3220 0.0000 0.0000 -9.9967 0.0000 0.0000 0.0000 -11.2899 35.7605 -68.0317 -18.2094 28.4244 -4.6485 0.0000 0.0000 -29.7693
12.7462 14.7694 1.2178 -163.3980 59.2276 -148.8389 0.0000 0.0000 0.0000 -13.5227 -14.3630 -72.8576 6.8937 15.2417 48.4710 0.0803 -5.9091 10.3825 0.6006 4.9609 13.7971 0.0000 0.0000 0.0000 31.4506 -9.5099 -10.2502 -12.8915 -18.7427 68.7883 0.2496 -12.9855 5.4345 -0.0019 0.2818 -0.7742 -0.4549 5.0820 39.1637 -3.2206 5.5849 3.2968 -5.8917 2.3288 -15.2934 -16.8525 -9.0477 -9.1381 24.0572 -9.1747 -15.0126 10.1244 -4.3839 -0.6024 0.0000 0.0000 0.0000 -84.0697 -14.6603 29.7092 30.6536 -41.4471 -11.8399 0.0000 0.0000 -7.6315 0.0000 0.0000 0.0000 -12.9611 46.2717 14.0255 -24.5693 35.7605 -8.0368 0.0000 0.0000 6.8740
13.3502 15.2413 1.4178 -163.9525 55.5861 -147.6535 0.0000 0.0000 0.0000 -12.9086 -13.8969 -71.0204 6.0755 14.5011 45.2838 -0.0643 -8.1524 10.2056 0.5895 4.9158 13.6686 0.0000 0.0000 0.0000 32.3766 -14.7056 -9.8168 -10.8099 -17.8408 62.1626 0.4413 -13.6751 2.5870 -0.0124 -0.7202 1.9791 0.7557 4.7743 41.1332 -3.1236 5.6980 3.9020 -6.5348 2.3204 -15.1699 -17.0085 -10.8065 -6.7721 26.3354 -11.4302 -18.0543 10.9297 -5.8183 -1.1428 0.0000 0.0000 0.0000 -82.2726 -9.7566 29.3032 34.1490 -44.1948 -14.2169 0.0000 0.0000 -1.0901 0.0000 0.0000 0.0000 16.3865 74.4543 32.9019 -23.7497 34.8984 -7.5629 0.0000 0.0000 0.4613
13.9700 15.5334 1.5951 -163.9890 51.0424 -143.7865 0.0000 0.0000 0.0000 -9.0188 -16.0445 -72.8866 5.7320 14.1635 43.8964 -0.1187 -8.8552 10.0698 0.5099 4.5770 12.7059 0.0000 0.0000 0.0000 34.0575 -17.6136 -8.9572 -8.5331 -16.4977 54.4610 -0.0006 -10.2890 7.2233 -0.0143 -0.7728 2.1238 2.0093 6.3351 38.9035 -1.5250 8.4633 4.2785 -6.4495 3.5664 -13.7291 -16.9002 -13.3679 -3.7695 28.3530 -14.6547 -22.5754 11.6481 -7.8709 -1.9935 0.0000 0.0000 0.0000 -82.8133 -8.9676 30.6872 32.2303 -42.7300 -12.8968 0.0000 0.0000 0.1620 0.0000 0.0000 0.0000 118.8446 68.9500 104.7700 -20.1878 30.8680 -5.6274 0.0000 0.0000 -14.7356
14.5336 15.7075 1.7585 -165.9467 45.3403 -140.7106 0.0000 0.0000 0.0000 -6.2852 -18.7831 -76.2262 5.3412 13.7580 42.2768 -0.2602 -11.0477 10.8887 0.4995 4.5311 12.5759 0.0000 0.0000 0.0000 35.3785 -19.4533 -9.0084 -7.0457 -15.3702 49.0469 -0.4560 -7.5438 12.3560 -0.0379 -1.2568 3.4556 3.1764 7.8457 35.3674 0.8335 11.1704 4.2093 -5.3407 4.8305 -12.6081 -17.4137 -15.4202 -0.0954 29.8166 -17.2662 -27.4548 12.5601 -9.5948 -3.1784 0.0000 0.0000 0.0000 -83.8774 -8.1650 31.4330 29.9259 -40.8298 -11.3611 0.0000 0.0000 -0.5081 0.0000 0.0000 0.0000 133.6860 53.7814 109.2951 -14.9722 24.1074 -3.2146 0.0000 0.0000 -8.4042
15.0337 15.8349 1.9010 -169.6382 39.3703 -139.6169 0.0000 0.0000 0.0000 -6.6567 -21.3646 -78.4357 4.7758 13.1268 39.8451 -0.5714 -14.9011 12.8285 0.6742 5.2506 14.6248 0.0000 0.0000 0.0000 35.3961 -20.2310 -8.9487 -6.3819 -14.7885 46.4957 -0.5585 -8.0669 13.6266 -0.0610 -1.5935 4.3835 3.9831 7.9735 32.1050 2.3920 11.8135 3.9290 -4.0440 5.2001 -11.7680 -17.0325 -16.7489 2.5291 30.7690 -18.9975 -30.3493 13.1213 -10.8083 -3.9717 0.0000 0.0000 0.0000 -83.2303 -6.5615 28.2518 28.7937 -39.8367 -10.6283 0.0000 0.0000 2.1250 0.0000 0.0000 0.0000 131.0982 43.1841 120.9407 -15.3112 24.5778 -3.3543 0.0000 0.0000 -8.6895
15.4701 15.9655 1.9961 -171.8430 35.2786 -139.7013 0.0000 0.0000 0.0000 -7.3259 -22.6024 -78.1894 4.3947 12.6679 38.1377 -0.8833 -17.7210 13.9505 0.7918 5.6800 15.8587 0.0000 0.0000 0.0000 33.7309 -18.0157 -5.7524 -6.1539 -14.5758 45.5963 -0.4423 -9.9139 12.8253 -0.0494 -1.4339 3.9435 4.8247 8.0330 30.7582 3.1349 12.2091 4.3585 -3.8708 5.4017 -11.4654 -16.2262 -17.8182 4.3862 31.6983 -20.3522 -31.8025 13.4749 -11.8157 -4.3506 0.0000 0.0000 0.0000 -81.2961 -5.1324 23.8867 28.5104 -39.5819 -10.4473 0.0000 0.0000 2.9550 0.0000 0.0000 0.0000 125.7897 35.7698 133.7101 -20.6923 31.4674 -5.8885 0.0000 0.0000 -15.3293
15.8242 16.1101 2.0498 -172.3028 33.4638 -139.0642 0.0000 0.0000 0.0000 -6.1797 -22.9002 -77.8381 4.1371 12.3406 36.9478 -0.9717 -18.3231 13.8807 0.7337 5.4726 15.2614 0.0000 0.0000 0.0000 31.3374 -12.4136 -2.5533 -6.4364 -14.8383 46.7091 -0.5086 -10.6716 13.7713 -0.0722 -1.7333 4.7691 5.1453 8.3771 29.4684 3.1003 12.6746 4.3634 -4.0507 5.6679 -10.7043 -15.5245 -18.4821 5.4717 32.5463 -21.1457 -32.1394 13.6947 -12.4657 -4.3934 0.0000 0.0000 0.0000 -79.2098 -3.5468 18.9101 29.0526 -40.0673 -10.7945 0.0000 0.0000 -0.6137 0.0000 0.0000 0.0000 121.3099 30.4321 142.1157 -26.9100 38.0932 -9.4435 0.0000 0.0000 -6.8180
16.0997 16.2536 2.0997 -172.0051 32.7235 -138.1463 0.0000 0.0000 0.0000 -4.0868 -22.9281 -77.4192 3.8686 11.9835 35.6737 -0.8745 -17.5150 13.4907 0.6143 5.0163 13.9552 0.0000 0.0000 0.0000 28.7824 -6.2033 -0.7687 -7.1468 -15.4543 49.4274 -0.4767 -12.6970 14.1924 -0.4445 -4.2779 11.8599 4.7923 8.6627 27.7156 3.0383 12.8431 4.3099 -3.7286 5.8299 -9.9329 -15.4296 -18.6709 5.9349 33.0090 -21.4491 -31.5849 13.7599 -12.7060 -4.1619 0.0000 0.0000 0.0000 -78.0468 -0.8409 14.0648 30.8620 -41.6209 -11.9781 0.0000 0.0000 -7.1136 0.0000 0.0000 0.0000 115.8233 26.1029 143.0050 -33.8337 43.9611 -13.9975 0.0000 0.0000 3.6207
16.3178 16.3857 2.1483 -171.0462 32.3674 -137.8069 0.0000 0.0000 0.0000 -1.6837 -22.7127 -76.1860 3.6801 11.7221 34.7559 -0.7239 -16.1328 12.7422 0.4848 4.4649 12.3885 0.0000 0.0000 0.0000 26.0463 -1.9913 0.0942 -7.9984 -16.1181 52.5570 0.0662 -17.0445 11.3229 -0.9286 -6.1388 17.1876 4.5507 8.6525 26.2987 3.0867 12.7045 4.3489 -3.2859 5.8374 -9.2438 -15.7906 -18.5590 5.9823 33.3707 -21.4155 -30.6780 13.8115 -12.6794 -3.7890 0.0000 0.0000 0.0000 -77.5637 2.3935 9.9326 32.9658 -43.3038 -13.3986 0.0000 0.0000 -13.8668 0.0000 0.0000 0.0000 109.2773 23.4676 141.5527 -42.0442 49.2354 -19.9740 0.0000 0.0000 -4.0116
16.4931 16.5075 2.1950 -169.6248 32.5137 -138.3314 0.0000 0.0000 0.0000 0.3140 -22.0979 -73.8706 3.5818 11.5821 34.2691 -0.5890 -14.6770 11.7506 0.3600 3.8546 10.6679 0.0000 0.0000 0.0000 22.6810 -0.6328 0.1580 -8.7138 -16.6200 55.0949 0.8558 -20.8210 6.4687 -1.2772 -7.1622 20.1967 4.4001 8.4715 25.8443 3.0180 12.4080 4.3915 -3.1181 5.7268 -8.9977 -16.2047 -18.3752 5.6199 33.9983 -21.2256 -29.5795 13.9109 -12.5611 -3.2737 0.0000 0.0000 0.0000 -77.3293 5.5517 6.9503 34.5400 -44.4809 -14.4901 0.0000 0.0000 -18.6852 0.0000 0.0000 0.0000 101.9040 22.1718 136.9901 -50.6336 53.2479 -26.6810 0.0000 0.0000 -13.9806
16.6375 16.6225 2.2568 -167.8753 32.9907 -139.3764 0.0000 0.0000 0.0000 1.9170 -21.1904 -70.6974 3.4681 11.4168 33.6989 -0.4729 -13.3014 10.8785 0.2431 3.1729 8.7606 0.0000 0.0000 0.0000 19.1599 -1.4982 -0.9597 -9.1920 -16.9297 56.7518 1.3711 -22.3748 2.0023 -1.5704 -7.9073 22.4329 4.3136 8.1541 26.2242 2.8326 11.9924 4.2710 -3.2144 5.5134 -9.3273 -16.7242 -18.1936 4.9144 34.8970 -21.0181 -28.3105 14.0623 -12.4120 -2.5959 0.0000 0.0000 0.0000 -77.2997 8.7238 5.3302 35.3422 -45.0549 -15.0550 0.0000 0.0000 -19.3013 0.0000 0.0000 0.0000 94.3305 21.2633 128.4595 -53.2774 54.2347 -28.8130 0.0000 0.0000 -7.1545
16.7623 16.7412 2.3529 -166.2327 33.5717 -140.6068 0.0000 0.0000 0.0000 3.4873 -20.5444 -67.2702 3.3250 11.2035 32.9694 -0.3431 -11.6855 10.1637 0.1501 2.4965 6.8801 0.0000 0.0000 0.0000 16.3154 -3.2048 -3.3457 -9.5149 -17.1279 57.8543 1.4076 -21.3168 -1.5311 -1.2882 -7.1917 20.2846 4.0890 7.8474 26.5546 2.6161 11.5492 4.0946 -3.2571 5.2883 -9.7190 -17.1976 -18.0079 4.1525 35.8091 -20.8098 -27.0833 14.2352 -12.2476 -1.9317 0.0000 0.0000 0.0000 -77.4595 11.1416 5.3103 35.0364 -44.8381 -14.8390 0.0000 0.0000 -17.8188 0.0000 0.0000 0.0000 87.3662 20.4770 115.8307 -50.1692 53.0635 -26.3093 0.0000 0.0000 -4.4414
16.8688 16.8045 2.5136 -164.8409 34.2310 -142.0082 0.0000 0.0000 0.0000 4.9636 -20.0726 -64.2891 3.2689 11.1182 32.6794 -0.2349 -10.1659 9.5832 0.0818 1.8447 5.0768 0.0000 0.0000 0.0000 14.5426 -5.1039 -6.5136 -9.7685 -17.2776 58.7118 0.9584 -17.0780 -4.9271 -0.7030 -5.3592 14.9359 3.2856 7.5078 26.4134 2.6538 10.9036 4.1071 -2.5675 5.0181 -9.8295 -17.7325 -17.6284 3.4511 36.3861 -20.3693 -26.0556 14.4161 -11.9296 -1.4544 0.0000 0.0000 0.0000 -78.4662 12.3617 5.6744 33.8717 -43.9895 -14.0239 0.0000 0.0000 -18.3937 0.0000 0.0000 0.0000 82.3569 20.0770 100.5720 -43.2219 49.8670 -20.8702 0.0000 0.0000 -15.4577
16.9677 16.8314 2.7053 -163.3040 35.3143 -143.6425 0.0000 0.0000 0.0000 6.7007 -19.8859 -61.1478 3.3255 11.2042 32.9716 -0.1168 -8.0724 8.6429 0.0277 1.0735 2.9512 0.0000 0.0000 0.0000 14.0190 -6.5215 -9.4655 -9.7156 -17.2468 58.5335 0.3641 -11.1520 -7.7388 -0.2020 -2.8938 7.9832 2.4037 7.2065 26.4094 2.5640 10.2770 4.0514 -1.9949 4.7506 -10.0551 -18.0845 -17.2203 2.8348 36.7463 -20.0044 -24.5531 14.4711 -11.6261 -0.9125 0.0000 0.0000 0.0000 -79.4402 12.9853 6.7856 32.7642 -43.1480 -13.2605 0.0000 0.0000 -23.5658 0.0000 0.0000 0.0000 81.0663 20.3196 82.2323 -33.6478 43.8221 -13.8686 0.0000 0.0000 -19.5849
17.0542 16.8216 2.9311 -162.0526 36.6244 -145.4467 0.0000 0.0000 0.0000 7.8844 -19.5602 -58.2290 3.4236 11.3511 33.4733 -0.0459 -6.4413 7.8833 0.0035 0.3818 1.0490 0.0000 0.0000 0.0000 14.5251 -7.7285 -12.4790 -9.4059 -17.0619 57.4834 -0.1615 -4.3503 -10.4488 0.0000 -0.0454 0.1247 1.5421 6.9230 26.3201 2.2859 9.6562 3.8731 -1.6299 4.4817 -10.3188 -18.2787 -16.9247 2.0333 36.9179 -19.9012 -22.5248 14.3321 -11.4040 -0.1871 0.0000 0.0000 0.0000 -80.3333 12.8276 8.7951 31.7054 -42.3111 -12.5421 0.0000 0.0000 -30.2147 0.0000 0.0000 0.0000 82.2585 21.2935 59.8138 -26.8575 38.0430 -9.4112 0.0000 0.0000 -14.4082
17.1189 16.7761 3.2158 -161.5309 37.3733 -147.5083 0.0000 0.0000 0.0000 8.3490 -19.1141 -56.0869 3.5224 11.4961 33.9719 -0.0362 -6.1152 7.6541 0.0004 -0.1223 -0.3361 0.0000 0.0000 0.0000 16.1910 -9.4147 -15.8637 -8.9219 -16.7572 55.8196 -0.5212 2.3733 -13.0288 -0.2317 3.0983 -8.5525 0.8157 6.4097 26.1974 2.0011 8.7811 3.5443 -1.2595 4.0898 -10.7044 -18.4048 -16.7486 0.9072 37.0198 -20.0243 -20.1462 14.0734 -11.2388 0.7236 0.0000 0.0000 0.0000 -81.3276 12.0953 11.5763 31.0654 -41.7893 -12.1134 0.0000 0.0000 -33.2344 0.0000 0.0000 0.0000 82.1384 22.6355 40.8337 -26.4468 37.6465 -9.1592 0.0000 0.0000 -17.7237
17.1720 16.6913 3.4937 -161.0372 38.3897 -150.1047 0.0000 0.0000 0.0000 8.6864 -18.9334 -53.6021 3.7441 11.8119 35.0698 -0.0259 -5.5386 7.0665 0.0107 -0.6673 -1.8338 0.0000 0.0000 0.0000 18.4777 -11.2021 -18.2721 -8.1959 -16.2615 53.2654 -0.7086 7.9934 -15.1826 -0.7090 5.3813 -14.9995 0.4159 5.9460 26.2115 1.6437 8.0399 3.3980 -1.1892 3.7531 -10.8818 -18.3754 -16.6454 -0.1882 36.9842 -20.3065 -17.6557 13.7409 -11.1368 1.6539 0.0000 0.0000 0.0000 -82.6861 11.1261 13.9771 31.9192 -42.4827 -12.6863 0.0000 0.0000 -33.0984 0.0000 0.0000 0.0000 79.4128 23.8506 32.4425 -29.0191 40.0377 -10.7730 0.0000 0.0000 -25.8737
17.2163 16.5491 3.7990 -160.8064 39.3980 -152.9896 0.0000 0.0000 0.0000 8.9112 -18.8391 -51.5470 4.1044 12.2981 36.7948 -0.0321 -5.2654 6.3856 0.0315 -1.1458 -3.1501 0.0000 0.0000 0.0000 21.1762 -12.7265 -20.0712 -7.5592 -15.7853 50.9591 -0.9603 10.7038 -17.9360 -1.2573 7.1084 -20.0370 0.1800 5.4400 25.9919 1.3216 7.2889 3.3663 -1.1366 3.4157 -10.7889 -18.5550 -16.4281 -0.8960 36.6373 -20.5201 -15.1236 13.4258 -11.0006 2.4805 0.0000 0.0000 0.0000 -84.3638 9.7685 15.8174 34.1698 -44.2101 -14.2313 0.0000 0.0000 -32.7410 0.0000 0.0000 0.0000 75.6518 25.0740 31.2129 -30.2916 41.1420 -11.6010 0.0000 0.0000 -19.5596
17.2375 16.4152 4.1283 -160.8829 40.6688 -156.1958 0.0000 0.0000 0.0000 8.8126 -18.8133 -48.9992 4.3370 12.5958 37.8739 -0.0236 -4.8612 6.0558 0.0621 -1.6081 -4.4237 0.0000 0.0000 0.0000 23.5068 -13.3769 -20.3918 -7.4066 -15.6649 50.3959 -1.5618 7.6283 -22.3709 -1.3586 7.3780 -20.8401 0.1025 5.0268 25.6836 0.9592 6.6965 3.3364 -1.2668 3.1449 -10.6245 -18.9393 -16.0666 -0.9573 35.7857 -20.6334 -12.4636 13.0798 -10.8452 3.1402 0.0000 0.0000 0.0000 -85.8698 7.6842 17.8387 36.5697 -45.9010 -15.9302 0.0000 0.0000 -31.9505 0.0000 0.0000 0.0000 72.4126 26.0722 32.2106 -31.4185 42.0786 -12.3494 0.0000 0.0000 -11.6389
17.2268 16.3188 4.4799 -161.1617 42.3603 -159.3730 0.0000 0.0000 0.0000 8.5468 -18.8657 -45.8005 4.3088 12.5603 37.7442 0.0203 -3.8323 6.2749 0.0980 -2.0186 -5.5570 0.0000 0.0000 0.0000 24.6380 -12.1517 -18.6542 -7.9070 -16.0504 52.2270 -2.0344 1.0909 -26.6838 -1.5228 7.7919 -22.0839 0.1710 4.8182 25.1530 0.6345 6.4140 3.2347 -1.5300 3.0133 -10.4148 -19.4616 -15.7107 -0.5283 34.2987 -20.8167 -9.6068 12.5765 -10.7550 3.6999 0.0000 0.0000 0.0000 -87.1118 4.9874 20.7495 38.7086 -47.2859 -17.4843 0.0000 0.0000 -31.2912 0.0000 0.0000 0.0000 70.1095 26.6403 34.6242 -34.7981 44.6674 -14.6712 0.0000 0.0000 -16.2805
17.1966 16.2439 4.8260 -161.1396 44.1377 -161.7316 0.0000 0.0000 0.0000 8.8001 -19.0420 -42.7711 4.1591 12.3691 37.0506 0.0834 -2.1997 6.7290 0.1006 -2.0452 -5.6305 0.0000 0.0000 0.0000 25.2353 -8.9157 -15.2258 -7.7728 -15.9496 51.7402 -2.3615 -1.9318 -29.8008 -1.6541 8.1049 -23.0333 0.6857 4.6903 24.1854 0.5508 6.3803 3.0707 -1.8261 2.9916 -10.0231 -20.1528 -15.4222 -0.5667 32.4407 -21.0054 -6.5310 11.9430 -10.6373 4.3789 0.0000 0.0000 0.0000 -88.4730 2.0190 24.2308 41.1895 -48.7590 -19.3289 0.0000 0.0000 -31.1796 0.0000 0.0000 0.0000 69.0458 26.9321 37.4156 -39.8323 47.9702 -18.3146 0.0000 0.0000 -21.4302
17.1521 16.1931 5.1394 -160.7616 45.3311 -162.6651 0.0000 0.0000 0.0000 9.6293 -18.9840 -41.0483 3.9787 12.1320 36.2005 0.1172 -1.0117 6.9200 0.0205 -0.9239 -2.5394 0.0000 0.0000 0.0000 26.1949 -6.6311 -12.7003 -7.2912 -15.5723 49.9671 -2.6449 -3.2788 -32.0314 -1.5773 7.9237 -22.4824 1.7826 4.3079 22.4299 0.6951 6.1657 2.6911 -2.0881 2.8763 -9.4190 -20.5168 -15.1701 -1.3501 30.0950 -20.9942 -3.5063 11.0911 -10.4064 5.0303 0.0000 0.0000 0.0000 -89.9527 -0.6380 27.7829 44.1251 -50.3326 -21.5631 0.0000 0.0000 -30.2195 0.0000 0.0000 0.0000 69.3426 26.8836 40.9423 -44.9226 50.7305 -22.1788 0.0000 0.0000 -17.5027
17.0817 16.1910 5.4038 -160.3940 46.7354 -162.9945 0.0000 0.0000 0.0000 10.2347 -18.4503 -39.5707 3.8482 11.9556 35.5749 0.0432 3.0090 3.9694 0.0497 1.4384 3.9560 0.0000 0.0000 0.0000 27.1126 -6.3697 -12.0723 -6.9243 -15.2678 48.5874 -2.8040 -4.9819 -33.6789 -1.1758 6.8825 -19.3678 2.8086 3.9105 20.6826 0.8331 5.8735 2.1432 -2.3141 2.7178 -9.0072 -20.4752 -14.8349 -2.5509 27.6434 -20.6627 -0.6528 10.2030 -10.0481 5.5999 0.0000 0.0000 0.0000 -91.1242 -2.6567 31.6162 47.0784 -51.7470 -23.8600 0.0000 0.0000 -29.4283 0.0000 0.0000 0.0000 70.7464 26.3470 45.7561 -50.2332 53.0891 -26.3605 0.0000 0.0000 -12.9695
