HIERARCHY
ROOT Hips
{
	OFFSET 0.00000 0.00000 0.00000
	CHANNELS 6 Xposition Yposition Zposition Zrotation Yrotation Xrotation
	JOINT LHipJoint
	{
		OFFSET 0.00000 0.00000 0.00000
		CHANNELS 3 Zrotation Yrotation Xrotation
		JOINT LeftUpLeg
		{
			OFFSET 1.77779 -1.88989 0.48267
			CHANNELS 3 Zrotation Yrotation Xrotation
			JOINT LeftLeg
			{
				OFFSET 2.53442 -6.96327 0.00000
				CHANNELS 3 Zrotation Yrotation Xrotation
				JOINT LeftFoot
				{
					OFFSET 2.71068 -7.44755 0.00000
					CHANNELS 3 Zrotation Yrotation Xrotation
					JOINT LeftToeBase
					{
						OFFSET 0.17992 -0.49431 2.22524
						CHANNELS 3 Zrotation Yrotation Xrotation
						End Site
						{
							OFFSET 0.00000 -0.00000 1.14687
						}
					}
				}
			}
		}
	}
	JOINT RHipJoint
	{
		OFFSET 0.00000 0.00000 0.00000
		CHANNELS 3 Zrotation Yrotation Xrotation
		JOINT RightUpLeg
		{
			OFFSET -1.58469 -1.88989 0.48267
			CHANNELS 3 Zrotation Yrotation Xrotation
			JOINT RightLeg
			{
				OFFSET -2.60386 -7.15404 0.00000
				CHANNELS 3 Zrotation Yrotation Xrotation
				JOINT RightFoot
				{
					OFFSET -2.73334 -7.50979 0.00000
					CHANNELS 3 Zrotation Yrotation Xrotation
					JOINT RightToeBase
					{
						OFFSET -0.25618 -0.70384 2.21822
						CHANNELS 3 Zrotation Yrotation Xrotation
						End Site
						{
							OFFSET -0.00000 -0.00000 1.16381
						}
					}
				}
			}
		}
	}
	JOINT LowerBack
	{
		OFFSET 0.00000 0.00000 0.00000
		CHANNELS 3 Zrotation Yrotation Xrotation
		JOINT Spine
		{
			OFFSET 0.03410 2.01612 -0.22230
			CHANNELS 3 Zrotation Yrotation Xrotation
			JOINT Spine1
			{
				OFFSET 0.03465 2.03012 0.00937
				CHANNELS 3 Zrotation Yrotation Xrotation
				JOINT Neck
				{
					OFFSET 0.00000 0.00000 0.00000
					CHANNELS 3 Zrotation Yrotation Xrotation
					JOINT Neck1
					{
						OFFSET -0.00219 1.70459 0.20857
						CHANNELS 3 Zrotation Yrotation Xrotation
						JOINT Head
						{
							OFFSET 0.02518 1.72339 -0.22179
							CHANNELS 3 Zrotation Yrotation Xrotation
							End Site
							{
								OFFSET 0.00282 1.74122 -0.09823
							}
						}
					}
				}
				JOINT LeftShoulder
				{
					OFFSET 0.00000 0.00000 0.00000
					CHANNELS 3 Zrotation Yrotation Xrotation
					JOINT LeftArm
					{
						OFFSET 3.36358 1.00547 -0.37661
						CHANNELS 3 Zrotation Yrotation Xrotation
						JOINT LeftForeArm
						{
							OFFSET 5.06507 -0.00000 0.00000
							CHANNELS 3 Zrotation Yrotation Xrotation
							JOINT LeftHand
							{
								OFFSET 3.60196 -0.00000 0.00000
								CHANNELS 3 Zrotation Yrotation Xrotation
								End Site
								{
									OFFSET 0.00000 0.60000 0.00000
								}
							}
						}
					}
				}
				JOINT RightShoulder
				{
					OFFSET 0.00000 0.00000 0.00000
					CHANNELS 3 Zrotation Yrotation Xrotation
					JOINT RightArm
					{
						OFFSET -3.50159 0.80383 -0.71526
						CHANNELS 3 Zrotation Yrotation Xrotation
						JOINT RightForeArm
						{
							OFFSET -5.36394 -0.00000 0.00000
							CHANNELS 3 Zrotation Yrotation Xrotation
							JOINT RightHand
							{
								OFFSET -3.58035 -0.00000 0.00000
								CHANNELS 3 Zrotation Yrotation Xrotation
								End Site
								{
									OFFSET 0.00000 0.60000 0.00000
								}
							}
						}
					}
				}
			}
		}
	}
}
MOTION
Frames: 34
Frame Time: 0.0333333
0.0000 18.0994 0.0000 -4.1340 -0.0000 -3.4297 0.0000 -0.0000 0.0000 -13.6673 2.0074 -9.9461 12.1568 18.4562 66.4851 -0.2510 -13.2664 15.3936 0.1261 -2.2888 -6.3044 0.0000 -0.0000 0.0000 28.7197 13.8225 -13.9784 -2.9368 -10.5921 30.9162 -0.1829 -2.1590 -9.1717 -0.2246 -3.0508 8.4201 1.6421 -0.6764 11.4742 2.7323 -0.5161 0.4615 2.0292 -0.2614 -5.9488 -1.7644 -3.1671 -16.4303 -0.4229 -3.8687 23.0720 -0.3737 -1.9948 10.0924 0.0000 -0.0000 0.0000 -82.9791 3.2990 29.4035 16.7254 -26.4944 -3.9641 0.0000 -0.0000 -5.2227 0.0000 -0.0000 0.0000 89.4793 -0.4104 4.3472 -11.5685 19.1543 -1.9584 0.0000 -0.0000 8.2030
-0.0176 18.1507 0.7071 -4.6993 -0.1856 -3.6035 0.0000 0.0000 0.0000 -12.6403 1.1659 -15.2566 13.0549 18.8019 69.2960 -0.2903 -10.5611 8.8057 0.0090 -0.6130 -1.6844 0.0000 0.0000 0.0000 30.2190 13.5017 -11.1609 -2.9727 -10.6507 31.1107 -0.3036 -2.4743 -11.6168 -0.2813 -3.4113 9.4261 2.3803 -0.4447 11.5275 2.5762 -0.1150 0.3624 1.3843 -0.0877 -6.0946 -1.7659 -3.2826 -15.9645 -0.2041 -4.1013 23.4492 -0.3239 -2.0773 10.1461 0.0000 0.0000 0.0000 -83.6239 3.8416 28.1149 15.9891 -25.5058 -3.6413 0.0000 0.0000 -4.3448 0.0000 0.0000 0.0000 89.2645 0.4160 6.0208 -11.8858 19.6331 -2.0637 0.0000 0.0000 6.9790
-0.0062 18.1060 1.4069 -4.7990 -0.6929 -3.6310 0.0000 0.0000 0.0000 -12.4691 0.2364 -19.4131 13.1181 18.8244 69.4920 -0.3488 -10.4456 2.8123 0.1132 -2.1689 -5.9726 0.0000 0.0000 0.0000 31.0011 12.9326 -8.6391 -3.0696 -10.8068 31.6311 -0.5325 -1.9456 -14.6272 -0.2836 -3.4251 9.4645 2.7213 -0.0526 11.2607 2.3635 0.4268 0.3321 0.8777 0.1659 -5.9757 -1.7076 -3.4376 -15.5976 -0.2280 -4.3379 23.6386 -0.3688 -2.1848 10.1441 0.0000 0.0000 0.0000 -84.3190 4.5803 27.8664 15.5772 -24.9441 -3.4657 0.0000 0.0000 -5.2273 0.0000 0.0000 0.0000 88.7139 1.3424 8.1052 -12.5047 20.5572 -2.2764 0.0000 0.0000 6.6816
0.0042 18.0844 2.0918 -5.4459 -1.0701 -3.5284 0.0000 0.0000 0.0000 -11.6544 -1.4280 -23.3160 12.1772 18.4645 66.5493 -0.1912 -9.4808 -2.3956 0.3114 -3.5874 -9.9187 0.0000 0.0000 0.0000 32.2531 12.2298 -6.1928 -3.0447 -10.7670 31.4982 -0.7034 -1.6407 -16.5187 -0.4386 -4.2496 11.7800 3.6222 0.2366 11.2413 2.3136 0.9223 0.3493 0.2384 0.3835 -5.9302 -1.8114 -3.5626 -15.7027 0.0081 -4.5418 23.5465 -0.2968 -2.2590 10.1416 0.0000 0.0000 0.0000 -84.7890 4.9934 28.1810 15.4465 -24.7644 -3.4108 0.0000 0.0000 -6.6130 0.0000 0.0000 0.0000 88.1824 2.1736 10.8849 -13.4054 21.8783 -2.6024 0.0000 0.0000 3.6121
0.0307 18.0515 2.7834 -5.8942 -1.4374 -3.4745 0.0000 0.0000 0.0000 -11.0844 -3.1714 -25.6902 10.4299 17.6446 60.9158 -0.0096 -7.6214 -5.1271 0.1591 -2.5698 -7.0832 0.0000 0.0000 0.0000 33.0725 10.7998 -3.6586 -2.9275 -10.5768 30.8654 -0.9014 -1.0164 -18.3332 -0.3126 -3.5945 9.9384 4.4527 0.5294 11.3150 2.1374 1.4144 0.2946 -0.4927 0.5971 -5.9952 -1.8523 -3.5257 -15.4541 0.3538 -4.5694 23.4223 -0.1660 -2.2359 10.0600 0.0000 0.0000 0.0000 -85.0838 5.8687 28.7585 15.6350 -25.0233 -3.4902 0.0000 0.0000 -7.0070 0.0000 0.0000 0.0000 87.6898 3.2145 13.2381 -14.5679 23.5407 -3.0513 0.0000 0.0000 2.6120
0.0741 17.9889 3.4792 -6.5860 -2.2139 -3.0943 0.0000 0.0000 0.0000 -9.9995 -4.5601 -27.5209 8.4504 16.4408 54.1693 0.1816 -5.6198 -7.9886 0.1417 -2.4262 -6.6852 0.0000 0.0000 0.0000 34.0557 10.0871 -1.0373 -2.7876 -10.3431 30.0950 -1.1403 -0.3224 -20.3091 -0.2391 -3.1468 8.6876 5.5807 0.9204 11.1498 2.0765 2.0687 0.1877 -1.2895 0.8842 -5.9493 -1.6008 -3.6543 -15.5014 0.1409 -4.7544 23.1314 -0.3037 -2.3248 9.9539 0.0000 0.0000 0.0000 -85.3866 6.4983 29.1192 15.6823 -25.0879 -3.5102 0.0000 0.0000 -6.4325 0.0000 0.0000 0.0000 87.0428 4.1399 15.1818 -15.1978 24.4210 -3.3073 0.0000 0.0000 0.4004
0.1022 17.9672 4.1641 -6.5935 -2.6463 -2.6587 0.0000 0.0000 0.0000 -9.4838 -6.6653 -27.6253 5.7412 14.1728 43.9340 0.2398 -2.9017 -8.7038 0.0146 -0.7814 -2.1474 0.0000 0.0000 0.0000 34.1716 8.9993 1.6274 -2.5684 -9.9612 28.8510 -1.3107 0.0106 -21.6552 -0.2426 -3.1698 8.7518 5.5745 1.2236 11.0371 2.0129 2.4514 0.3046 -1.4072 1.0787 -5.7357 -1.4441 -3.6619 -16.2821 -0.0476 -4.7371 22.7576 -0.4044 -2.3219 9.9581 0.0000 0.0000 0.0000 -85.8006 7.1559 29.8515 15.8325 -25.2930 -3.5741 0.0000 0.0000 -8.9205 0.0000 0.0000 0.0000 86.2430 5.5429 17.0517 -16.2603 25.8723 -3.7588 0.0000 0.0000 -1.1094
0.1412 17.9576 4.9070 -6.7473 -2.9089 -2.0542 0.0000 0.0000 0.0000 -8.5230 -9.7377 -25.8327 3.1456 10.9271 32.0343 0.2034 0.5058 -8.7174 0.0680 -1.6828 -4.6299 0.0000 0.0000 0.0000 34.3329 7.9023 5.0374 -2.0899 -9.0509 25.9547 -1.3577 0.1427 -21.9978 -0.1487 -2.4848 6.8475 5.8754 1.4538 10.4128 1.9181 2.7478 0.1667 -1.6995 1.2201 -5.4935 -1.6296 -3.5962 -16.2572 0.3754 -4.6983 22.5925 -0.2186 -2.2709 9.9111 0.0000 0.0000 0.0000 -86.1050 7.5786 30.0518 15.8369 -25.2991 -3.5760 0.0000 0.0000 -10.5346 0.0000 0.0000 0.0000 85.8082 6.2956 17.9287 -17.1690 27.0800 -4.1640 0.0000 0.0000 -1.4628
0.1853 17.8769 5.6335 -7.3169 -3.5813 -1.7544 0.0000 0.0000 0.0000 -6.5957 -12.8699 -23.7999 1.4492 7.6097 21.5348 0.2007 2.9850 -10.1074 0.0711 -1.7200 -4.7324 0.0000 0.0000 0.0000 34.7803 6.6240 8.3087 -1.7626 -8.3530 23.7915 -1.3801 0.5997 -22.0339 -0.1177 -2.2117 6.0910 6.4125 1.7186 10.5643 2.0130 3.1922 -0.0113 -1.9717 1.4144 -5.7143 -1.4345 -3.5866 -16.6002 0.2254 -4.6949 22.6175 -0.3099 -2.2677 9.9750 0.0000 0.0000 0.0000 -86.2897 8.4582 30.3989 15.3816 -24.6751 -3.3837 0.0000 0.0000 -9.4572 0.0000 0.0000 0.0000 85.4538 7.2916 17.9901 -17.3894 27.3683 -4.2648 0.0000 0.0000 -1.6170
0.2562 17.8281 6.4001 -7.2913 -4.0769 -1.4362 0.0000 0.0000 0.0000 -5.8362 -15.1625 -22.1113 0.6344 5.0961 14.1829 0.1744 5.8305 -12.1149 0.0345 -1.1987 -3.2958 0.0000 0.0000 0.0000 34.1771 5.0772 10.4163 -1.6809 -8.1671 23.2228 -1.4103 1.6055 -21.9908 -0.0594 -1.5730 4.3270 6.5630 1.9131 10.1471 1.9836 3.4272 0.0438 -2.0993 1.5375 -5.3922 -1.7446 -3.6026 -16.8348 0.4551 -4.6751 22.1044 -0.1746 -2.2592 9.8509 0.0000 0.0000 0.0000 -86.7123 8.7659 29.4225 15.5843 -24.9537 -3.4687 0.0000 0.0000 -7.9485 0.0000 0.0000 0.0000 85.1767 8.0007 17.9605 -17.7449 27.8293 -4.4295 0.0000 0.0000 -1.6194
0.3363 17.7494 7.1587 -7.1921 -3.8650 -1.2970 0.0000 0.0000 0.0000 -7.0397 -13.9497 -22.1312 0.5295 4.6630 12.9499 0.1364 5.7313 -11.3172 0.0768 -1.7883 -4.9210 0.0000 0.0000 0.0000 33.8076 4.4546 12.1093 -1.9215 -8.7007 24.8633 -1.3751 1.8013 -21.6569 -0.0137 0.7558 -2.0771 6.6813 1.8853 10.0777 1.8615 3.3991 -0.0866 -2.2889 1.5135 -5.4793 -1.4907 -3.5845 -16.5791 0.4557 -4.7155 21.6363 -0.2109 -2.2614 9.6309 0.0000 0.0000 0.0000 -86.9002 9.0723 29.5307 14.3904 -23.2900 -2.9807 0.0000 0.0000 -8.0355 0.0000 0.0000 0.0000 85.2364 8.4821 17.0018 -17.4445 27.4401 -4.2902 0.0000 0.0000 -0.7955
0.4259 17.6965 7.9858 -7.0246 -3.3407 -2.0117 0.0000 0.0000 0.0000 -9.2043 -12.1071 -22.2531 0.8710 5.9504 16.6406 0.1432 3.2716 -9.1241 0.1398 -2.4097 -6.6394 0.0000 0.0000 0.0000 33.2371 3.2560 13.3348 -2.4018 -9.6571 27.8732 -1.1287 2.4928 -19.4062 -0.1273 2.3002 -6.3361 6.5108 1.8240 10.1596 1.9661 3.3021 0.0640 -2.0718 1.4778 -5.3896 -1.7346 -3.7078 -16.1553 0.7403 -4.8874 21.1008 -0.0807 -2.3351 9.3810 0.0000 0.0000 0.0000 -87.3812 9.3571 28.2910 14.0925 -22.8668 -2.8640 0.0000 0.0000 -4.5190 0.0000 0.0000 0.0000 85.0065 8.0617 16.1978 -17.5660 27.5979 -4.3463 0.0000 0.0000 -1.3146
0.5486 17.7200 8.8945 -5.7871 -2.8889 -2.5741 0.0000 0.0000 0.0000 -11.5057 -12.4259 -21.3559 1.2700 7.1428 20.1390 0.0203 -1.4062 -2.5659 0.2511 -3.2242 -8.9035 0.0000 0.0000 0.0000 31.1210 2.0159 13.3266 -3.2985 -11.1633 32.8327 -0.6372 3.4785 -14.2982 -0.1422 2.4305 -6.6969 5.6412 1.8360 9.6708 1.6632 3.1623 0.0832 -1.8645 1.4374 -5.1323 -1.8433 -3.7849 -16.6084 0.8631 -5.0038 21.7990 -0.0529 -2.3757 9.7188 0.0000 0.0000 0.0000 -87.6028 9.2762 28.0062 12.8265 -21.0325 -2.3907 0.0000 0.0000 -4.5202 0.0000 0.0000 0.0000 85.1721 7.6834 14.0036 -16.6935 26.4520 -3.9499 0.0000 0.0000 -0.0184
0.6442 17.7342 9.7932 -4.1488 -1.8443 -3.5837 0.0000 0.0000 0.0000 -14.4009 -11.4391 -20.0249 1.6678 8.1369 23.1308 -0.0624 -4.5023 0.7652 0.1511 -2.5051 -6.9039 0.0000 0.0000 0.0000 28.5691 0.9692 10.4137 -5.2105 -13.6170 41.7242 -0.0393 1.6243 -3.5321 -0.0195 0.9020 -2.4793 3.9472 1.6415 9.6680 1.3551 2.7063 -0.1008 -1.1840 1.2442 -5.4158 -2.0130 -3.8833 -16.0349 0.9568 -5.1476 22.4444 -0.0069 -2.4464 9.8502 0.0000 0.0000 0.0000 -87.7329 9.7885 26.5535 11.9351 -19.7072 -2.0804 0.0000 0.0000 -3.4245 0.0000 0.0000 0.0000 85.7084 5.8601 11.5884 -16.1293 25.6957 -3.7019 0.0000 0.0000 1.0850
0.7301 17.7835 10.6376 -3.6788 -1.7502 -4.0617 0.0000 0.0000 0.0000 -16.0056 -8.9768 -19.0739 2.1355 9.1428 26.2431 -0.1507 -7.7000 -0.9045 0.0097 -0.6348 -1.7444 0.0000 0.0000 0.0000 27.1889 1.3277 5.3344 -7.6853 -15.8828 51.4211 -0.3300 -2.2593 10.3034 -0.0974 -2.0123 5.5396 3.5207 1.6735 9.7581 1.2088 2.6978 -0.1201 -1.1006 1.2479 -5.4990 -1.8418 -3.9432 -16.2563 1.0825 -5.3089 22.5222 -0.0186 -2.4895 9.9208 0.0000 0.0000 0.0000 -87.5083 9.6500 24.1246 11.8994 -19.6536 -2.0683 0.0000 0.0000 -2.0021 0.0000 0.0000 0.0000 86.5698 4.7423 8.4291 -15.5727 24.9379 -3.4638 0.0000 0.0000 2.1736
0.8022 17.8618 11.4199 -1.5652 -2.6769 -4.7699 0.0000 0.0000 0.0000 -19.2374 -7.0613 -15.9487 2.2246 9.3190 26.7983 -0.0637 -7.6389 -3.8146 0.0184 -0.8749 -2.4047 0.0000 0.0000 0.0000 24.4786 3.5011 -0.0022 -10.6047 -17.7361 61.4910 -1.2520 -8.9116 20.0630 -1.6416 -8.0758 22.9447 1.3284 1.9124 10.6830 0.6777 2.7542 -0.1951 -0.4720 1.3207 -6.1712 -1.8821 -3.7519 -16.0887 1.4006 -5.1008 22.0164 0.1347 -2.3662 9.7171 0.0000 0.0000 0.0000 -87.1522 10.2066 23.6132 12.4909 -20.5368 -2.2716 0.0000 0.0000 -3.8019 0.0000 0.0000 0.0000 87.5984 3.3616 6.9593 -15.2853 24.5420 -3.3435 0.0000 0.0000 2.6066
0.8529 17.8865 12.1858 0.5363 -1.9108 -5.1554 0.0000 0.0000 0.0000 -22.5633 -7.0815 -12.8271 2.3528 9.5652 27.5797 0.0587 -6.8992 -6.1421 0.0095 0.6300 1.7313 0.0000 0.0000 0.0000 21.7938 3.6852 -5.9043 -13.2140 -18.8581 69.7889 -0.3829 -11.1932 12.6385 -1.1217 -6.7278 18.9114 -0.9226 1.4813 10.1359 0.2415 1.8761 0.3522 0.4976 0.9501 -5.3566 -1.7941 -3.4206 -16.5347 1.1864 -4.5855 21.4362 0.1110 -2.1452 9.5784 0.0000 0.0000 0.0000 -86.6156 8.5879 24.0266 12.0160 -19.8286 -2.1077 0.0000 0.0000 -6.1941 0.0000 0.0000 0.0000 88.1152 3.9219 5.8939 -14.0314 22.7796 -2.8403 0.0000 0.0000 3.6133
0.8804 17.9323 12.9029 0.6346 -1.1680 -5.4222 0.0000 0.0000 0.0000 -23.5210 -7.2547 -9.4982 2.3002 9.4651 27.2615 0.1969 -6.0857 -8.3841 0.0055 0.4805 1.3202 0.0000 0.0000 0.0000 21.5901 4.1721 -11.3243 -14.5528 -19.2732 73.8859 0.2198 -10.4007 2.9137 -0.3533 -3.8190 10.5679 -1.1517 1.0364 10.4310 0.3406 1.2598 0.3293 0.8153 0.6542 -5.5425 -1.9292 -3.3542 -15.8738 0.9145 -4.3984 21.1752 0.0781 -2.1073 9.3579 0.0000 0.0000 0.0000 -85.8312 7.7852 24.3972 11.8532 -19.5842 -2.0528 0.0000 0.0000 -7.3990 0.0000 0.0000 0.0000 88.7781 3.6584 3.4942 -13.0884 21.4166 -2.4855 0.0000 0.0000 6.5168
0.8880 17.9550 13.5923 0.0972 -1.3300 -5.7137 0.0000 0.0000 0.0000 -23.4863 -6.6796 -6.6740 2.3198 9.5027 27.3808 0.3630 -5.1600 -10.7782 0.0042 -0.4209 -1.1566 0.0000 0.0000 0.0000 22.3092 6.0996 -15.6993 -14.7822 -19.3343 74.5797 0.2331 -9.4485 0.8915 -0.6748 -5.2528 14.6311 -0.9400 0.7864 10.8893 0.6368 0.9658 0.3679 1.0456 0.5084 -5.7538 -1.7782 -3.1656 -15.6145 0.5972 -4.1045 21.1451 -0.0133 -1.9962 9.2839 0.0000 0.0000 0.0000 -84.9875 6.5667 23.6543 12.3534 -20.3325 -2.2235 0.0000 0.0000 -3.7222 0.0000 0.0000 0.0000 89.4245 2.5610 3.1532 -13.0576 21.3715 -2.4742 0.0000 0.0000 8.0263
0.9086 17.9244 14.2833 0.3499 -1.4651 -5.6700 0.0000 0.0000 0.0000 -24.3236 -6.1911 -4.3862 2.4281 9.7060 28.0300 0.5633 -4.2829 -13.3678 0.0122 0.7125 1.9581 0.0000 0.0000 0.0000 21.7912 8.0917 -19.7775 -14.1686 -19.1644 72.7186 0.0823 -5.7984 -5.0931 -0.3286 -3.6845 10.1906 -1.3255 0.5740 10.7511 0.7365 0.6428 0.5001 1.4194 0.3589 -5.5342 -1.6870 -2.9784 -15.8568 0.3528 -3.8047 21.1107 -0.0779 -1.8755 9.3057 0.0000 0.0000 0.0000 -83.9538 5.0882 24.2279 12.9951 -21.2800 -2.4515 0.0000 0.0000 -2.4235 0.0000 0.0000 0.0000 89.7610 1.5823 3.7125 -12.9713 21.2452 -2.4429 0.0000 0.0000 6.7913
0.9154 17.8545 14.9832 1.0295 -1.3744 -5.5893 0.0000 0.0000 0.0000 -25.5284 -5.1502 -2.0735 2.4243 9.6989 28.0072 0.7567 -4.2119 -15.5525 0.0127 0.7264 1.9962 0.0000 0.0000 0.0000 20.6482 9.4963 -23.4056 -12.7727 -18.6986 68.4181 -0.1126 -4.6606 -9.7208 -0.1033 -2.0724 5.7059 -2.0883 0.3803 10.7417 0.7071 0.2906 0.5353 1.8734 0.2036 -5.4834 -2.0080 -2.8608 -15.7839 0.3437 -3.5515 20.6939 0.0088 -1.7852 9.1516 0.0000 0.0000 0.0000 -82.8099 4.0677 26.2332 13.7986 -22.4460 -2.7507 0.0000 0.0000 -4.2175 0.0000 0.0000 0.0000 89.8348 0.6772 4.4295 -12.9139 21.1609 -2.4221 0.0000 0.0000 6.1813
0.9204 17.7956 15.6655 1.7404 -0.6376 -5.2087 0.0000 0.0000 0.0000 -26.6933 -4.5530 0.5142 2.2857 9.4375 27.1736 0.9319 -4.3524 -17.3019 0.0413 1.3119 3.6073 0.0000 0.0000 0.0000 19.2242 10.0785 -26.6860 -10.6555 -17.7623 61.6577 -0.2307 -5.5034 -12.7531 -0.1016 2.0554 -5.6587 -2.8982 -0.0310 11.0578 0.6322 -0.3687 0.5385 2.3561 -0.0992 -5.6210 -2.2252 -2.6733 -16.5430 0.4597 -3.2372 20.3285 0.1159 -1.6389 9.1669 0.0000 0.0000 0.0000 -81.6667 2.8664 27.7670 14.9624 -24.0938 -3.2106 0.0000 0.0000 -6.2040 0.0000 0.0000 0.0000 90.0666 -0.0991 5.0890 -13.3531 21.8024 -2.5830 0.0000 0.0000 5.7104
0.9137 17.7597 16.3486 1.8937 -0.3938 -4.7480 0.0000 0.0000 0.0000 -27.0306 -3.4791 3.3678 1.9865 8.8379 25.2894 1.0796 -4.5521 -18.6489 0.0471 1.4002 3.8506 0.0000 0.0000 0.0000 18.5461 10.9285 -28.3732 -7.9915 -16.1130 52.5320 -0.0599 -8.2667 -12.9048 -0.0007 0.1703 -0.4680 -3.1769 -0.2547 11.2057 0.7284 -0.7024 0.3681 2.6709 -0.2479 -5.8589 -2.4154 -2.5219 -16.1308 0.5840 -3.0068 19.4119 0.2298 -1.5330 8.7786 0.0000 0.0000 0.0000 -80.6276 1.8269 29.0383 16.1565 -25.7324 -3.7136 0.0000 0.0000 -7.0261 0.0000 0.0000 0.0000 90.2344 -1.5475 5.5925 -13.8931 22.5816 -2.7869 0.0000 0.0000 4.6384
0.9031 17.7473 17.0534 2.1749 -0.5020 -3.9426 0.0000 0.0000 0.0000 -27.3163 -1.9692 6.2694 1.4958 7.7256 21.8838 1.0359 -4.5057 -18.2594 0.0702 1.7092 4.7026 0.0000 0.0000 0.0000 17.5496 12.3406 -29.0416 -5.0921 -13.4868 41.2190 0.3381 -11.1641 -8.8561 -0.0024 -0.3196 0.8782 -3.4770 -0.3578 10.7633 0.7639 -0.8567 0.5869 2.8919 -0.3289 -5.3646 -2.1708 -2.4270 -17.2825 0.1858 -2.8153 19.0152 0.0669 -1.4628 8.8378 0.0000 0.0000 0.0000 -79.7414 -0.2445 29.3001 16.8213 -26.6217 -4.0070 0.0000 0.0000 -6.9528 0.0000 0.0000 0.0000 90.4294 -1.9167 6.5770 -14.6729 23.6885 -3.0933 0.0000 0.0000 2.8749
0.8760 17.7186 17.7613 1.8659 -0.6818 -2.8570 0.0000 0.0000 0.0000 -26.7020 -0.0749 9.2552 1.0776 6.5983 18.5307 1.1144 -4.7133 -18.9425 0.0001 0.0730 0.2006 0.0000 0.0000 0.0000 16.9644 14.4975 -28.3487 -2.5159 -9.8668 28.5464 0.5593 -13.1132 -4.9178 -0.0157 -0.8092 2.2239 -3.2735 -0.4457 10.2712 0.9658 -0.9250 0.2758 2.9938 -0.3598 -5.4106 -2.2125 -2.4624 -16.4001 0.0997 -2.8496 17.5219 0.0617 -1.4904 8.1739 0.0000 0.0000 0.0000 -79.2112 -1.4800 29.2655 17.3914 -27.3709 -4.2657 0.0000 0.0000 -7.5949 0.0000 0.0000 0.0000 90.5831 -2.3900 5.5845 -14.3300 23.2045 -2.9569 0.0000 0.0000 3.6148
0.8429 17.6680 18.5172 2.7878 0.1369 -2.3282 0.0000 0.0000 0.0000 -27.2683 1.6102 13.1275 0.6729 5.2455 14.6102 0.9890 -5.5166 -17.7603 0.0009 0.1899 0.5218 0.0000 0.0000 0.0000 14.2491 16.9336 -26.3492 -1.0343 -6.4687 18.1506 0.2982 -11.8626 -11.7545 -0.0245 -1.0096 2.7752 -4.1852 -0.7499 10.0713 0.7861 -1.4388 0.2560 3.3894 -0.5952 -5.2637 -2.3076 -2.3160 -17.4475 0.3193 -2.6426 17.9598 0.1609 -1.3738 8.5095 0.0000 0.0000 0.0000 -79.0105 -2.9231 28.5749 17.6070 -27.6511 -4.3653 0.0000 0.0000 -7.7454 0.0000 0.0000 0.0000 90.6746 -2.4518 4.3663 -13.8748 22.5555 -2.7799 0.0000 0.0000 4.6719
0.7870 17.5983 19.2607 2.7989 0.7580 -1.8258 0.0000 0.0000 0.0000 -26.7648 2.1276 15.0717 0.6448 5.1371 14.2999 0.9004 -6.6390 -16.9306 0.0136 -0.7535 -2.0707 0.0000 0.0000 0.0000 13.0762 18.7628 -24.7103 -0.4933 -4.5033 12.4970 0.0615 -10.7044 -14.2653 -0.0131 0.7385 -2.0295 -4.4228 -0.9588 10.0644 0.9370 -1.7365 0.1991 3.7247 -0.7327 -5.2821 -2.3116 -2.3506 -17.6040 0.1710 -2.6499 17.4253 0.1122 -1.3911 8.3545 0.0000 0.0000 0.0000 -78.9868 -4.2052 28.2940 17.6913 -27.7601 -4.4045 0.0000 0.0000 -7.9953 0.0000 0.0000 0.0000 90.7190 -3.0527 4.1973 -13.8729 22.5527 -2.7792 0.0000 0.0000 4.2654
0.7316 17.5324 20.0485 2.8811 0.8713 -1.9640 0.0000 0.0000 0.0000 -26.7252 1.8519 17.2301 0.8108 5.7463 16.0500 0.7689 -7.7803 -15.7523 0.2105 -2.9541 -8.1510 0.0000 0.0000 0.0000 14.3193 16.0435 -26.3409 -0.9229 -6.1203 17.1339 -0.0816 -6.3509 -10.9296 -0.0032 0.3662 -1.0063 -4.6161 -1.0226 10.5121 1.0320 -1.8576 0.3052 3.9639 -0.7846 -5.4011 -2.3025 -2.2445 -17.6834 0.0057 -2.4678 16.8525 0.0803 -1.3195 8.1711 0.0000 0.0000 0.0000 -79.3934 -4.7478 27.5676 17.7863 -27.8827 -4.4489 0.0000 0.0000 -7.8159 0.0000 0.0000 0.0000 90.6170 -2.8648 3.1646 -13.2894 21.7098 -2.5594 0.0000 0.0000 5.2230
0.6568 17.5347 20.9076 1.8719 1.2596 -2.0112 0.0000 0.0000 0.0000 -25.4820 1.0910 18.4740 1.1781 6.8888 19.3864 0.4857 -8.2289 -12.8490 0.4342 -4.2286 -11.7207 0.0000 0.0000 0.0000 16.2612 15.4495 -26.8279 -1.5830 -7.9374 22.5242 0.0609 -6.3385 -7.1958 -0.1568 2.5511 -7.0315 -3.7497 -1.2359 10.2112 1.3706 -2.0065 0.3626 3.8390 -0.8834 -5.1730 -2.2996 -2.1245 -17.6198 0.0999 -2.3244 16.5817 0.1310 -1.2407 8.0685 0.0000 0.0000 0.0000 -79.9007 -4.4988 27.3877 17.8945 -28.0219 -4.4996 0.0000 0.0000 -8.4037 0.0000 0.0000 0.0000 90.7008 -2.6183 0.5941 -12.4550 20.4834 -2.2590 0.0000 0.0000 7.8218
0.6021 17.6521 21.7954 -0.3347 1.2824 -2.4591 0.0000 0.0000 0.0000 -22.3759 0.3756 14.4378 3.0080 10.7080 31.3015 0.1427 -9.5215 -4.4452 1.0911 -6.6383 -18.6481 0.0000 0.0000 0.0000 19.9102 14.7686 -24.4143 -2.1392 -9.1503 26.2665 0.0335 -4.1754 -4.4499 -0.0289 1.0967 -3.0148 -1.5613 -1.3981 10.5646 2.0679 -1.9296 0.1400 3.3405 -0.8793 -5.6488 -2.1200 -2.2489 -17.7013 -0.6489 -2.3894 18.1292 -0.1733 -1.3442 8.6003 0.0000 0.0000 0.0000 -81.4652 -2.2536 26.8257 17.6442 -27.6993 -4.3826 0.0000 0.0000 -7.4423 0.0000 0.0000 0.0000 90.2603 -2.5552 -0.3672 -11.7433 19.4186 -2.0162 0.0000 0.0000 9.2592
0.5389 17.7890 22.6744 -1.6396 0.4258 -2.7994 0.0000 0.0000 0.0000 -19.7541 0.9375 7.2904 5.6488 14.0792 43.5553 -0.2613 -11.2534 6.7264 0.4887 -4.4824 -12.4380 0.0000 0.0000 0.0000 23.0543 13.9215 -21.8812 -2.6413 -10.0904 29.2701 -0.0493 -2.1848 -4.6607 -0.0309 -1.1354 3.1212 -0.4658 -1.1406 10.6852 2.4249 -1.4312 0.0983 3.0270 -0.6561 -5.8109 -2.2987 -2.3093 -17.1780 -0.4309 -2.4920 18.8729 -0.0879 -1.3830 8.7708 0.0000 0.0000 0.0000 -82.6671 -0.2304 26.2576 17.3907 -27.3700 -4.2654 0.0000 0.0000 -6.3595 0.0000 0.0000 0.0000 90.0637 -1.9637 -1.6010 -11.1779 18.5604 -1.8322 0.0000 0.0000 10.8144
0.4611 17.9332 23.5103 -3.0876 0.4148 -3.1896 0.0000 0.0000 0.0000 -16.9567 0.5172 0.8079 8.3595 16.3775 53.8476 0.0247 -11.8160 17.2995 0.1377 -2.3916 -6.5891 0.0000 0.0000 0.0000 25.8912 13.3798 -18.6180 -2.7874 -10.3428 30.0941 -0.0915 -1.9243 -5.9755 -0.2266 -3.0642 8.4574 0.7908 -1.0414 11.1155 2.7139 -1.1171 0.1745 2.5850 -0.5316 -6.0136 -1.9703 -2.4993 -17.4282 -0.5353 -2.8131 20.1582 -0.2303 -1.5271 9.2527 0.0000 0.0000 0.0000 -83.1705 1.4216 27.1087 17.4208 -27.4092 -4.2793 0.0000 0.0000 -6.5359 0.0000 0.0000 0.0000 90.0252 -1.8223 0.4364 -11.4602 18.9902 -1.9230 0.0000 0.0000 8.8155
0.3982 18.0193 24.2983 -4.1055 0.1076 -3.3671 0.0000 0.0000 0.0000 -14.9442 0.4408 -4.4011 10.5361 17.7005 61.2658 0.2583 -12.1815 20.0347 0.0100 -0.6432 -1.7675 0.0000 0.0000 0.0000 27.9295 13.4242 -15.9198 -2.8158 -10.3908 30.2517 -0.1256 -2.0108 -7.3773 -0.2880 -3.4514 9.5382 1.6925 -0.8238 11.2773 2.8833 -0.6981 0.2922 2.1888 -0.3499 -6.0117 -1.8510 -2.7721 -16.9972 -0.5224 -3.2416 20.7280 -0.3002 -1.7185 9.3764 0.0000 0.0000 0.0000 -83.2024 2.1606 28.6052 17.0547 -26.9299 -4.1121 0.0000 0.0000 -6.6307 0.0000 0.0000 0.0000 89.8322 -1.2266 1.9422 -11.4253 18.9371 -1.9116 0.0000 0.0000 8.3095
0.3670 18.0728 25.0620 -4.2883 0.0818 -3.5054 0.0000 0.0000 0.0000 -14.1640 0.6618 -7.8011 11.7605 18.2876 65.2279 -0.0945 -12.5206 16.6638 0.0270 -1.0601 -2.9141 0.0000 0.0000 0.0000 28.6383 13.2369 -14.3221 -2.8382 -10.4285 30.3758 -0.1662 -1.9392 -8.5661 -0.2759 -3.3787 9.3349 1.8956 -0.7169 11.3916 2.8142 -0.5320 0.3802 1.9750 -0.2752 -5.9899 -1.8678 -2.9556 -16.5302 -0.3236 -3.5571 21.3443 -0.2694 -1.8446 9.5141 0.0000 0.0000 0.0000 -83.2059 2.7446 29.1521 16.9122 -26.7420 -4.0478 0.0000 0.0000 -5.6820 0.0000 0.0000 0.0000 89.6770 -0.7354 3.3765 -11.5202 19.0811 -1.9426 0.0000 0.0000 8.2522
